<?xml version="1.0" encoding="UTF-8"?>
<gpx xmlns="http://www.topografix.com/GPX/1/1" xmlns:gpxtpx="http://www.garmin.com/xmlschemas/TrackPointExtension/v1" xmlns:xsi="http://www.w3.org/2001/XMLSchema-instance" xsi:schemaLocation="http://www.topografix.com/GPX/1/1 http://www.topografix.com/GPX/1/1/gpx.xsd" version="1.1" creator="gpx.py -- https://github.com/tkrajina/gpxpy">
  <trk>
    <name>gpx from keep</name>
    <type>Walk</type>
    <trkseg>
      <trkpt lat="29.602403481307697" lon="106.31969190036396">
        <ele>276.6473388671875</ele>
        <time>2026-09-03T23:13:09Z</time>
      </trkpt>
      <trkpt lat="29.602399587355723" lon="106.31963703626103">
        <ele>269.1578369140625</ele>
        <time>2026-09-03T23:13:12Z</time>
      </trkpt>
      <trkpt lat="29.602432729708394" lon="106.3195572315617">
        <ele>263.9471435546875</ele>
        <time>2026-09-03T23:13:18Z</time>
      </trkpt>
      <trkpt lat="29.602492797093863" lon="106.31951233890545">
        <ele>260.70751953125</ele>
        <time>2026-09-03T23:13:24Z</time>
      </trkpt>
      <trkpt lat="29.602555800686126" lon="106.31950036469452">
        <ele>261.3475341796875</ele>
        <time>2026-09-03T23:13:30Z</time>
      </trkpt>
      <trkpt lat="29.602701735085272" lon="106.31951132876779">
        <ele>260.54449462890625</ele>
        <time>2026-09-03T23:13:42Z</time>
      </trkpt>
      <trkpt lat="29.602873758735882" lon="106.31947141702001">
        <ele>262.0347900390625</ele>
        <time>2026-09-03T23:14:00Z</time>
      </trkpt>
      <trkpt lat="29.602923833002926" lon="106.3194245298782">
        <ele>259.8336181640625</ele>
        <time>2026-09-03T23:14:06Z</time>
      </trkpt>
      <trkpt lat="29.602940054784852" lon="106.31930582224372">
        <ele>255.8909912109375</ele>
        <time>2026-09-03T23:14:18Z</time>
      </trkpt>
      <trkpt lat="29.60291730365544" lon="106.31917913659835">
        <ele>256.29107666015625</ele>
        <time>2026-09-03T23:14:30Z</time>
      </trkpt>
      <trkpt lat="29.602931992185013" lon="106.31881603227801">
        <ele>259.2347412109375</ele>
        <time>2026-09-03T23:15:00Z</time>
      </trkpt>
      <trkpt lat="29.602898529411494" lon="106.318539716069">
        <ele>256.62396240234375</ele>
        <time>2026-09-03T23:15:24Z</time>
      </trkpt>
      <trkpt lat="29.602919207492768" lon="106.31818060019722">
        <ele>254.55401611328125</ele>
        <time>2026-09-03T23:15:54Z</time>
      </trkpt>
      <trkpt lat="29.602945898310654" lon="106.31781350279971">
        <ele>252.2158203125</ele>
        <time>2026-09-03T23:16:24Z</time>
      </trkpt>
      <trkpt lat="29.60294460837476" lon="106.31744042091788">
        <ele>254.831787109375</ele>
        <time>2026-09-03T23:16:54Z</time>
      </trkpt>
      <trkpt lat="29.602950279571925" lon="106.31708629108424">
        <ele>253.08392333984375</ele>
        <time>2026-09-03T23:17:24Z</time>
      </trkpt>
      <trkpt lat="29.602987648857702" lon="106.31688578131053">
        <ele>251.16912841796875</ele>
        <time>2026-09-03T23:17:42Z</time>
      </trkpt>
      <trkpt lat="29.60295697624633" lon="106.31671819455299">
        <ele>252.97003173828125</ele>
        <time>2026-09-03T23:17:54Z</time>
      </trkpt>
      <trkpt lat="29.60296311061599" lon="106.31664637043023">
        <ele>252.73651123046875</ele>
        <time>2026-09-03T23:18:00Z</time>
      </trkpt>
      <trkpt lat="29.60287647755758" lon="106.31646681609315">
        <ele>252.3074951171875</ele>
        <time>2026-09-03T23:18:18Z</time>
      </trkpt>
      <trkpt lat="29.602831559355735" lon="106.31643090685783">
        <ele>253.92474365234375</ele>
        <time>2026-09-03T23:18:24Z</time>
      </trkpt>
      <trkpt lat="29.602704637860366" lon="106.31640996586685">
        <ele>254.307861328125</ele>
        <time>2026-09-03T23:18:36Z</time>
      </trkpt>
      <trkpt lat="29.602643622487395" lon="106.31642792551762">
        <ele>255.05517578125</ele>
        <time>2026-09-03T23:18:42Z</time>
      </trkpt>
      <trkpt lat="29.602595557772933" lon="106.31646982567848">
        <ele>255.499267578125</ele>
        <time>2026-09-03T23:18:48Z</time>
      </trkpt>
      <trkpt lat="29.602511352789723" lon="106.31659153225415">
        <ele>253.943359375</ele>
        <time>2026-09-03T23:19:00Z</time>
      </trkpt>
      <trkpt lat="29.60250304690039" lon="106.31675413376506">
        <ele>254.1287841796875</ele>
        <time>2026-09-03T23:19:12Z</time>
      </trkpt>
      <trkpt lat="29.602590435044203" lon="106.31706237158728">
        <ele>253.848876953125</ele>
        <time>2026-09-03T23:19:36Z</time>
      </trkpt>
      <trkpt lat="29.60258915688849" lon="106.31720901133522">
        <ele>255.00982666015625</ele>
        <time>2026-09-03T23:19:48Z</time>
      </trkpt>
      <trkpt lat="29.602539897085894" lon="106.31735365872662">
        <ele>256.019775390625</ele>
        <time>2026-09-03T23:20:00Z</time>
      </trkpt>
      <trkpt lat="29.60250078390202" lon="106.31741949918616">
        <ele>256.0556640625</ele>
        <time>2026-09-03T23:20:06Z</time>
      </trkpt>
      <trkpt lat="29.602362676343176" lon="106.31749831368363">
        <ele>253.947265625</ele>
        <time>2026-09-03T23:20:18Z</time>
      </trkpt>
      <trkpt lat="29.602085685322706" lon="106.31753823222195">
        <ele>253.6248779296875</ele>
        <time>2026-09-03T23:20:42Z</time>
      </trkpt>
      <trkpt lat="29.601948704556563" lon="106.31755021102897">
        <ele>256.58111572265625</ele>
        <time>2026-09-03T23:20:54Z</time>
      </trkpt>
      <trkpt lat="29.601885665079145" lon="106.31758113874771">
        <ele>256.63812255859375</ele>
        <time>2026-09-03T23:21:00Z</time>
      </trkpt>
      <trkpt lat="29.601846559434826" lon="106.31764298892382">
        <ele>255.88690185546875</ele>
        <time>2026-09-03T23:21:06Z</time>
      </trkpt>
      <trkpt lat="29.601836414518807" lon="106.31772079804524">
        <ele>255.8194580078125</ele>
        <time>2026-09-03T23:21:12Z</time>
      </trkpt>
      <trkpt lat="29.601867711812073" lon="106.31808489955132">
        <ele>257.92724609375</ele>
        <time>2026-09-03T23:21:42Z</time>
      </trkpt>
      <trkpt lat="29.601885970629496" lon="106.31847094687873">
        <ele>254.65167236328125</ele>
        <time>2026-09-03T23:22:12Z</time>
      </trkpt>
      <trkpt lat="29.60187927829611" lon="106.31883504898045">
        <ele>257.25311279296875</ele>
        <time>2026-09-03T23:22:42Z</time>
      </trkpt>
      <trkpt lat="29.6018658788304" lon="106.31904652768512">
        <ele>256.86614990234375</ele>
        <time>2026-09-03T23:23:00Z</time>
      </trkpt>
      <trkpt lat="29.601924201883097" lon="106.31939167152902">
        <ele>254.7332763671875</ele>
        <time>2026-09-03T23:23:30Z</time>
      </trkpt>
      <trkpt lat="29.601913492266103" lon="106.31976474983996">
        <ele>257.008544921875</ele>
        <time>2026-09-03T23:24:00Z</time>
      </trkpt>
      <trkpt lat="29.601902076181698" lon="106.31998420765879">
        <ele>258.9544677734375</ele>
        <time>2026-09-03T23:24:18Z</time>
      </trkpt>
      <trkpt lat="29.601941999076995" lon="106.3200181213317">
        <ele>257.66558837890625</ele>
        <time>2026-09-03T23:24:24Z</time>
      </trkpt>
      <trkpt lat="29.602157978649892" lon="106.31999416753817">
        <ele>256.24853515625</ele>
        <time>2026-09-03T23:24:42Z</time>
      </trkpt>
      <trkpt lat="29.602199872336275" lon="106.32004304406503">
        <ele>255.1444091796875</ele>
        <time>2026-09-03T23:24:48Z</time>
      </trkpt>
      <trkpt lat="29.602209661369926" lon="106.3201517743927">
        <ele>255.37115478515625</ele>
        <time>2026-09-03T23:24:57Z</time>
      </trkpt>
    </trkseg>
  </trk>
</gpx>