<?xml version="1.0" encoding="UTF-8"?>
<gpx xmlns="http://www.topografix.com/GPX/1/1" xmlns:gpxtpx="http://www.garmin.com/xmlschemas/TrackPointExtension/v1" xmlns:xsi="http://www.w3.org/2001/XMLSchema-instance" xsi:schemaLocation="http://www.topografix.com/GPX/1/1 http://www.topografix.com/GPX/1/1/gpx.xsd" version="1.1" creator="gpx.py -- https://github.com/tkrajina/gpxpy">
  <trk>
    <name>gpx from keep</name>
    <type>Walk</type>
    <trkseg>
      <trkpt lat="29.602467253949932" lon="106.31980062761514">
        <ele>255.8153076171875</ele>
        <time>2026-08-11T23:07:38Z</time>
      </trkpt>
      <trkpt lat="29.602450558408325" lon="106.31964401592096">
        <ele>255.1865234375</ele>
        <time>2026-08-11T23:07:50Z</time>
      </trkpt>
      <trkpt lat="29.602474705424132" lon="106.31956321423324">
        <ele>254.17578125</ele>
        <time>2026-08-11T23:07:56Z</time>
      </trkpt>
      <trkpt lat="29.602530779753224" lon="106.3195153292168">
        <ele>254.1815185546875</ele>
        <time>2026-08-11T23:08:02Z</time>
      </trkpt>
      <trkpt lat="29.60278076238264" lon="106.31948439057614">
        <ele>252.0697021484375</ele>
        <time>2026-08-11T23:08:26Z</time>
      </trkpt>
      <trkpt lat="29.60290385435137" lon="106.31941655080621">
        <ele>255.34228515625</ele>
        <time>2026-08-11T23:08:38Z</time>
      </trkpt>
      <trkpt lat="29.602945934863104" lon="106.31936766906354">
        <ele>254.96435546875</ele>
        <time>2026-08-11T23:08:44Z</time>
      </trkpt>
      <trkpt lat="29.602943606021835" lon="106.31901653658659">
        <ele>254.322998046875</ele>
        <time>2026-08-11T23:09:14Z</time>
      </trkpt>
      <trkpt lat="29.602926311684314" lon="106.31864944370705">
        <ele>252.7017822265625</ele>
        <time>2026-08-11T23:09:44Z</time>
      </trkpt>
      <trkpt lat="29.60293399391707" lon="106.31829032885861">
        <ele>253.56182861328125</ele>
        <time>2026-08-11T23:10:14Z</time>
      </trkpt>
      <trkpt lat="29.60292767792331" lon="106.31793221159897">
        <ele>251.65216064453125</ele>
        <time>2026-08-11T23:10:44Z</time>
      </trkpt>
      <trkpt lat="29.602956058456872" lon="106.3177277133707">
        <ele>251.8385009765625</ele>
        <time>2026-08-11T23:11:02Z</time>
      </trkpt>
      <trkpt lat="29.60295569222392" lon="106.31739453309808">
        <ele>251.2757568359375</ele>
        <time>2026-08-11T23:11:32Z</time>
      </trkpt>
      <trkpt lat="29.60296634286702" lon="106.31705037834296">
        <ele>250.30517578125</ele>
        <time>2026-08-11T23:12:02Z</time>
      </trkpt>
      <trkpt lat="29.60298960470922" lon="106.31690872485447">
        <ele>249.43096923828125</ele>
        <time>2026-08-11T23:12:14Z</time>
      </trkpt>
      <trkpt lat="29.603021716080068" lon="106.31684487967705">
        <ele>248.1575927734375</ele>
        <time>2026-08-11T23:12:20Z</time>
      </trkpt>
      <trkpt lat="29.602968322788374" lon="106.31653364664612">
        <ele>250.6846923828125</ele>
        <time>2026-08-11T23:12:44Z</time>
      </trkpt>
      <trkpt lat="29.60288858541497" lon="106.31640795967672">
        <ele>249.85064697265625</ele>
        <time>2026-08-11T23:12:56Z</time>
      </trkpt>
      <trkpt lat="29.602825670809178" lon="106.31637304906342">
        <ele>248.80792236328125</ele>
        <time>2026-08-11T23:13:02Z</time>
      </trkpt>
      <trkpt lat="29.60256650992681" lon="106.3164997540381">
        <ele>252.525146484375</ele>
        <time>2026-08-11T23:13:26Z</time>
      </trkpt>
      <trkpt lat="29.6025284194488" lon="106.31655362421279">
        <ele>250.6015625</ele>
        <time>2026-08-11T23:13:32Z</time>
      </trkpt>
      <trkpt lat="29.602506865899375" lon="106.31684890090266">
        <ele>250.5589599609375</ele>
        <time>2026-08-11T23:13:56Z</time>
      </trkpt>
      <trkpt lat="29.602556581788036" lon="106.31699055005795">
        <ele>251.5716552734375</ele>
        <time>2026-08-11T23:14:09Z</time>
      </trkpt>
      <trkpt lat="29.60259347010958" lon="106.31704341796618">
        <ele>252.8021240234375</ele>
        <time>2026-08-11T23:14:14Z</time>
      </trkpt>
      <trkpt lat="29.60255406906103" lon="106.31726088594945">
        <ele>251.724365234375</ele>
        <time>2026-08-11T23:14:32Z</time>
      </trkpt>
      <trkpt lat="29.602481839005048" lon="106.31739356410942">
        <ele>253.82928466796875</ele>
        <time>2026-08-11T23:14:44Z</time>
      </trkpt>
      <trkpt lat="29.602432745934138" lon="106.31745042723345">
        <ele>254.5328369140625</ele>
        <time>2026-08-11T23:14:50Z</time>
      </trkpt>
      <trkpt lat="29.60236870863854" lon="106.31748035748674">
        <ele>255.67608642578125</ele>
        <time>2026-08-11T23:14:56Z</time>
      </trkpt>
      <trkpt lat="29.602228821657153" lon="106.31744345669757">
        <ele>255.05645751953125</ele>
        <time>2026-08-11T23:15:09Z</time>
      </trkpt>
      <trkpt lat="29.602037794849785" lon="106.31748835780135">
        <ele>254.309814453125</ele>
        <time>2026-08-11T23:15:27Z</time>
      </trkpt>
      <trkpt lat="29.601911679866177" lon="106.31756916663113">
        <ele>256.273681640625</ele>
        <time>2026-08-11T23:15:39Z</time>
      </trkpt>
      <trkpt lat="29.601868560275406" lon="106.31763899741668">
        <ele>256.060302734375</ele>
        <time>2026-08-11T23:15:45Z</time>
      </trkpt>
      <trkpt lat="29.60184341237174" lon="106.31772079762345">
        <ele>256.0845947265625</ele>
        <time>2026-08-11T23:15:51Z</time>
      </trkpt>
      <trkpt lat="29.601858147776912" lon="106.31785746030226">
        <ele>255.64105224609375</ele>
        <time>2026-08-11T23:16:03Z</time>
      </trkpt>
      <trkpt lat="29.601892021555642" lon="106.31791830842205">
        <ele>256.2301025390625</ele>
        <time>2026-08-11T23:16:09Z</time>
      </trkpt>
      <trkpt lat="29.6018846515188" lon="106.31811382725601">
        <ele>253.59228515625</ele>
        <time>2026-08-11T23:16:27Z</time>
      </trkpt>
      <trkpt lat="29.601868517758906" lon="106.318186648791">
        <ele>253.17340087890625</ele>
        <time>2026-08-11T23:16:33Z</time>
      </trkpt>
      <trkpt lat="29.60187224482436" lon="106.31832929696895">
        <ele>252.4088134765625</ele>
        <time>2026-08-11T23:16:45Z</time>
      </trkpt>
      <trkpt lat="29.6018881163826" lon="106.31839413615346">
        <ele>253.18798828125</ele>
        <time>2026-08-11T23:16:51Z</time>
      </trkpt>
      <trkpt lat="29.601858406496483" lon="106.31877120780538">
        <ele>254.23199462890625</ele>
        <time>2026-08-11T23:17:21Z</time>
      </trkpt>
      <trkpt lat="29.601861739185928" lon="106.31912034563263">
        <ele>252.890625</ele>
        <time>2026-08-11T23:17:51Z</time>
      </trkpt>
      <trkpt lat="29.601883479196395" lon="106.31925301659584">
        <ele>252.8756103515625</ele>
        <time>2026-08-11T23:18:03Z</time>
      </trkpt>
      <trkpt lat="29.601917354502856" lon="106.31931286667565">
        <ele>252.44171142578125</ele>
        <time>2026-08-11T23:18:09Z</time>
      </trkpt>
      <trkpt lat="29.601910660921863" lon="106.31967696709354">
        <ele>253.3394775390625</ele>
        <time>2026-08-11T23:18:39Z</time>
      </trkpt>
      <trkpt lat="29.601918025506617" lon="106.32000814746054">
        <ele>254.217529296875</ele>
        <time>2026-08-11T23:19:09Z</time>
      </trkpt>
      <trkpt lat="29.601976967368415" lon="106.32002909207073">
        <ele>254.0950927734375</ele>
        <time>2026-08-11T23:19:15Z</time>
      </trkpt>
      <trkpt lat="29.602110989234976" lon="106.31999616543686">
        <ele>255.74737548828125</ele>
        <time>2026-08-11T23:19:27Z</time>
      </trkpt>
      <trkpt lat="29.602174969628273" lon="106.31999616157674">
        <ele>257.789794921875</ele>
        <time>2026-08-11T23:19:33Z</time>
      </trkpt>
      <trkpt lat="29.602225568719085" lon="106.32019765985933">
        <ele>256.2977294921875</ele>
        <time>2026-08-11T23:19:51Z</time>
      </trkpt>
      <trkpt lat="29.602275473281864" lon="106.32023955314226">
        <ele>256.1510009765625</ele>
        <time>2026-08-11T23:19:57Z</time>
      </trkpt>
      <trkpt lat="29.602339449872208" lon="106.32024154434336">
        <ele>255.91790771484375</ele>
        <time>2026-08-11T23:20:03Z</time>
      </trkpt>
      <trkpt lat="29.602440693655666" lon="106.32009789376646">
        <ele>254.6583251953125</ele>
        <time>2026-08-11T23:20:15Z</time>
      </trkpt>
      <trkpt lat="29.60234960133529" lon="106.32016074372892">
        <ele>254.65191650390625</ele>
        <time>2026-08-11T23:21:00Z</time>
      </trkpt>
      <trkpt lat="29.602453159305004" lon="106.32037520655727">
        <ele>0.0</ele>
        <time>2026-08-11T23:22:09Z</time>
      </trkpt>
      <trkpt lat="29.602643433178965" lon="106.32020162476945">
        <ele>0.0</ele>
        <time>2026-08-11T23:23:15Z</time>
      </trkpt>
    </trkseg>
  </trk>
</gpx>