<?xml version="1.0" encoding="UTF-8"?>
<gpx xmlns="http://www.topografix.com/GPX/1/1" xmlns:gpxtpx="http://www.garmin.com/xmlschemas/TrackPointExtension/v1" xmlns:xsi="http://www.w3.org/2001/XMLSchema-instance" xsi:schemaLocation="http://www.topografix.com/GPX/1/1 http://www.topografix.com/GPX/1/1/gpx.xsd" version="1.1" creator="gpx.py -- https://github.com/tkrajina/gpxpy">
  <trk>
    <name>gpx from keep</name>
    <type>Walk</type>
    <trkseg>
      <trkpt lat="29.60245932693102" lon="106.31976371937839">
        <ele>257.83807373046875</ele>
        <time>2026-09-27T00:22:01Z</time>
      </trkpt>
      <trkpt lat="29.602445641884948" lon="106.31960112227176">
        <ele>261.45556640625</ele>
        <time>2026-09-27T00:22:13Z</time>
      </trkpt>
      <trkpt lat="29.602462802461755" lon="106.31951433578313">
        <ele>264.68365478515625</ele>
        <time>2026-09-27T00:22:19Z</time>
      </trkpt>
      <trkpt lat="29.602524861609716" lon="106.31947343313456">
        <ele>265.87823486328125</ele>
        <time>2026-09-27T00:22:25Z</time>
      </trkpt>
      <trkpt lat="29.602610762907357" lon="106.3195113342554">
        <ele>261.6715087890625</ele>
        <time>2026-09-27T00:22:31Z</time>
      </trkpt>
      <trkpt lat="29.60286268779134" lon="106.31951032152462">
        <ele>254.7747802734375</ele>
        <time>2026-09-27T00:22:55Z</time>
      </trkpt>
      <trkpt lat="29.602923812047663" lon="106.31943550275993">
        <ele>252.5274658203125</ele>
        <time>2026-09-27T00:23:01Z</time>
      </trkpt>
      <trkpt lat="29.60294513134111" lon="106.31926492298844">
        <ele>253.1778564453125</ele>
        <time>2026-09-27T00:23:13Z</time>
      </trkpt>
      <trkpt lat="29.60297927329713" lon="106.31918511807606">
        <ele>252.1915283203125</ele>
        <time>2026-09-27T00:23:19Z</time>
      </trkpt>
      <trkpt lat="29.602948901374006" lon="106.31886092045914">
        <ele>249.89166259765625</ele>
        <time>2026-09-27T00:23:43Z</time>
      </trkpt>
      <trkpt lat="29.60292663493227" lon="106.3184798619914">
        <ele>253.3021240234375</ele>
        <time>2026-09-27T00:24:13Z</time>
      </trkpt>
      <trkpt lat="29.60297576253664" lon="106.31840504352029">
        <ele>252.12060546875</ele>
        <time>2026-09-27T00:24:19Z</time>
      </trkpt>
      <trkpt lat="29.602955420628575" lon="106.31806288804586">
        <ele>247.578369140625</ele>
        <time>2026-09-27T00:24:43Z</time>
      </trkpt>
      <trkpt lat="29.60294367683382" lon="106.31793021554788">
        <ele>251.7794189453125</ele>
        <time>2026-09-27T00:24:55Z</time>
      </trkpt>
      <trkpt lat="29.602911773931666" lon="106.31788433047095">
        <ele>253.34661865234375</ele>
        <time>2026-09-27T00:24:58Z</time>
      </trkpt>
      <trkpt lat="29.602923045765188" lon="106.3177396858961">
        <ele>254.821533203125</ele>
        <time>2026-09-27T00:25:07Z</time>
      </trkpt>
      <trkpt lat="29.60289519661689" lon="106.31766487171208">
        <ele>256.4622802734375</ele>
        <time>2026-09-27T00:25:13Z</time>
      </trkpt>
      <trkpt lat="29.602951460232592" lon="106.31751723157412">
        <ele>256.4180908203125</ele>
        <time>2026-09-27T00:25:22Z</time>
      </trkpt>
      <trkpt lat="29.602968921385944" lon="106.31727183397462">
        <ele>252.22039794921875</ele>
        <time>2026-09-27T00:25:40Z</time>
      </trkpt>
      <trkpt lat="29.602953647882646" lon="106.31689176866274">
        <ele>250.37518310546875</ele>
        <time>2026-09-27T00:26:10Z</time>
      </trkpt>
      <trkpt lat="29.602934314263173" lon="106.31654362422732">
        <ele>253.1612548828125</ele>
        <time>2026-09-27T00:26:34Z</time>
      </trkpt>
      <trkpt lat="29.602892459437147" lon="106.31647379800664">
        <ele>254.6048583984375</ele>
        <time>2026-09-27T00:26:40Z</time>
      </trkpt>
      <trkpt lat="29.60276769420188" lon="106.31637005989246">
        <ele>253.3001708984375</ele>
        <time>2026-09-27T00:26:52Z</time>
      </trkpt>
      <trkpt lat="29.602701703035684" lon="106.31637604919509">
        <ele>252.0625</ele>
        <time>2026-09-27T00:26:58Z</time>
      </trkpt>
      <trkpt lat="29.602579596692678" lon="106.31645187067089">
        <ele>249.346923828125</ele>
        <time>2026-09-27T00:27:10Z</time>
      </trkpt>
      <trkpt lat="29.602506348645836" lon="106.3165945252141">
        <ele>247.635986328125</ele>
        <time>2026-09-27T00:27:22Z</time>
      </trkpt>
      <trkpt lat="29.60250319068428" lon="106.3166783198134">
        <ele>248.01885986328125</ele>
        <time>2026-09-27T00:27:28Z</time>
      </trkpt>
      <trkpt lat="29.602520865401917" lon="106.31684690495736">
        <ele>249.299072265625</ele>
        <time>2026-09-27T00:27:40Z</time>
      </trkpt>
      <trkpt lat="29.602568542140634" lon="106.31700950278282">
        <ele>253.62823486328125</ele>
        <time>2026-09-27T00:27:52Z</time>
      </trkpt>
      <trkpt lat="29.602566215077687" lon="106.31718207891227">
        <ele>252.1630859375</ele>
        <time>2026-09-27T00:28:04Z</time>
      </trkpt>
      <trkpt lat="29.602467828122652" lon="106.31740154532926">
        <ele>250.42413330078125</ele>
        <time>2026-09-27T00:28:22Z</time>
      </trkpt>
      <trkpt lat="29.602412734990267" lon="106.31745940635828">
        <ele>249.78057861328125</ele>
        <time>2026-09-27T00:28:28Z</time>
      </trkpt>
      <trkpt lat="29.602352686989196" lon="106.31749432410069">
        <ele>249.61669921875</ele>
        <time>2026-09-27T00:28:34Z</time>
      </trkpt>
      <trkpt lat="29.602133702854864" lon="106.3175212710455">
        <ele>249.8436279296875</ele>
        <time>2026-09-27T00:28:53Z</time>
      </trkpt>
      <trkpt lat="29.602069673157224" lon="106.31754721110043">
        <ele>249.623291015625</ele>
        <time>2026-09-27T00:28:59Z</time>
      </trkpt>
      <trkpt lat="29.601999690818424" lon="106.31754921041012">
        <ele>250.97406005859375</ele>
        <time>2026-09-27T00:29:05Z</time>
      </trkpt>
      <trkpt lat="29.60187559796447" lon="106.31761804853997">
        <ele>250.85260009765625</ele>
        <time>2026-09-27T00:29:17Z</time>
      </trkpt>
      <trkpt lat="29.60185147063287" lon="106.31768887570271">
        <ele>250.9599609375</ele>
        <time>2026-09-27T00:29:23Z</time>
      </trkpt>
      <trkpt lat="29.601867036816156" lon="106.31791431975432">
        <ele>252.0618896484375</ele>
        <time>2026-09-27T00:29:41Z</time>
      </trkpt>
      <trkpt lat="29.601848748026473" lon="106.31806894001589">
        <ele>251.84637451171875</ele>
        <time>2026-09-27T00:29:53Z</time>
      </trkpt>
      <trkpt lat="29.601864446792955" lon="106.31822455561733">
        <ele>252.79193115234375</ele>
        <time>2026-09-27T00:30:05Z</time>
      </trkpt>
      <trkpt lat="29.60191630354284" lon="106.31829138775649">
        <ele>253.3612060546875</ele>
        <time>2026-09-27T00:30:11Z</time>
      </trkpt>
      <trkpt lat="29.601931046174464" lon="106.31842405977558">
        <ele>253.94189453125</ele>
        <time>2026-09-27T00:30:23Z</time>
      </trkpt>
      <trkpt lat="29.60188876246973" lon="106.31857967853216">
        <ele>252.7564697265625</ele>
        <time>2026-09-27T00:30:35Z</time>
      </trkpt>
      <trkpt lat="29.601908122887657" lon="106.31891185763814">
        <ele>253.24993896484375</ele>
        <time>2026-09-27T00:30:59Z</time>
      </trkpt>
      <trkpt lat="29.601875515927293" lon="106.3192350614355">
        <ele>250.968505859375</ele>
        <time>2026-09-27T00:31:23Z</time>
      </trkpt>
      <trkpt lat="29.60191137348366" lon="106.31930388921914">
        <ele>251.3958740234375</ele>
        <time>2026-09-27T00:31:29Z</time>
      </trkpt>
      <trkpt lat="29.601883783550957" lon="106.31961711670398">
        <ele>252.594482421875</ele>
        <time>2026-09-27T00:31:53Z</time>
      </trkpt>
      <trkpt lat="29.601884625057384" lon="106.31969991193026">
        <ele>254.15533447265625</ele>
        <time>2026-09-27T00:31:59Z</time>
      </trkpt>
      <trkpt lat="29.601910445528787" lon="106.31978968834565">
        <ele>256.3436279296875</ele>
        <time>2026-09-27T00:32:05Z</time>
      </trkpt>
      <trkpt lat="29.601907984709257" lon="106.32003109129602">
        <ele>256.4622802734375</ele>
        <time>2026-09-27T00:32:23Z</time>
      </trkpt>
      <trkpt lat="29.601950868533816" lon="106.32008495541224">
        <ele>254.4306640625</ele>
        <time>2026-09-27T00:32:29Z</time>
      </trkpt>
      <trkpt lat="29.602024906882683" lon="106.32005302993733">
        <ele>249.7720947265625</ele>
        <time>2026-09-27T00:32:35Z</time>
      </trkpt>
      <trkpt lat="29.60217684505115" lon="106.32006100102261">
        <ele>247.14642333984375</ele>
        <time>2026-09-27T00:32:47Z</time>
      </trkpt>
      <trkpt lat="29.60222777030429" lon="106.32009192142516">
        <ele>248.6263427734375</ele>
        <time>2026-09-27T00:32:53Z</time>
      </trkpt>
      <trkpt lat="29.602238488427542" lon="106.32023756031246">
        <ele>251.2010498046875</ele>
        <time>2026-09-27T00:33:05Z</time>
      </trkpt>
      <trkpt lat="29.60228140466883" lon="106.32027446635679">
        <ele>250.740234375</ele>
        <time>2026-09-27T00:33:11Z</time>
      </trkpt>
      <trkpt lat="29.602291285217092" lon="106.32033531511684">
        <ele>250.7587890625</ele>
        <time>2026-09-27T00:33:17Z</time>
      </trkpt>
      <trkpt lat="29.60222523291632" lon="106.32037322525078">
        <ele>251.09912109375</ele>
        <time>2026-09-27T00:33:26Z</time>
      </trkpt>
      <trkpt lat="29.602466695237013" lon="106.3200929045408">
        <ele>0.0</ele>
        <time>2026-09-27T00:34:11Z</time>
      </trkpt>
      <trkpt lat="29.602402377168612" lon="106.3202694714044">
        <ele>0.0</ele>
        <time>2026-09-27T00:34:53Z</time>
      </trkpt>
    </trkseg>
  </trk>
</gpx>