<?xml version="1.0" encoding="UTF-8"?>
<gpx xmlns="http://www.topografix.com/GPX/1/1" xmlns:gpxtpx="http://www.garmin.com/xmlschemas/TrackPointExtension/v1" xmlns:xsi="http://www.w3.org/2001/XMLSchema-instance" xsi:schemaLocation="http://www.topografix.com/GPX/1/1 http://www.topografix.com/GPX/1/1/gpx.xsd" version="1.1" creator="gpx.py -- https://github.com/tkrajina/gpxpy">
  <trk>
    <name>gpx from keep</name>
    <type>Walk</type>
    <trkseg>
      <trkpt lat="29.602584770858357" lon="106.31951133582328">
        <ele>250.86419677734375</ele>
        <time>2026-08-12T22:42:18Z</time>
      </trkpt>
      <trkpt lat="29.602782727476757" lon="106.3195023460744">
        <ele>250.8836669921875</ele>
        <time>2026-08-12T22:42:36Z</time>
      </trkpt>
      <trkpt lat="29.602842760585446" lon="106.31947540902733">
        <ele>252.3265380859375</ele>
        <time>2026-08-12T22:42:42Z</time>
      </trkpt>
      <trkpt lat="29.60289184658682" lon="106.31942253673837">
        <ele>250.4578857421875</ele>
        <time>2026-08-12T22:42:48Z</time>
      </trkpt>
      <trkpt lat="29.602913464803326" lon="106.31909534379433">
        <ele>251.80859375</ele>
        <time>2026-08-12T22:43:12Z</time>
      </trkpt>
      <trkpt lat="29.602927629941995" lon="106.31900656218185">
        <ele>252.351318359375</ele>
        <time>2026-08-12T22:43:18Z</time>
      </trkpt>
      <trkpt lat="29.60291707096265" lon="106.31877712919443">
        <ele>251.29449462890625</ele>
        <time>2026-08-12T22:43:36Z</time>
      </trkpt>
      <trkpt lat="29.60289319623303" lon="106.31871528325792">
        <ele>250.67779541015625</ele>
        <time>2026-08-12T22:43:42Z</time>
      </trkpt>
      <trkpt lat="29.60291132767658" lon="106.31864345937714">
        <ele>249.3232421875</ele>
        <time>2026-08-12T22:43:48Z</time>
      </trkpt>
      <trkpt lat="29.602905059778447" lon="106.31826040436884">
        <ele>248.99871826171875</ele>
        <time>2026-08-12T22:44:18Z</time>
      </trkpt>
      <trkpt lat="29.602940394822777" lon="106.31807884963051">
        <ele>246.5054931640625</ele>
        <time>2026-08-12T22:44:30Z</time>
      </trkpt>
      <trkpt lat="29.602936553661507" lon="106.31799605382301">
        <ele>247.02197265625</ele>
        <time>2026-08-12T22:44:36Z</time>
      </trkpt>
      <trkpt lat="29.602962862752257" lon="106.31782946248177">
        <ele>247.3536376953125</ele>
        <time>2026-08-12T22:44:48Z</time>
      </trkpt>
      <trkpt lat="29.60295152470595" lon="106.31748331499925">
        <ele>246.1048583984375</ele>
        <time>2026-08-12T22:45:12Z</time>
      </trkpt>
      <trkpt lat="29.602954136283124" lon="106.3171611070162">
        <ele>248.04608154296875</ele>
        <time>2026-08-12T22:45:36Z</time>
      </trkpt>
      <trkpt lat="29.60295074722266" lon="106.31683989619869">
        <ele>249.26544189453125</ele>
        <time>2026-08-12T22:46:00Z</time>
      </trkpt>
      <trkpt lat="29.60290841673991" lon="106.31649374811839">
        <ele>252.25360107421875</ele>
        <time>2026-08-12T22:46:30Z</time>
      </trkpt>
      <trkpt lat="29.602863530677237" lon="106.31644088047203">
        <ele>252.472900390625</ele>
        <time>2026-08-12T22:46:36Z</time>
      </trkpt>
      <trkpt lat="29.6027346910588" lon="106.3163770447623">
        <ele>251.9212646484375</ele>
        <time>2026-08-12T22:46:48Z</time>
      </trkpt>
      <trkpt lat="29.602670687944084" lon="106.3163890192714">
        <ele>251.21380615234375</ele>
        <time>2026-08-12T22:46:54Z</time>
      </trkpt>
      <trkpt lat="29.602566551518546" lon="106.31647780785586">
        <ele>251.34283447265625</ele>
        <time>2026-08-12T22:47:06Z</time>
      </trkpt>
      <trkpt lat="29.60253144689432" lon="106.31653866073268">
        <ele>250.84375</ele>
        <time>2026-08-12T22:47:12Z</time>
      </trkpt>
      <trkpt lat="29.602517165592708" lon="106.31668929204481">
        <ele>251.03717041015625</ele>
        <time>2026-08-12T22:47:24Z</time>
      </trkpt>
      <trkpt lat="29.60258061231619" lon="106.31697059761176">
        <ele>250.977294921875</ele>
        <time>2026-08-12T22:47:48Z</time>
      </trkpt>
      <trkpt lat="29.602547033301263" lon="106.3172808373298">
        <ele>253.26708984375</ele>
        <time>2026-08-12T22:48:12Z</time>
      </trkpt>
      <trkpt lat="29.60247679314048" lon="106.31741850308526">
        <ele>253.4752197265625</ele>
        <time>2026-08-12T22:48:24Z</time>
      </trkpt>
      <trkpt lat="29.602359650713247" lon="106.31751227951257">
        <ele>253.456298828125</ele>
        <time>2026-08-12T22:48:36Z</time>
      </trkpt>
      <trkpt lat="29.602075677008102" lon="106.31754421810083">
        <ele>253.39080810546875</ele>
        <time>2026-08-12T22:49:00Z</time>
      </trkpt>
      <trkpt lat="29.601941646010875" lon="106.31758213291936">
        <ele>256.3109130859375</ele>
        <time>2026-08-12T22:49:12Z</time>
      </trkpt>
      <trkpt lat="29.60189158357321" lon="106.31762303530355">
        <ele>256.09783935546875</ele>
        <time>2026-08-12T22:49:18Z</time>
      </trkpt>
      <trkpt lat="29.60185536315163" lon="106.31774473797493">
        <ele>254.1690673828125</ele>
        <time>2026-08-12T22:49:30Z</time>
      </trkpt>
      <trkpt lat="29.601860770933687" lon="106.31805497369598">
        <ele>251.2559814453125</ele>
        <time>2026-08-12T22:49:54Z</time>
      </trkpt>
      <trkpt lat="29.601847056727443" lon="106.31843204516137">
        <ele>250.638427734375</ele>
        <time>2026-08-12T22:50:24Z</time>
      </trkpt>
      <trkpt lat="29.601852461601165" lon="106.31874327709177">
        <ele>251.603271484375</ele>
        <time>2026-08-12T22:50:48Z</time>
      </trkpt>
      <trkpt lat="29.601858743913642" lon="106.31911835074075">
        <ele>250.02203369140625</ele>
        <time>2026-08-12T22:51:19Z</time>
      </trkpt>
      <trkpt lat="29.60185358741745" lon="106.31920114654329">
        <ele>251.5849609375</ele>
        <time>2026-08-12T22:51:25Z</time>
      </trkpt>
      <trkpt lat="29.601873447984364" lon="106.31927097283975">
        <ele>251.1995849609375</ele>
        <time>2026-08-12T22:51:31Z</time>
      </trkpt>
      <trkpt lat="29.60191231603909" lon="106.31933381521809">
        <ele>253.61566162109375</ele>
        <time>2026-08-12T22:51:37Z</time>
      </trkpt>
      <trkpt lat="29.601900885052206" lon="106.31956125377936">
        <ele>253.9552001953125</ele>
        <time>2026-08-12T22:51:55Z</time>
      </trkpt>
      <trkpt lat="29.60187657032871" lon="106.31972983841158">
        <ele>255.8472900390625</ele>
        <time>2026-08-12T22:52:07Z</time>
      </trkpt>
      <trkpt lat="29.601894414214165" lon="106.31980864243539">
        <ele>256.2275390625</ele>
        <time>2026-08-12T22:52:13Z</time>
      </trkpt>
      <trkpt lat="29.60190113941746" lon="106.31995128916037">
        <ele>256.3023681640625</ele>
        <time>2026-08-12T22:52:25Z</time>
      </trkpt>
      <trkpt lat="29.60191900040769" lon="106.32002111531445">
        <ele>256.33306884765625</ele>
        <time>2026-08-12T22:52:31Z</time>
      </trkpt>
      <trkpt lat="29.602181948413538" lon="106.32000613647371">
        <ele>255.27239990234375</ele>
        <time>2026-08-12T22:52:55Z</time>
      </trkpt>
      <trkpt lat="29.60219883640528" lon="106.32006199722728">
        <ele>255.06329345703125</ele>
        <time>2026-08-12T22:53:01Z</time>
      </trkpt>
      <trkpt lat="29.602188690692298" lon="106.32013980528431">
        <ele>254.9097900390625</ele>
        <time>2026-08-12T22:53:07Z</time>
      </trkpt>
      <trkpt lat="29.602155569175043" lon="106.32020863692269">
        <ele>257.83740234375</ele>
        <time>2026-08-12T22:53:13Z</time>
      </trkpt>
      <trkpt lat="29.60228226316683" lon="106.32034828355474">
        <ele>258.559814453125</ele>
        <time>2026-08-12T22:53:31Z</time>
      </trkpt>
    </trkseg>
  </trk>
</gpx>