<?xml version="1.0" encoding="UTF-8"?>
<gpx xmlns="http://www.topografix.com/GPX/1/1" xmlns:gpxtpx="http://www.garmin.com/xmlschemas/TrackPointExtension/v1" xmlns:xsi="http://www.w3.org/2001/XMLSchema-instance" xsi:schemaLocation="http://www.topografix.com/GPX/1/1 http://www.topografix.com/GPX/1/1/gpx.xsd" version="1.1" creator="gpx.py -- https://github.com/tkrajina/gpxpy">
  <trk>
    <name>gpx from keep</name>
    <type>Run</type>
    <trkseg>
      <trkpt lat="29.602366065602983" lon="106.31991534995433">
        <ele>255.890625</ele>
        <time>2026-07-24T22:28:24Z</time>
      </trkpt>
      <trkpt lat="29.602420132970515" lon="106.31987145527096">
        <ele>256.4150390625</ele>
        <time>2026-07-24T22:28:27Z</time>
      </trkpt>
      <trkpt lat="29.602436232933023" lon="106.31981659000996">
        <ele>255.017578125</ele>
        <time>2026-07-24T22:28:30Z</time>
      </trkpt>
      <trkpt lat="29.60242048754102" lon="106.31968591413829">
        <ele>253.0223388671875</ele>
        <time>2026-07-24T22:28:36Z</time>
      </trkpt>
      <trkpt lat="29.602443608194484" lon="106.31961907800077">
        <ele>251.4393310546875</ele>
        <time>2026-07-24T22:28:39Z</time>
      </trkpt>
      <trkpt lat="29.602491694506483" lon="106.31956620581013">
        <ele>251.746826171875</ele>
        <time>2026-07-24T22:28:42Z</time>
      </trkpt>
      <trkpt lat="29.602669708665818" lon="106.31953028384815">
        <ele>253.844970703125</ele>
        <time>2026-07-24T22:28:51Z</time>
      </trkpt>
      <trkpt lat="29.602775773436687" lon="106.31947940320548">
        <ele>254.64910888671875</ele>
        <time>2026-07-24T22:29:00Z</time>
      </trkpt>
      <trkpt lat="29.602934319407733" lon="106.31916816267672">
        <ele>251.8538818359375</ele>
        <time>2026-07-24T22:29:12Z</time>
      </trkpt>
      <trkpt lat="29.602935694113572" lon="106.31897164790226">
        <ele>248.67156982421875</ele>
        <time>2026-07-24T22:29:18Z</time>
      </trkpt>
      <trkpt lat="29.60292284271577" lon="106.31889583584562">
        <ele>246.1556396484375</ele>
        <time>2026-07-24T22:29:21Z</time>
      </trkpt>
      <trkpt lat="29.60284920586988" lon="106.31871728098761">
        <ele>241.7855224609375</ele>
        <time>2026-07-24T22:29:30Z</time>
      </trkpt>
      <trkpt lat="29.602843382680536" lon="106.31862550777265">
        <ele>242.641357421875</ele>
        <time>2026-07-24T22:29:33Z</time>
      </trkpt>
      <trkpt lat="29.602888958254532" lon="106.31831626763909">
        <ele>251.3114013671875</ele>
        <time>2026-07-24T22:29:42Z</time>
      </trkpt>
      <trkpt lat="29.60288514188643" lon="106.31822050391531">
        <ele>252.9815673828125</ele>
        <time>2026-07-24T22:29:45Z</time>
      </trkpt>
      <trkpt lat="29.60292053386329" lon="106.31800902284598">
        <ele>249.2728271484375</ele>
        <time>2026-07-24T22:29:54Z</time>
      </trkpt>
      <trkpt lat="29.60291411112933" lon="106.31770676745973">
        <ele>249.82696533203125</ele>
        <time>2026-07-24T22:30:06Z</time>
      </trkpt>
      <trkpt lat="29.602937274845463" lon="106.31761698700394">
        <ele>251.1995849609375</ele>
        <time>2026-07-24T22:30:09Z</time>
      </trkpt>
      <trkpt lat="29.6029389343375" lon="106.31726984068621">
        <ele>249.6131591796875</ele>
        <time>2026-07-24T22:30:21Z</time>
      </trkpt>
      <trkpt lat="29.602932705402605" lon="106.31686483605698">
        <ele>252.90899658203125</ele>
        <time>2026-07-24T22:30:36Z</time>
      </trkpt>
      <trkpt lat="29.602922282000623" lon="106.31656257846146">
        <ele>252.5523681640625</ele>
        <time>2026-07-24T22:30:45Z</time>
      </trkpt>
      <trkpt lat="29.60281647131265" lon="106.31647978790683">
        <ele>250.31597900390625</ele>
        <time>2026-07-24T22:30:51Z</time>
      </trkpt>
      <trkpt lat="29.60273955722602" lon="106.31644687326455">
        <ele>250.67803955078125</ele>
        <time>2026-07-24T22:30:54Z</time>
      </trkpt>
      <trkpt lat="29.60265657503729" lon="106.31645086847948">
        <ele>252.42694091796875</ele>
        <time>2026-07-24T22:30:57Z</time>
      </trkpt>
      <trkpt lat="29.602583482039893" lon="106.31651172365753">
        <ele>250.856201171875</ele>
        <time>2026-07-24T22:31:00Z</time>
      </trkpt>
      <trkpt lat="29.602534374120577" lon="106.31657656757385">
        <ele>250.839599609375</ele>
        <time>2026-07-24T22:31:03Z</time>
      </trkpt>
      <trkpt lat="29.602539810378914" lon="106.31687284013668">
        <ele>249.5653076171875</ele>
        <time>2026-07-24T22:31:15Z</time>
      </trkpt>
      <trkpt lat="29.602565247590157" lon="106.31716512064591">
        <ele>248.731689453125</ele>
        <time>2026-07-24T22:31:27Z</time>
      </trkpt>
      <trkpt lat="29.602556136665317" lon="106.31722497409632">
        <ele>247.821044921875</ele>
        <time>2026-07-24T22:31:30Z</time>
      </trkpt>
      <trkpt lat="29.602459866588703" lon="106.31738259241669">
        <ele>251.0885009765625</ele>
        <time>2026-07-24T22:31:36Z</time>
      </trkpt>
      <trkpt lat="29.602375750106454" lon="106.3174574134943">
        <ele>251.9981689453125</ele>
        <time>2026-07-24T22:31:39Z</time>
      </trkpt>
      <trkpt lat="29.60224771155198" lon="106.31749832061254">
        <ele>252.39117431640625</ele>
        <time>2026-07-24T22:31:45Z</time>
      </trkpt>
      <trkpt lat="29.60210287511741" lon="106.31749482883522">
        <ele>252.532470703125</ele>
        <time>2026-07-24T22:31:51Z</time>
      </trkpt>
      <trkpt lat="29.60204126661678" lon="106.3175232062038">
        <ele>249.2122802734375</ele>
        <time>2026-07-24T22:31:54Z</time>
      </trkpt>
      <trkpt lat="29.601931313279422" lon="106.31775869902044">
        <ele>255.56231689453125</ele>
        <time>2026-07-24T22:32:03Z</time>
      </trkpt>
      <trkpt lat="29.60191115430041" lon="106.31784548658068">
        <ele>253.1693115234375</ele>
        <time>2026-07-24T22:32:06Z</time>
      </trkpt>
      <trkpt lat="29.601920940557058" lon="106.3179000931509">
        <ele>250.337890625</ele>
        <time>2026-07-24T22:32:09Z</time>
      </trkpt>
      <trkpt lat="29.60187542442019" lon="106.31823453037006">
        <ele>250.605712890625</ele>
        <time>2026-07-24T22:32:21Z</time>
      </trkpt>
      <trkpt lat="29.60186774958779" lon="106.31857970794363">
        <ele>252.29534912109375</ele>
        <time>2026-07-24T22:32:36Z</time>
      </trkpt>
      <trkpt lat="29.601887331017387" lon="106.318806119895">
        <ele>253.6943359375</ele>
        <time>2026-07-24T22:32:45Z</time>
      </trkpt>
      <trkpt lat="29.601886737230352" lon="106.3191173515162">
        <ele>252.5841064453125</ele>
        <time>2026-07-24T22:32:57Z</time>
      </trkpt>
      <trkpt lat="29.60186397859821" lon="106.31926504778495">
        <ele>250.541748046875</ele>
        <time>2026-07-24T22:33:03Z</time>
      </trkpt>
      <trkpt lat="29.601918000679472" lon="106.31948544428826">
        <ele>247.5968017578125</ele>
        <time>2026-07-24T22:33:12Z</time>
      </trkpt>
      <trkpt lat="29.60192940729478" lon="106.31980664525888">
        <ele>249.005126953125</ele>
        <time>2026-07-24T22:33:24Z</time>
      </trkpt>
      <trkpt lat="29.601938078492164" lon="106.31997722276334">
        <ele>251.427978515625</ele>
        <time>2026-07-24T22:33:30Z</time>
      </trkpt>
      <trkpt lat="29.602153125106327" lon="106.31991835539787">
        <ele>257.972412109375</ele>
        <time>2026-07-24T22:33:42Z</time>
      </trkpt>
      <trkpt lat="29.6022261103736" lon="106.3199143608658">
        <ele>260.6690673828125</ele>
        <time>2026-07-24T22:33:45Z</time>
      </trkpt>
      <trkpt lat="29.60228215995984" lon="106.31987944385406">
        <ele>261.8912353515625</ele>
        <time>2026-07-24T22:33:48Z</time>
      </trkpt>
      <trkpt lat="29.602354174143095" lon="106.31986048639347">
        <ele>260.59576416015625</ele>
        <time>2026-07-24T22:33:51Z</time>
      </trkpt>
      <trkpt lat="29.602421101222834" lon="106.3198059734321">
        <ele>260.208984375</ele>
        <time>2026-07-24T22:33:54Z</time>
      </trkpt>
      <trkpt lat="29.602448389388606" lon="106.31973279651515">
        <ele>261.86114501953125</ele>
        <time>2026-07-24T22:33:57Z</time>
      </trkpt>
      <trkpt lat="29.602441469497105" lon="106.31956383444094">
        <ele>258.171875</ele>
        <time>2026-07-24T22:34:03Z</time>
      </trkpt>
      <trkpt lat="29.602562724236112" lon="106.31953926810823">
        <ele>255.941650390625</ele>
        <time>2026-07-24T22:34:09Z</time>
      </trkpt>
      <trkpt lat="29.60264869222117" lon="106.31954225552452">
        <ele>255.9364013671875</ele>
        <time>2026-07-24T22:34:12Z</time>
      </trkpt>
      <trkpt lat="29.60276070752542" lon="106.31951631288128">
        <ele>257.9193115234375</ele>
        <time>2026-07-24T22:34:18Z</time>
      </trkpt>
      <trkpt lat="29.602880076919853" lon="106.31930383079091">
        <ele>255.7020263671875</ele>
        <time>2026-07-24T22:34:27Z</time>
      </trkpt>
      <trkpt lat="29.602932706448957" lon="106.31896566286007">
        <ele>250.07806396484375</ele>
        <time>2026-07-24T22:34:39Z</time>
      </trkpt>
      <trkpt lat="29.602924880161957" lon="106.31887588497217">
        <ele>249.84375</ele>
        <time>2026-07-24T22:34:42Z</time>
      </trkpt>
      <trkpt lat="29.602878276239213" lon="106.31857928671651">
        <ele>247.80615234375</ele>
        <time>2026-07-24T22:34:54Z</time>
      </trkpt>
      <trkpt lat="29.60293702910397" lon="106.31827137539457">
        <ele>248.20440673828125</ele>
        <time>2026-07-24T22:35:03Z</time>
      </trkpt>
      <trkpt lat="29.602953368061932" lon="106.31809081935644">
        <ele>248.82421875</ele>
        <time>2026-07-24T22:35:09Z</time>
      </trkpt>
      <trkpt lat="29.60291593024728" lon="106.31780153407654">
        <ele>244.4609375</ele>
        <time>2026-07-24T22:35:21Z</time>
      </trkpt>
      <trkpt lat="29.602953540425016" lon="106.31738196986088">
        <ele>245.719970703125</ele>
        <time>2026-07-24T22:35:33Z</time>
      </trkpt>
      <trkpt lat="29.602965362110304" lon="106.3170404029078">
        <ele>249.34356689453125</ele>
        <time>2026-07-24T22:35:45Z</time>
      </trkpt>
      <trkpt lat="29.602965532526106" lon="106.31695062341646">
        <ele>250.13153076171875</ele>
        <time>2026-07-24T22:35:48Z</time>
      </trkpt>
      <trkpt lat="29.602933131126477" lon="106.31664038692195">
        <ele>249.97845458984375</ele>
        <time>2026-07-24T22:35:57Z</time>
      </trkpt>
      <trkpt lat="29.6029292533884" lon="106.31657654378333">
        <ele>250.4412841796875</ele>
        <time>2026-07-24T22:36:00Z</time>
      </trkpt>
      <trkpt lat="29.60281152199082" lon="106.3164538518065">
        <ele>250.677490234375</ele>
        <time>2026-07-24T22:36:06Z</time>
      </trkpt>
      <trkpt lat="29.6026585782064" lon="106.31644887325095">
        <ele>253.0460205078125</ele>
        <time>2026-07-24T22:36:12Z</time>
      </trkpt>
      <trkpt lat="29.60260554337222" lon="106.31647581039938">
        <ele>249.60565185546875</ele>
        <time>2026-07-24T22:36:15Z</time>
      </trkpt>
      <trkpt lat="29.602573462409747" lon="106.31652369490196">
        <ele>247.2320556640625</ele>
        <time>2026-07-24T22:36:18Z</time>
      </trkpt>
      <trkpt lat="29.60254081385864" lon="106.3168708449748">
        <ele>246.5919189453125</ele>
        <time>2026-07-24T22:36:30Z</time>
      </trkpt>
      <trkpt lat="29.60257223597686" lon="106.31717010796753">
        <ele>246.3609619140625</ele>
        <time>2026-07-24T22:36:42Z</time>
      </trkpt>
      <trkpt lat="29.602533045163938" lon="106.31727684798174">
        <ele>246.2615966796875</ele>
        <time>2026-07-24T22:36:48Z</time>
      </trkpt>
      <trkpt lat="29.60248792626164" lon="106.31734667902792">
        <ele>245.31475830078125</ele>
        <time>2026-07-24T22:36:51Z</time>
      </trkpt>
      <trkpt lat="29.6024178358395" lon="106.31740553852973">
        <ele>244.0975341796875</ele>
        <time>2026-07-24T22:36:54Z</time>
      </trkpt>
      <trkpt lat="29.6021680705272" lon="106.31749351968475">
        <ele>246.240234375</ele>
        <time>2026-07-24T22:37:03Z</time>
      </trkpt>
      <trkpt lat="29.602031563415014" lon="106.31761105632147">
        <ele>243.3919677734375</ele>
        <time>2026-07-24T22:37:12Z</time>
      </trkpt>
      <trkpt lat="29.60198141369524" lon="106.3176978457748">
        <ele>247.23443603515625</ele>
        <time>2026-07-24T22:37:15Z</time>
      </trkpt>
      <trkpt lat="29.601907862861413" lon="106.31799910846412">
        <ele>248.569091796875</ele>
        <time>2026-07-24T22:37:24Z</time>
      </trkpt>
      <trkpt lat="29.601846158940578" lon="106.31824887610202">
        <ele>251.78021240234375</ele>
        <time>2026-07-24T22:37:33Z</time>
      </trkpt>
      <trkpt lat="29.601834184952388" lon="106.31834144162373">
        <ele>250.9078369140625</ele>
        <time>2026-07-24T22:37:36Z</time>
      </trkpt>
      <trkpt lat="29.601874869439026" lon="106.31852581223764">
        <ele>252.1175537109375</ele>
        <time>2026-07-24T22:37:42Z</time>
      </trkpt>
      <trkpt lat="29.6018616664838" lon="106.31886176530158">
        <ele>253.5181884765625</ele>
        <time>2026-07-24T22:37:51Z</time>
      </trkpt>
      <trkpt lat="29.601843371759845" lon="106.31895834453249">
        <ele>255.31585693359375</ele>
        <time>2026-07-24T22:37:54Z</time>
      </trkpt>
      <trkpt lat="29.60185553158241" lon="106.31923007496256">
        <ele>252.42919921875</ele>
        <time>2026-07-24T22:38:03Z</time>
      </trkpt>
      <trkpt lat="29.601873025404927" lon="106.31929467583885">
        <ele>251.4993896484375</ele>
        <time>2026-07-24T22:38:06Z</time>
      </trkpt>
      <trkpt lat="29.601865430863295" lon="106.31938516537639">
        <ele>251.69976806640625</ele>
        <time>2026-07-24T22:38:09Z</time>
      </trkpt>
      <trkpt lat="29.60192963413053" lon="106.31968793881572">
        <ele>254.984130859375</ele>
        <time>2026-07-24T22:38:18Z</time>
      </trkpt>
      <trkpt lat="29.601920011543736" lon="106.32001513006306">
        <ele>256.36968994140625</ele>
        <time>2026-07-24T22:38:30Z</time>
      </trkpt>
      <trkpt lat="29.602000082368633" lon="106.31996524863914">
        <ele>262.1761474609375</ele>
        <time>2026-07-24T22:38:36Z</time>
      </trkpt>
      <trkpt lat="29.602322090512473" lon="106.3199093674141">
        <ele>260.5263671875</ele>
        <time>2026-07-24T22:38:48Z</time>
      </trkpt>
      <trkpt lat="29.60240218423689" lon="106.31984751557461">
        <ele>258.9017333984375</ele>
        <time>2026-07-24T22:38:51Z</time>
      </trkpt>
      <trkpt lat="29.602439302550426" lon="106.31977968111264">
        <ele>254.114013671875</ele>
        <time>2026-07-24T22:38:54Z</time>
      </trkpt>
      <trkpt lat="29.60243357313927" lon="106.31963902927794">
        <ele>249.908447265625</ele>
        <time>2026-07-24T22:39:00Z</time>
      </trkpt>
      <trkpt lat="29.602467225245746" lon="106.3195713487806">
        <ele>251.1824951171875</ele>
        <time>2026-07-24T22:39:03Z</time>
      </trkpt>
      <trkpt lat="29.602542032509838" lon="106.3195368299058">
        <ele>255.0809326171875</ele>
        <time>2026-07-24T22:39:06Z</time>
      </trkpt>
      <trkpt lat="29.602814763424668" lon="106.3194784033192">
        <ele>259.46685791015625</ele>
        <time>2026-07-24T22:39:15Z</time>
      </trkpt>
      <trkpt lat="29.602856822987903" lon="106.31944049447348">
        <ele>254.04345703125</ele>
        <time>2026-07-24T22:39:21Z</time>
      </trkpt>
      <trkpt lat="29.60295036212037" lon="106.31914322330822">
        <ele>249.997802734375</ele>
        <time>2026-07-24T22:39:33Z</time>
      </trkpt>
      <trkpt lat="29.602903048604848" lon="106.31879109557353">
        <ele>251.2215576171875</ele>
        <time>2026-07-24T22:39:45Z</time>
      </trkpt>
      <trkpt lat="29.60286926062596" lon="106.31868535854349">
        <ele>249.75604248046875</ele>
        <time>2026-07-24T22:39:51Z</time>
      </trkpt>
      <trkpt lat="29.602909932836642" lon="106.31832624178308">
        <ele>251.99432373046875</ele>
        <time>2026-07-24T22:40:03Z</time>
      </trkpt>
      <trkpt lat="29.602932554883125" lon="106.31799605406407">
        <ele>248.288330078125</ele>
        <time>2026-07-24T22:40:15Z</time>
      </trkpt>
      <trkpt lat="29.602926134026657" lon="106.3176928011071">
        <ele>247.4365234375</ele>
        <time>2026-07-24T22:40:27Z</time>
      </trkpt>
      <trkpt lat="29.602965044412798" lon="106.31755009689473">
        <ele>247.4915771484375</ele>
        <time>2026-07-24T22:40:33Z</time>
      </trkpt>
      <trkpt lat="29.60296900855237" lon="106.31722594676312">
        <ele>248.1156005859375</ele>
        <time>2026-07-24T22:40:46Z</time>
      </trkpt>
      <trkpt lat="29.602962620525847" lon="106.31690473627866">
        <ele>247.785888671875</ele>
        <time>2026-07-24T22:40:58Z</time>
      </trkpt>
      <trkpt lat="29.602910334829204" lon="106.31653664279949">
        <ele>250.6063232421875</ele>
        <time>2026-07-24T22:41:10Z</time>
      </trkpt>
      <trkpt lat="29.60281857655886" lon="106.31642392476128">
        <ele>250.548828125</ele>
        <time>2026-07-24T22:41:16Z</time>
      </trkpt>
      <trkpt lat="29.60260857837236" lon="106.31645685669437">
        <ele>251.093505859375</ele>
        <time>2026-07-24T22:41:25Z</time>
      </trkpt>
      <trkpt lat="29.602564395200694" lon="106.31656060491704">
        <ele>250.3377685546875</ele>
        <time>2026-07-24T22:41:31Z</time>
      </trkpt>
      <trkpt lat="29.60253612333028" lon="106.31681980348279">
        <ele>245.40728759765625</ele>
        <time>2026-07-24T22:41:40Z</time>
      </trkpt>
      <trkpt lat="29.602577221186113" lon="106.31717709050669">
        <ele>248.60235595703125</ele>
        <time>2026-07-24T22:41:52Z</time>
      </trkpt>
      <trkpt lat="29.602578065510603" lon="106.31725888940754">
        <ele>248.21307373046875</ele>
        <time>2026-07-24T22:41:55Z</time>
      </trkpt>
      <trkpt lat="29.60254794012914" lon="106.31732971710628">
        <ele>249.36669921875</ele>
        <time>2026-07-24T22:41:58Z</time>
      </trkpt>
      <trkpt lat="29.602493823959385" lon="106.31739954866872">
        <ele>247.6700439453125</ele>
        <time>2026-07-24T22:42:01Z</time>
      </trkpt>
      <trkpt lat="29.602284743834876" lon="106.31747537481537">
        <ele>248.08880615234375</ele>
        <time>2026-07-24T22:42:10Z</time>
      </trkpt>
      <trkpt lat="29.602138733560817" lon="106.31750431245791">
        <ele>247.3826904296875</ele>
        <time>2026-07-24T22:42:16Z</time>
      </trkpt>
      <trkpt lat="29.602057665455455" lon="106.31755319709947">
        <ele>246.53790283203125</ele>
        <time>2026-07-24T22:42:22Z</time>
      </trkpt>
      <trkpt lat="29.6019448908226" lon="106.31770420727487">
        <ele>247.7425537109375</ele>
        <time>2026-07-24T22:42:28Z</time>
      </trkpt>
      <trkpt lat="29.601909760055744" lon="106.31804966671717">
        <ele>242.9163818359375</ele>
        <time>2026-07-24T22:42:40Z</time>
      </trkpt>
      <trkpt lat="29.601911584077406" lon="106.31814306609132">
        <ele>244.98870849609375</ele>
        <time>2026-07-24T22:42:43Z</time>
      </trkpt>
      <trkpt lat="29.60185933052375" lon="106.3182864034859">
        <ele>250.18487548828125</ele>
        <time>2026-07-24T22:42:49Z</time>
      </trkpt>
      <trkpt lat="29.601838257506163" lon="106.31853169498922">
        <ele>251.7919921875</ele>
        <time>2026-07-24T22:42:58Z</time>
      </trkpt>
      <trkpt lat="29.60187922502067" lon="106.31886298004105">
        <ele>255.5887451171875</ele>
        <time>2026-07-24T22:43:10Z</time>
      </trkpt>
      <trkpt lat="29.60186558944947" lon="106.31919815321196">
        <ele>257.23199462890625</ele>
        <time>2026-07-24T22:43:22Z</time>
      </trkpt>
      <trkpt lat="29.6018759007446" lon="106.31941521157813">
        <ele>252.578369140625</ele>
        <time>2026-07-24T22:43:31Z</time>
      </trkpt>
      <trkpt lat="29.601947848359448" lon="106.31959625841064">
        <ele>250.15252685546875</ele>
        <time>2026-07-24T22:43:37Z</time>
      </trkpt>
      <trkpt lat="29.601957917821498" lon="106.31966554873378">
        <ele>250.61383056640625</ele>
        <time>2026-07-24T22:43:40Z</time>
      </trkpt>
      <trkpt lat="29.601931988793165" lon="106.32002510465766">
        <ele>254.28167724609375</ele>
        <time>2026-07-24T22:43:52Z</time>
      </trkpt>
      <trkpt lat="29.601958076174313" lon="106.31997522649299">
        <ele>255.73651123046875</ele>
        <time>2026-07-24T22:43:55Z</time>
      </trkpt>
      <trkpt lat="29.602012135896924" lon="106.31993532195054">
        <ele>258.7840576171875</ele>
        <time>2026-07-24T22:43:58Z</time>
      </trkpt>
      <trkpt lat="29.602088112605454" lon="106.31993531736677">
        <ele>259.55352783203125</ele>
        <time>2026-07-24T22:44:01Z</time>
      </trkpt>
      <trkpt lat="29.60225913077562" lon="106.31989839835768">
        <ele>260.385986328125</ele>
        <time>2026-07-24T22:44:07Z</time>
      </trkpt>
      <trkpt lat="29.602343222938142" lon="106.3199055079576">
        <ele>259.27777099609375</ele>
        <time>2026-07-24T22:44:10Z</time>
      </trkpt>
      <trkpt lat="29.60244229972614" lon="106.31978067846467">
        <ele>256.18115234375</ele>
        <time>2026-07-24T22:44:16Z</time>
      </trkpt>
      <trkpt lat="29.602479667688822" lon="106.31958216707746">
        <ele>253.7310791015625</ele>
        <time>2026-07-24T22:44:25Z</time>
      </trkpt>
      <trkpt lat="29.602779762688225" lon="106.31948439063645">
        <ele>261.229736328125</ele>
        <time>2026-07-24T22:44:37Z</time>
      </trkpt>
      <trkpt lat="29.602878858177775" lon="106.3194185473833">
        <ele>256.957763671875</ele>
        <time>2026-07-24T22:44:43Z</time>
      </trkpt>
      <trkpt lat="29.602930423439915" lon="106.31911429596148">
        <ele>253.20458984375</ele>
        <time>2026-07-24T22:44:55Z</time>
      </trkpt>
      <trkpt lat="29.602947728512188" lon="106.31895169643444">
        <ele>252.2076416015625</ele>
        <time>2026-07-24T22:45:01Z</time>
      </trkpt>
      <trkpt lat="29.60289636839175" lon="106.31862450703858">
        <ele>246.9971923828125</ele>
        <time>2026-07-24T22:45:13Z</time>
      </trkpt>
      <trkpt lat="29.60291854886275" lon="106.3185098369669">
        <ele>247.56207275390625</ele>
        <time>2026-07-24T22:45:16Z</time>
      </trkpt>
      <trkpt lat="29.60293227000863" lon="106.31814568544524">
        <ele>249.20501708984375</ele>
        <time>2026-07-24T22:45:28Z</time>
      </trkpt>
      <trkpt lat="29.602946423377038" lon="106.31806288858827">
        <ele>248.21844482421875</ele>
        <time>2026-07-24T22:45:31Z</time>
      </trkpt>
      <trkpt lat="29.602928144799407" lon="106.31768681571639">
        <ele>246.2314453125</ele>
        <time>2026-07-24T22:45:43Z</time>
      </trkpt>
      <trkpt lat="29.602949477910435" lon="106.31750825377853">
        <ele>245.0189208984375</ele>
        <time>2026-07-24T22:45:49Z</time>
      </trkpt>
      <trkpt lat="29.602972624471217" lon="106.31742745112273">
        <ele>244.6370849609375</ele>
        <time>2026-07-24T22:45:52Z</time>
      </trkpt>
      <trkpt lat="29.602968287333162" lon="106.317079307155">
        <ele>247.28570556640625</ele>
        <time>2026-07-24T22:46:04Z</time>
      </trkpt>
      <trkpt lat="29.60294703416297" lon="106.31668926614505">
        <ele>251.864013671875</ele>
        <time>2026-07-24T22:46:16Z</time>
      </trkpt>
      <trkpt lat="29.602946191461957" lon="106.31660646934746">
        <ele>252.8648681640625</ele>
        <time>2026-07-24T22:46:19Z</time>
      </trkpt>
      <trkpt lat="29.602843455501297" lon="106.31648377649586">
        <ele>251.92877197265625</ele>
        <time>2026-07-24T22:46:25Z</time>
      </trkpt>
      <trkpt lat="29.602776553479156" lon="106.31644288081989">
        <ele>253.08880615234375</ele>
        <time>2026-07-24T22:46:28Z</time>
      </trkpt>
      <trkpt lat="29.60265956277814" lon="106.31645685362284">
        <ele>252.378662109375</ele>
        <time>2026-07-24T22:46:34Z</time>
      </trkpt>
      <trkpt lat="29.60262349816707" lon="106.31649675794418">
        <ele>249.5225830078125</ele>
        <time>2026-07-24T22:46:37Z</time>
      </trkpt>
      <trkpt lat="29.602575289715432" lon="106.31661447211518">
        <ele>247.89178466796875</ele>
        <time>2026-07-24T22:46:43Z</time>
      </trkpt>
      <trkpt lat="29.602545958057352" lon="106.31679403323733">
        <ele>250.363525390625</ele>
        <time>2026-07-24T22:46:49Z</time>
      </trkpt>
      <trkpt lat="29.602548256838105" lon="106.31689687215969">
        <ele>250.578857421875</ele>
        <time>2026-07-24T22:46:52Z</time>
      </trkpt>
      <trkpt lat="29.60258016343033" lon="106.31720701678069">
        <ele>248.2198486328125</ele>
        <time>2026-07-24T22:47:04Z</time>
      </trkpt>
      <trkpt lat="29.602587049493163" lon="106.31726587170125">
        <ele>245.71923828125</ele>
        <time>2026-07-24T22:47:07Z</time>
      </trkpt>
      <trkpt lat="29.602500867314046" lon="106.31737560711629">
        <ele>244.3572998046875</ele>
        <time>2026-07-24T22:47:13Z</time>
      </trkpt>
      <trkpt lat="29.602167745535706" lon="106.31749333770078">
        <ele>249.20269775390625</ele>
        <time>2026-07-24T22:47:25Z</time>
      </trkpt>
      <trkpt lat="29.60205387479108" lon="106.31755950855907">
        <ele>249.216552734375</ele>
        <time>2026-07-24T22:47:31Z</time>
      </trkpt>
      <trkpt lat="29.60194229472567" lon="106.3177666787142">
        <ele>249.3502197265625</ele>
        <time>2026-07-24T22:47:40Z</time>
      </trkpt>
      <trkpt lat="29.601911927543604" lon="106.3181429549245">
        <ele>250.837158203125</ele>
        <time>2026-07-24T22:47:52Z</time>
      </trkpt>
      <trkpt lat="29.601860149678227" lon="106.31838116981339">
        <ele>252.1226806640625</ele>
        <time>2026-07-24T22:48:01Z</time>
      </trkpt>
      <trkpt lat="29.601873129384185" lon="106.31876101455731">
        <ele>255.8907470703125</ele>
        <time>2026-07-24T22:48:13Z</time>
      </trkpt>
      <trkpt lat="29.601867748768598" lon="106.31911436005257">
        <ele>255.341064453125</ele>
        <time>2026-07-24T22:48:25Z</time>
      </trkpt>
      <trkpt lat="29.601869466350642" lon="106.31926199526066">
        <ele>254.06524658203125</ele>
        <time>2026-07-24T22:48:31Z</time>
      </trkpt>
      <trkpt lat="29.601906290557423" lon="106.31934606304952">
        <ele>254.5115966796875</ele>
        <time>2026-07-24T22:48:34Z</time>
      </trkpt>
      <trkpt lat="29.601952779545055" lon="106.31960813473879">
        <ele>250.6048583984375</ele>
        <time>2026-07-24T22:48:43Z</time>
      </trkpt>
      <trkpt lat="29.601943174210522" lon="106.3199263483218">
        <ele>248.18426513671875</ele>
        <time>2026-07-24T22:48:55Z</time>
      </trkpt>
      <trkpt lat="29.601943029283756" lon="106.32000216076125">
        <ele>248.450439453125</ele>
        <time>2026-07-24T22:48:58Z</time>
      </trkpt>
      <trkpt lat="29.602018168380333" lon="106.31991736600773">
        <ele>254.0081787109375</ele>
        <time>2026-07-24T22:49:04Z</time>
      </trkpt>
      <trkpt lat="29.602337091640745" lon="106.31990637391236">
        <ele>257.3944091796875</ele>
        <time>2026-07-24T22:49:16Z</time>
      </trkpt>
      <trkpt lat="29.60240514137419" lon="106.31986946111059">
        <ele>255.68182373046875</ele>
        <time>2026-07-24T22:49:19Z</time>
      </trkpt>
      <trkpt lat="29.60244824260599" lon="106.3198096065566">
        <ele>256.307373046875</ele>
        <time>2026-07-24T22:49:22Z</time>
      </trkpt>
      <trkpt lat="29.60244535790181" lon="106.31974975475966">
        <ele>256.0975341796875</ele>
        <time>2026-07-24T22:49:25Z</time>
      </trkpt>
      <trkpt lat="29.602485478166162" lon="106.31961293443948">
        <ele>249.77593994140625</ele>
        <time>2026-07-24T22:49:31Z</time>
      </trkpt>
      <trkpt lat="29.60256968589132" lon="106.3195582208341">
        <ele>254.873779296875</ele>
        <time>2026-07-24T22:49:37Z</time>
      </trkpt>
      <trkpt lat="29.602816793296395" lon="106.31946244264664">
        <ele>255.42437744140625</ele>
        <time>2026-07-24T22:49:46Z</time>
      </trkpt>
      <trkpt lat="29.602858898576432" lon="106.31940059296275">
        <ele>256.27947998046875</ele>
        <time>2026-07-24T22:49:49Z</time>
      </trkpt>
      <trkpt lat="29.602904503722076" lon="106.31907639114287">
        <ele>251.864501953125</ele>
        <time>2026-07-24T22:50:01Z</time>
      </trkpt>
      <trkpt lat="29.602930629025767" lon="106.31900656200098">
        <ele>251.37274169921875</ele>
        <time>2026-07-24T22:50:04Z</time>
      </trkpt>
      <trkpt lat="29.602952955330323" lon="106.31883199161989">
        <ele>247.38360595703125</ele>
        <time>2026-07-24T22:50:10Z</time>
      </trkpt>
      <trkpt lat="29.602925696069896" lon="106.31844794076832">
        <ele>242.5855712890625</ele>
        <time>2026-07-24T22:50:22Z</time>
      </trkpt>
      <trkpt lat="29.602913372681087" lon="106.31809481193677">
        <ele>247.5340576171875</ele>
        <time>2026-07-24T22:50:34Z</time>
      </trkpt>
      <trkpt lat="29.602920010627688" lon="106.31775863942497">
        <ele>245.82958984375</ele>
        <time>2026-07-24T22:50:46Z</time>
      </trkpt>
      <trkpt lat="29.602930360441295" lon="106.31757309541614">
        <ele>244.17352294921875</ele>
        <time>2026-07-24T22:50:52Z</time>
      </trkpt>
      <trkpt lat="29.60290652327984" lon="106.3174912980819">
        <ele>246.762451171875</ele>
        <time>2026-07-24T22:50:55Z</time>
      </trkpt>
      <trkpt lat="29.60294716683678" lon="106.31714614420656">
        <ele>247.04315185546875</ele>
        <time>2026-07-24T22:51:07Z</time>
      </trkpt>
      <trkpt lat="29.602938608924944" lon="106.31691471322974">
        <ele>248.533447265625</ele>
        <time>2026-07-24T22:51:16Z</time>
      </trkpt>
      <trkpt lat="29.60292082262285" lon="106.31680498371426">
        <ele>251.7930908203125</ele>
        <time>2026-07-24T22:51:19Z</time>
      </trkpt>
      <trkpt lat="29.602925252718997" lon="106.31657754157729">
        <ele>253.9468994140625</ele>
        <time>2026-07-24T22:51:25Z</time>
      </trkpt>
      <trkpt lat="29.602888690843233" lon="106.316499849469">
        <ele>252.64678955078125</ele>
        <time>2026-07-24T22:51:28Z</time>
      </trkpt>
      <trkpt lat="29.602767578912196" lon="106.31643091071227">
        <ele>250.41986083984375</ele>
        <time>2026-07-24T22:51:34Z</time>
      </trkpt>
      <trkpt lat="29.602692616957455" lon="106.31642293479544">
        <ele>248.95391845703125</ele>
        <time>2026-07-24T22:51:37Z</time>
      </trkpt>
      <trkpt lat="29.602620548237503" lon="106.3164708217267">
        <ele>247.9364013671875</ele>
        <time>2026-07-24T22:51:40Z</time>
      </trkpt>
      <trkpt lat="29.60256939367145" lon="106.3165606046159">
        <ele>242.8653564453125</ele>
        <time>2026-07-24T22:51:46Z</time>
      </trkpt>
      <trkpt lat="29.602539077512965" lon="106.31673218545725">
        <ele>243.973876953125</ele>
        <time>2026-07-24T22:51:52Z</time>
      </trkpt>
      <trkpt lat="29.602575445313278" lon="106.3170593798426">
        <ele>246.0548095703125</ele>
        <time>2026-07-24T22:52:04Z</time>
      </trkpt>
      <trkpt lat="29.602578086355017" lon="106.31724791637895">
        <ele>245.431884765625</ele>
        <time>2026-07-24T22:52:13Z</time>
      </trkpt>
      <trkpt lat="29.60248380616536" lon="106.31741052228811">
        <ele>246.87298583984375</ele>
        <time>2026-07-24T22:52:19Z</time>
      </trkpt>
      <trkpt lat="29.602405701106473" lon="106.31747836016449">
        <ele>246.63037109375</ele>
        <time>2026-07-24T22:52:22Z</time>
      </trkpt>
      <trkpt lat="29.60217664037427" lon="106.31754720465344">
        <ele>253.165771484375</ele>
        <time>2026-07-24T22:52:31Z</time>
      </trkpt>
      <trkpt lat="29.60210565643632" lon="106.31755020156939">
        <ele>254.0452880859375</ele>
        <time>2026-07-24T22:52:34Z</time>
      </trkpt>
      <trkpt lat="29.6020296076543" lon="106.31758811289168">
        <ele>252.6302490234375</ele>
        <time>2026-07-24T22:52:40Z</time>
      </trkpt>
      <trkpt lat="29.601944396578414" lon="106.31771281117858">
        <ele>248.35345458984375</ele>
        <time>2026-07-24T22:52:46Z</time>
      </trkpt>
      <trkpt lat="29.601882703413395" lon="106.3180868937323">
        <ele>250.94805908203125</ele>
        <time>2026-07-24T22:52:58Z</time>
      </trkpt>
      <trkpt lat="29.601854086894452" lon="106.31841508655306">
        <ele>251.76287841796875</ele>
        <time>2026-07-24T22:53:10Z</time>
      </trkpt>
      <trkpt lat="29.601878358509715" lon="106.31879315244146">
        <ele>254.8076171875</ele>
        <time>2026-07-24T22:53:22Z</time>
      </trkpt>
      <trkpt lat="29.601874739006618" lon="106.31911834977608">
        <ele>252.5587158203125</ele>
        <time>2026-07-24T22:53:34Z</time>
      </trkpt>
      <trkpt lat="29.60190608738765" lon="106.31945451730455">
        <ele>252.85504150390625</ele>
        <time>2026-07-24T22:53:46Z</time>
      </trkpt>
      <trkpt lat="29.601926730344506" lon="106.31963806231914">
        <ele>251.55657958984375</ele>
        <time>2026-07-24T22:53:52Z</time>
      </trkpt>
      <trkpt lat="29.60191323298467" lon="106.31990041429039">
        <ele>251.40228271484375</ele>
        <time>2026-07-24T22:54:01Z</time>
      </trkpt>
      <trkpt lat="29.601948075426208" lon="106.3199772221602">
        <ele>249.8494873046875</ele>
        <time>2026-07-24T22:54:04Z</time>
      </trkpt>
      <trkpt lat="29.60211314880159" lon="106.31991237261643">
        <ele>250.53997802734375</ele>
        <time>2026-07-24T22:54:16Z</time>
      </trkpt>
      <trkpt lat="29.60225913077562" lon="106.31989839835768">
        <ele>254.5067138671875</ele>
        <time>2026-07-24T22:54:22Z</time>
      </trkpt>
      <trkpt lat="29.602325091500806" lon="106.31990836970081">
        <ele>251.47198486328125</ele>
        <time>2026-07-24T22:54:25Z</time>
      </trkpt>
      <trkpt lat="29.602398149236308" lon="106.31986646893515">
        <ele>250.21466064453125</ele>
        <time>2026-07-24T22:54:28Z</time>
      </trkpt>
      <trkpt lat="29.602435229426167" lon="106.31981858513583">
        <ele>248.70892333984375</ele>
        <time>2026-07-24T22:54:31Z</time>
      </trkpt>
      <trkpt lat="29.602448490408637" lon="106.31967992724906">
        <ele>244.587646484375</ele>
        <time>2026-07-24T22:54:37Z</time>
      </trkpt>
      <trkpt lat="29.6024795857451" lon="106.31962506103221">
        <ele>243.26318359375</ele>
        <time>2026-07-24T22:54:40Z</time>
      </trkpt>
      <trkpt lat="29.602588693418976" lon="106.31955123694979">
        <ele>249.70806884765625</ele>
        <time>2026-07-24T22:54:46Z</time>
      </trkpt>
      <trkpt lat="29.60278148596996" lon="106.31951155518013">
        <ele>254.4427490234375</ele>
        <time>2026-07-24T22:54:52Z</time>
      </trkpt>
      <trkpt lat="29.602845757763717" lon="106.31947640638089">
        <ele>255.04949951171875</ele>
        <time>2026-07-24T22:54:55Z</time>
      </trkpt>
      <trkpt lat="29.60287583242409" lon="106.31943251305037">
        <ele>252.57000732421875</ele>
        <time>2026-07-24T22:54:58Z</time>
      </trkpt>
      <trkpt lat="29.602962522177034" lon="106.31905743444982">
        <ele>241.30322265625</ele>
        <time>2026-07-24T22:55:13Z</time>
      </trkpt>
      <trkpt lat="29.602922276770332" lon="106.31866839718816">
        <ele>238.5712890625</ele>
        <time>2026-07-24T22:55:25Z</time>
      </trkpt>
      <trkpt lat="29.602929714309138" lon="106.31827048346139">
        <ele>242.979248046875</ele>
        <time>2026-07-24T22:55:37Z</time>
      </trkpt>
      <trkpt lat="29.6029357514155" lon="106.31789230937437">
        <ele>247.4515380859375</ele>
        <time>2026-07-24T22:55:49Z</time>
      </trkpt>
      <trkpt lat="29.6029564624984" lon="106.31751523618044">
        <ele>245.25567626953125</ele>
        <time>2026-07-24T22:56:01Z</time>
      </trkpt>
      <trkpt lat="29.602954113549465" lon="106.31717307760013">
        <ele>247.4136962890625</ele>
        <time>2026-07-24T22:56:13Z</time>
      </trkpt>
      <trkpt lat="29.602933597200487" lon="106.31692169638424">
        <ele>247.5301513671875</ele>
        <time>2026-07-24T22:56:22Z</time>
      </trkpt>
      <trkpt lat="29.60294801670819" lon="106.31665241182489">
        <ele>250.158447265625</ele>
        <time>2026-07-24T22:56:31Z</time>
      </trkpt>
      <trkpt lat="29.60290827493066" lon="106.31656856462348">
        <ele>250.33404541015625</ele>
        <time>2026-07-24T22:56:34Z</time>
      </trkpt>
      <trkpt lat="29.60284044696526" lon="106.3164887644453">
        <ele>250.19097900390625</ele>
        <time>2026-07-24T22:56:37Z</time>
      </trkpt>
      <trkpt lat="29.602761571294884" lon="106.31643589884446">
        <ele>250.9136962890625</ele>
        <time>2026-07-24T22:56:40Z</time>
      </trkpt>
      <trkpt lat="29.602685626657856" lon="106.31641894499997">
        <ele>249.8175048828125</ele>
        <time>2026-07-24T22:56:43Z</time>
      </trkpt>
      <trkpt lat="29.602624564027945" lon="106.31646184350059">
        <ele>250.182861328125</ele>
        <time>2026-07-24T22:56:46Z</time>
      </trkpt>
      <trkpt lat="29.602573462409747" lon="106.31652369490196">
        <ele>248.6717529296875</ele>
        <time>2026-07-24T22:56:49Z</time>
      </trkpt>
      <trkpt lat="29.60254930523278" lon="106.31661048347003">
        <ele>247.51849365234375</ele>
        <time>2026-07-24T22:56:52Z</time>
      </trkpt>
      <trkpt lat="29.60254524685491" lon="106.31688695487517">
        <ele>245.4334716796875</ele>
        <time>2026-07-24T22:57:01Z</time>
      </trkpt>
      <trkpt lat="29.602587447324886" lon="106.31705638647132">
        <ele>247.58612060546875</ele>
        <time>2026-07-24T22:57:07Z</time>
      </trkpt>
      <trkpt lat="29.602576115389827" lon="106.31723295327726">
        <ele>250.9686279296875</ele>
        <time>2026-07-24T22:57:13Z</time>
      </trkpt>
      <trkpt lat="29.602537969722455" lon="106.31731575204283">
        <ele>251.20068359375</ele>
        <time>2026-07-24T22:57:16Z</time>
      </trkpt>
      <trkpt lat="29.6024477906386" lon="106.31742449011378">
        <ele>250.7957763671875</ele>
        <time>2026-07-24T22:57:19Z</time>
      </trkpt>
      <trkpt lat="29.60216669843444" lon="106.31751827641857">
        <ele>250.71099853515625</ele>
        <time>2026-07-24T22:57:31Z</time>
      </trkpt>
      <trkpt lat="29.602100728136644" lon="106.317513292664">
        <ele>250.693359375</ele>
        <time>2026-07-24T22:57:34Z</time>
      </trkpt>
      <trkpt lat="29.6019996168497" lon="106.31758811469928">
        <ele>248.53277587890625</ele>
        <time>2026-07-24T22:57:40Z</time>
      </trkpt>
      <trkpt lat="29.601926121229628" lon="106.31786044883641">
        <ele>247.0408935546875</ele>
        <time>2026-07-24T22:57:49Z</time>
      </trkpt>
      <trkpt lat="29.601884478656345" lon="106.31820460357875">
        <ele>249.913330078125</ele>
        <time>2026-07-24T22:58:01Z</time>
      </trkpt>
      <trkpt lat="29.60184417739276" lon="106.31836920028971">
        <ele>251.38446044921875</ele>
        <time>2026-07-24T22:58:07Z</time>
      </trkpt>
      <trkpt lat="29.601862452827408" lon="106.31874626910438">
        <ele>255.89971923828125</ele>
        <time>2026-07-24T22:58:19Z</time>
      </trkpt>
      <trkpt lat="29.60185381588524" lon="106.31908144219236">
        <ele>255.06158447265625</ele>
        <time>2026-07-24T22:58:31Z</time>
      </trkpt>
      <trkpt lat="29.601888214827056" lon="106.31939067616484">
        <ele>252.1658935546875</ele>
        <time>2026-07-24T22:58:43Z</time>
      </trkpt>
      <trkpt lat="29.601918553637123" lon="106.31973183094512">
        <ele>251.47607421875</ele>
        <time>2026-07-24T22:58:55Z</time>
      </trkpt>
      <trkpt lat="29.601930038990762" lon="106.31999916894954">
        <ele>250.4774169921875</ele>
        <time>2026-07-24T22:59:04Z</time>
      </trkpt>
      <trkpt lat="29.601969088057672" lon="106.31996724557301">
        <ele>249.4342041015625</ele>
        <time>2026-07-24T22:59:10Z</time>
      </trkpt>
      <trkpt lat="29.602220081702512" lon="106.31993032174427">
        <ele>254.316650390625</ele>
        <time>2026-07-24T22:59:19Z</time>
      </trkpt>
      <trkpt lat="29.602300030509642" lon="106.31994428237023">
        <ele>253.375732421875</ele>
        <time>2026-07-24T22:59:22Z</time>
      </trkpt>
      <trkpt lat="29.602371898475816" lon="106.31992775269582">
        <ele>254.0673828125</ele>
        <time>2026-07-24T22:59:25Z</time>
      </trkpt>
      <trkpt lat="29.602438148434903" lon="106.3198604813273">
        <ele>252.18072509765625</ele>
        <time>2026-07-24T22:59:28Z</time>
      </trkpt>
      <trkpt lat="29.602458264329112" lon="106.31979663802645">
        <ele>250.027099609375</ele>
        <time>2026-07-24T22:59:31Z</time>
      </trkpt>
      <trkpt lat="29.602449533938415" lon="106.31965698391804">
        <ele>246.26153564453125</ele>
        <time>2026-07-24T22:59:37Z</time>
      </trkpt>
      <trkpt lat="29.60246263858894" lon="106.31960012371273">
        <ele>247.320556640625</ele>
        <time>2026-07-24T22:59:40Z</time>
      </trkpt>
      <trkpt lat="29.60250269495232" lon="106.31956421007875">
        <ele>251.029541015625</ele>
        <time>2026-07-24T22:59:43Z</time>
      </trkpt>
      <trkpt lat="29.602594687773127" lon="106.31955323165614">
        <ele>255.9599609375</ele>
        <time>2026-07-24T22:59:46Z</time>
      </trkpt>
      <trkpt lat="29.60268972732151" lon="106.3195173146971">
        <ele>257.39801025390625</ele>
        <time>2026-07-24T22:59:49Z</time>
      </trkpt>
      <trkpt lat="29.60278470400178" lon="106.31951431636546">
        <ele>258.44122314453125</ele>
        <time>2026-07-24T22:59:52Z</time>
      </trkpt>
      <trkpt lat="29.602856750592785" lon="106.31947840078647">
        <ele>257.26641845703125</ele>
        <time>2026-07-24T22:59:55Z</time>
      </trkpt>
      <trkpt lat="29.602950303097327" lon="106.3191741469284">
        <ele>245.1319580078125</ele>
        <time>2026-07-24T23:00:07Z</time>
      </trkpt>
      <trkpt lat="29.602978591527062" lon="106.3190185295502">
        <ele>241.66802978515625</ele>
        <time>2026-07-24T23:00:13Z</time>
      </trkpt>
      <trkpt lat="29.602920381980017" lon="106.31861353266082">
        <ele>240.1593017578125</ele>
        <time>2026-07-24T23:00:25Z</time>
      </trkpt>
      <trkpt lat="29.60295299761558" lon="106.31828534000753">
        <ele>245.53179931640625</ele>
        <time>2026-07-24T23:00:34Z</time>
      </trkpt>
      <trkpt lat="29.6029626862192" lon="106.31792223405509">
        <ele>247.61553955078125</ele>
        <time>2026-07-24T23:00:46Z</time>
      </trkpt>
      <trkpt lat="29.602939572353534" lon="106.31764993510043">
        <ele>244.7030029296875</ele>
        <time>2026-07-24T23:00:55Z</time>
      </trkpt>
      <trkpt lat="29.60296040248739" lon="106.31754615986885">
        <ele>246.9393310546875</ele>
        <time>2026-07-24T23:00:58Z</time>
      </trkpt>
      <trkpt lat="29.6029340325043" lon="106.31721896603389">
        <ele>249.32891845703125</ele>
        <time>2026-07-24T23:01:10Z</time>
      </trkpt>
      <trkpt lat="29.60295840590934" lon="106.31701845723705">
        <ele>248.75018310546875</ele>
        <time>2026-07-24T23:01:19Z</time>
      </trkpt>
      <trkpt lat="29.602930586758085" lon="106.3169276818675">
        <ele>248.4200439453125</ele>
        <time>2026-07-24T23:01:22Z</time>
      </trkpt>
      <trkpt lat="29.60291026675567" lon="106.31657255471542">
        <ele>254.626953125</ele>
        <time>2026-07-24T23:01:34Z</time>
      </trkpt>
      <trkpt lat="29.602884403274214" lon="106.31650472265399">
        <ele>253.27099609375</ele>
        <time>2026-07-24T23:01:37Z</time>
      </trkpt>
      <trkpt lat="29.602831519660583" lon="106.31645185549394">
        <ele>251.57025146484375</ele>
        <time>2026-07-24T23:01:40Z</time>
      </trkpt>
      <trkpt lat="29.602703647616238" lon="106.31640497815522">
        <ele>250.04144287109375</ele>
        <time>2026-07-24T23:01:46Z</time>
      </trkpt>
      <trkpt lat="29.6026286138426" lon="106.31643490930028">
        <ele>252.42950439453125</ele>
        <time>2026-07-24T23:01:49Z</time>
      </trkpt>
      <trkpt lat="29.60257352858212" lon="106.31648878052587">
        <ele>252.64984130859375</ele>
        <time>2026-07-24T23:01:52Z</time>
      </trkpt>
      <trkpt lat="29.602508293187537" lon="106.31662345412519">
        <ele>249.8465576171875</ele>
        <time>2026-07-24T23:01:58Z</time>
      </trkpt>
      <trkpt lat="29.602498972434788" lon="106.31679403606834">
        <ele>246.9122314453125</ele>
        <time>2026-07-24T23:02:04Z</time>
      </trkpt>
      <trkpt lat="29.602565374506547" lon="106.31709828486797">
        <ele>251.49822998046875</ele>
        <time>2026-07-24T23:02:16Z</time>
      </trkpt>
      <trkpt lat="29.602564094426647" lon="106.31724592212619">
        <ele>251.48834228515625</ele>
        <time>2026-07-24T23:02:22Z</time>
      </trkpt>
      <trkpt lat="29.602533938725344" lon="106.31733271059225">
        <ele>249.54473876953125</ele>
        <time>2026-07-24T23:02:25Z</time>
      </trkpt>
      <trkpt lat="29.602473805433302" lon="106.3174125179845">
        <ele>249.9949951171875</ele>
        <time>2026-07-24T23:02:28Z</time>
      </trkpt>
      <trkpt lat="29.60232568956575" lon="106.31749731836658">
        <ele>251.7586669921875</ele>
        <time>2026-07-24T23:02:34Z</time>
      </trkpt>
      <trkpt lat="29.602085673943762" lon="106.31754421749831">
        <ele>253.327880859375</ele>
        <time>2026-07-24T23:02:46Z</time>
      </trkpt>
      <trkpt lat="29.601977356776324" lon="106.3175825050918">
        <ele>251.86993408203125</ele>
        <time>2026-07-24T23:02:52Z</time>
      </trkpt>
      <trkpt lat="29.60192134860432" lon="106.31774174136389">
        <ele>252.096435546875</ele>
        <time>2026-07-24T23:02:58Z</time>
      </trkpt>
      <trkpt lat="29.60189473581812" lon="106.31806793970112">
        <ele>250.46356201171875</ele>
        <time>2026-07-24T23:03:10Z</time>
      </trkpt>
      <trkpt lat="29.601852273762603" lon="106.31831732768252">
        <ele>250.36529541015625</ele>
        <time>2026-07-24T23:03:19Z</time>
      </trkpt>
      <trkpt lat="29.601867527380705" lon="106.31870636725968">
        <ele>254.39117431640625</ele>
        <time>2026-07-24T23:03:31Z</time>
      </trkpt>
      <trkpt lat="29.601870888717983" lon="106.31904054216291">
        <ele>254.97528076171875</ele>
        <time>2026-07-24T23:03:43Z</time>
      </trkpt>
      <trkpt lat="29.601899393267654" lon="106.31928793112809">
        <ele>254.5360107421875</ele>
        <time>2026-07-24T23:03:52Z</time>
      </trkpt>
      <trkpt lat="29.60192325552479" lon="106.31936374060933">
        <ele>253.70526123046875</ele>
        <time>2026-07-24T23:03:55Z</time>
      </trkpt>
      <trkpt lat="29.601951505395853" lon="106.3197517796182">
        <ele>247.9073486328125</ele>
        <time>2026-07-24T23:04:10Z</time>
      </trkpt>
      <trkpt lat="29.601953005240016" lon="106.32001313300896">
        <ele>248.0633544921875</ele>
        <time>2026-07-24T23:04:19Z</time>
      </trkpt>
      <trkpt lat="29.60200909486531" lon="106.31995726783944">
        <ele>250.59259033203125</ele>
        <time>2026-07-24T23:04:25Z</time>
      </trkpt>
      <trkpt lat="29.602257081812485" lon="106.31992433431911">
        <ele>254.87158203125</ele>
        <time>2026-07-24T23:04:34Z</time>
      </trkpt>
      <trkpt lat="29.60233304328896" lon="106.31993230999338">
        <ele>253.0406494140625</ele>
        <time>2026-07-24T23:04:37Z</time>
      </trkpt>
      <trkpt lat="29.602409091349767" lon="106.31989069399415">
        <ele>253.07269287109375</ele>
        <time>2026-07-24T23:04:40Z</time>
      </trkpt>
      <trkpt lat="29.602467162614534" lon="106.31980790782883">
        <ele>254.984130859375</ele>
        <time>2026-07-24T23:04:43Z</time>
      </trkpt>
      <trkpt lat="29.602445518009468" lon="106.31966596196116">
        <ele>251.5125732421875</ele>
        <time>2026-07-24T23:04:49Z</time>
      </trkpt>
      <trkpt lat="29.602452637837384" lon="106.31960211938346">
        <ele>251.2200927734375</ele>
        <time>2026-07-24T23:04:52Z</time>
      </trkpt>
      <trkpt lat="29.60256880597009" lon="106.31951104803566">
        <ele>257.43768310546875</ele>
        <time>2026-07-24T23:04:58Z</time>
      </trkpt>
      <trkpt lat="29.602818737434504" lon="106.31949137102549">
        <ele>257.5301513671875</ele>
        <time>2026-07-24T23:05:07Z</time>
      </trkpt>
      <trkpt lat="29.602880783269732" lon="106.31945745111453">
        <ele>254.970458984375</ele>
        <time>2026-07-24T23:05:10Z</time>
      </trkpt>
      <trkpt lat="29.6029060613599" lon="106.31930781936457">
        <ele>249.7403564453125</ele>
        <time>2026-07-24T23:05:16Z</time>
      </trkpt>
      <trkpt lat="29.602955303474452" lon="106.31917314909087">
        <ele>246.86279296875</ele>
        <time>2026-07-24T23:05:22Z</time>
      </trkpt>
      <trkpt lat="29.60293906804838" lon="106.3187751327916">
        <ele>242.58062744140625</ele>
        <time>2026-07-24T23:05:37Z</time>
      </trkpt>
      <trkpt lat="29.602902621350395" lon="106.31849083637782">
        <ele>242.23492431640625</ele>
        <time>2026-07-24T23:05:46Z</time>
      </trkpt>
      <trkpt lat="29.602936132008963" lon="106.31821750821668">
        <ele>249.22869873046875</ele>
        <time>2026-07-24T23:05:55Z</time>
      </trkpt>
      <trkpt lat="29.60292637630768" lon="106.31809082098367">
        <ele>249.9571533203125</ele>
        <time>2026-07-24T23:06:04Z</time>
      </trkpt>
    </trkseg>
  </trk>
</gpx>