<?xml version="1.0" encoding="UTF-8"?>
<gpx xmlns="http://www.topografix.com/GPX/1/1" xmlns:gpxtpx="http://www.garmin.com/xmlschemas/TrackPointExtension/v1" xmlns:xsi="http://www.w3.org/2001/XMLSchema-instance" xsi:schemaLocation="http://www.topografix.com/GPX/1/1 http://www.topografix.com/GPX/1/1/gpx.xsd" version="1.1" creator="gpx.py -- https://github.com/tkrajina/gpxpy">
  <trk>
    <name>gpx from keep</name>
    <type>Walk</type>
    <trkseg>
      <trkpt lat="29.602424148905847" lon="106.31986247723681">
        <ele>262.3482666015625</ele>
        <time>2026-09-15T23:07:15Z</time>
      </trkpt>
      <trkpt lat="29.6024572684478" lon="106.31979464302098">
        <ele>258.552978515625</ele>
        <time>2026-09-15T23:07:21Z</time>
      </trkpt>
      <trkpt lat="29.60245066322266" lon="106.31958915156375">
        <ele>256.5120849609375</ele>
        <time>2026-09-15T23:07:39Z</time>
      </trkpt>
      <trkpt lat="29.60249075578753" lon="106.31953428477925">
        <ele>255.41748046875</ele>
        <time>2026-09-15T23:07:45Z</time>
      </trkpt>
      <trkpt lat="29.60281472150924" lon="106.31950034907601">
        <ele>251.6776123046875</ele>
        <time>2026-09-15T23:08:15Z</time>
      </trkpt>
      <trkpt lat="29.60287970546184" lon="106.31949835008758">
        <ele>249.28399658203125</ele>
        <time>2026-09-15T23:08:21Z</time>
      </trkpt>
      <trkpt lat="29.60292480412204" lon="106.31943949283828">
        <ele>250.4388427734375</ele>
        <time>2026-09-15T23:08:27Z</time>
      </trkpt>
      <trkpt lat="29.60293531529431" lon="106.31917015768859">
        <ele>248.75335693359375</ele>
        <time>2026-09-15T23:08:45Z</time>
      </trkpt>
      <trkpt lat="29.602963615141256" lon="106.3190085550853">
        <ele>247.71636962890625</ele>
        <time>2026-09-15T23:08:57Z</time>
      </trkpt>
      <trkpt lat="29.602925247324826" lon="106.31868336009005">
        <ele>255.283203125</ele>
        <time>2026-09-15T23:09:21Z</time>
      </trkpt>
      <trkpt lat="29.602899875076677" lon="106.31835816369286">
        <ele>259.4234619140625</ele>
        <time>2026-09-15T23:09:45Z</time>
      </trkpt>
      <trkpt lat="29.602921149889074" lon="106.31821052632928">
        <ele>254.6124267578125</ele>
        <time>2026-09-15T23:09:57Z</time>
      </trkpt>
      <trkpt lat="29.60292681680495" lon="106.31785939097135">
        <ele>252.61883544921875</ele>
        <time>2026-09-15T23:10:24Z</time>
      </trkpt>
      <trkpt lat="29.602940971953903" lon="106.3177755964163">
        <ele>251.3934326171875</ele>
        <time>2026-09-15T23:10:30Z</time>
      </trkpt>
      <trkpt lat="29.60293164647135" lon="106.31742246585883">
        <ele>249.979736328125</ele>
        <time>2026-09-15T23:10:54Z</time>
      </trkpt>
      <trkpt lat="29.60294423973445" lon="106.3171082375273">
        <ele>251.54693603515625</ele>
        <time>2026-09-15T23:11:18Z</time>
      </trkpt>
      <trkpt lat="29.602955832749977" lon="106.31679400854111">
        <ele>251.97430419921875</ele>
        <time>2026-09-15T23:11:43Z</time>
      </trkpt>
      <trkpt lat="29.60295426655478" lon="106.31656556919357">
        <ele>252.02325439453125</ele>
        <time>2026-09-15T23:12:01Z</time>
      </trkpt>
      <trkpt lat="29.602936406297538" lon="106.3164947439857">
        <ele>251.832275390625</ele>
        <time>2026-09-15T23:12:07Z</time>
      </trkpt>
      <trkpt lat="29.60288952273483" lon="106.31644087890615">
        <ele>252.150390625</ele>
        <time>2026-09-15T23:12:13Z</time>
      </trkpt>
      <trkpt lat="29.602778671941874" lon="106.31638003477623">
        <ele>252.54168701171875</ele>
        <time>2026-09-15T23:12:25Z</time>
      </trkpt>
      <trkpt lat="29.602702702729996" lon="106.31637604913486">
        <ele>251.1417236328125</ele>
        <time>2026-09-15T23:12:31Z</time>
      </trkpt>
      <trkpt lat="29.602585523021567" lon="106.31648977735688">
        <ele>255.77838134765625</ele>
        <time>2026-09-15T23:12:43Z</time>
      </trkpt>
      <trkpt lat="29.602547415527912" lon="106.3165526255152">
        <ele>253.620849609375</ele>
        <time>2026-09-15T23:12:49Z</time>
      </trkpt>
      <trkpt lat="29.602525278530273" lon="106.31662844086469">
        <ele>252.9754638671875</ele>
        <time>2026-09-15T23:12:55Z</time>
      </trkpt>
      <trkpt lat="29.60254581611483" lon="106.31686884957195">
        <ele>249.61590576171875</ele>
        <time>2026-09-15T23:13:13Z</time>
      </trkpt>
      <trkpt lat="29.60257941757521" lon="106.31707334529318">
        <ele>248.81890869140625</ele>
        <time>2026-09-15T23:13:31Z</time>
      </trkpt>
      <trkpt lat="29.60256112376718" lon="106.31723095908451">
        <ele>251.3426513671875</ele>
        <time>2026-09-15T23:13:43Z</time>
      </trkpt>
      <trkpt lat="29.602535968438932" lon="106.31731674971094">
        <ele>252.94378662109375</ele>
        <time>2026-09-15T23:13:49Z</time>
      </trkpt>
      <trkpt lat="29.602451795102233" lon="106.31742149723217">
        <ele>253.65234375</ele>
        <time>2026-09-15T23:13:58Z</time>
      </trkpt>
      <trkpt lat="29.602297641247965" lon="106.31752724644123">
        <ele>248.142822265625</ele>
        <time>2026-09-15T23:14:13Z</time>
      </trkpt>
      <trkpt lat="29.60217259797817" lon="106.31757014845107">
        <ele>251.064208984375</ele>
        <time>2026-09-15T23:14:25Z</time>
      </trkpt>
      <trkpt lat="29.602037654515737" lon="106.31756217621806">
        <ele>258.122802734375</ele>
        <time>2026-09-15T23:14:37Z</time>
      </trkpt>
      <trkpt lat="29.60193256910417" lon="106.31762403037865">
        <ele>259.4642333984375</ele>
        <time>2026-09-15T23:14:49Z</time>
      </trkpt>
      <trkpt lat="29.601904461967926" lon="106.31768488232886">
        <ele>257.63983154296875</ele>
        <time>2026-09-15T23:14:55Z</time>
      </trkpt>
      <trkpt lat="29.601898162082897" lon="106.31784349227598">
        <ele>254.27587890625</ele>
        <time>2026-09-15T23:15:07Z</time>
      </trkpt>
      <trkpt lat="29.601920860773987" lon="106.31799811013768">
        <ele>257.18048095703125</ele>
        <time>2026-09-15T23:15:19Z</time>
      </trkpt>
      <trkpt lat="29.601901745066357" lon="106.31806195402365">
        <ele>256.857177734375</ele>
        <time>2026-09-15T23:15:25Z</time>
      </trkpt>
      <trkpt lat="29.60190649660696" lon="106.31819163420992">
        <ele>259.0062255859375</ele>
        <time>2026-09-15T23:15:37Z</time>
      </trkpt>
      <trkpt lat="29.60189334099846" lon="106.31827542848298">
        <ele>259.394287109375</ele>
        <time>2026-09-15T23:15:43Z</time>
      </trkpt>
      <trkpt lat="29.601900183025005" lon="106.31835722642555">
        <ele>257.28955078125</ele>
        <time>2026-09-15T23:15:49Z</time>
      </trkpt>
      <trkpt lat="29.601941054513258" lon="106.3184180739305">
        <ele>256.02880859375</ele>
        <time>2026-09-15T23:15:55Z</time>
      </trkpt>
      <trkpt lat="29.6018888157107" lon="106.31855174742552">
        <ele>253.69390869140625</ele>
        <time>2026-09-15T23:16:04Z</time>
      </trkpt>
      <trkpt lat="29.60189422042069" lon="106.31886297913677">
        <ele>255.115478515625</ele>
        <time>2026-09-15T23:16:28Z</time>
      </trkpt>
      <trkpt lat="29.60188259756469" lon="106.31919116943517">
        <ele>256.15899658203125</ele>
        <time>2026-09-15T23:16:58Z</time>
      </trkpt>
      <trkpt lat="29.601928362557402" lon="106.31930688080026">
        <ele>257.293212890625</ele>
        <time>2026-09-15T23:17:10Z</time>
      </trkpt>
      <trkpt lat="29.601936677726577" lon="106.31966399758991">
        <ele>256.7421875</ele>
        <time>2026-09-15T23:17:40Z</time>
      </trkpt>
      <trkpt lat="29.60195224581396" lon="106.31988744401666">
        <ele>253.4144287109375</ele>
        <time>2026-09-15T23:17:58Z</time>
      </trkpt>
      <trkpt lat="29.60192211200219" lon="106.31996226074727">
        <ele>253.65643310546875</ele>
        <time>2026-09-15T23:18:04Z</time>
      </trkpt>
      <trkpt lat="29.60203502015247" lon="106.31999217989292">
        <ele>254.9163818359375</ele>
        <time>2026-09-15T23:18:16Z</time>
      </trkpt>
      <trkpt lat="29.602150990329395" lon="106.31998918030055">
        <ele>255.80548095703125</ele>
        <time>2026-09-15T23:18:31Z</time>
      </trkpt>
      <trkpt lat="29.602166819505182" lon="106.3200759645999">
        <ele>256.177734375</ele>
        <time>2026-09-15T23:18:37Z</time>
      </trkpt>
      <trkpt lat="29.6019697120196" lon="106.32016375924357">
        <ele>264.60595703125</ele>
        <time>2026-09-15T23:19:04Z</time>
      </trkpt>
    </trkseg>
  </trk>
</gpx>