<?xml version="1.0" encoding="UTF-8"?>
<gpx xmlns="http://www.topografix.com/GPX/1/1" xmlns:gpxtpx="http://www.garmin.com/xmlschemas/TrackPointExtension/v1" xmlns:xsi="http://www.w3.org/2001/XMLSchema-instance" xsi:schemaLocation="http://www.topografix.com/GPX/1/1 http://www.topografix.com/GPX/1/1/gpx.xsd" version="1.1" creator="gpx.py -- https://github.com/tkrajina/gpxpy">
  <trk>
    <name>gpx from keep</name>
    <type>Walk</type>
    <trkseg>
      <trkpt lat="29.601994171923256" lon="106.31991936251984">
        <ele>280.28662109375</ele>
        <time>2026-08-30T11:29:48Z</time>
      </trkpt>
      <trkpt lat="29.602110304156792" lon="106.31983157266245">
        <ele>262.09765625</ele>
        <time>2026-08-30T11:29:51Z</time>
      </trkpt>
      <trkpt lat="29.6022572457844" lon="106.31983854652576">
        <ele>262.5740966796875</ele>
        <time>2026-08-30T11:30:03Z</time>
      </trkpt>
      <trkpt lat="29.602456116234674" lon="106.31987444569728">
        <ele>258.98284912109375</ele>
        <time>2026-08-30T11:30:21Z</time>
      </trkpt>
      <trkpt lat="29.60251516300741" lon="106.31984052603086">
        <ele>257.5125732421875</ele>
        <time>2026-08-30T11:30:27Z</time>
      </trkpt>
      <trkpt lat="29.60253827035622" lon="106.31978067267492">
        <ele>256.89288330078125</ele>
        <time>2026-08-30T11:30:33Z</time>
      </trkpt>
      <trkpt lat="29.602533651169292" lon="106.319582163821">
        <ele>256.6287841796875</ele>
        <time>2026-08-30T11:30:51Z</time>
      </trkpt>
      <trkpt lat="29.60257072560021" lon="106.31953727255748">
        <ele>257.8004150390625</ele>
        <time>2026-08-30T11:30:57Z</time>
      </trkpt>
      <trkpt lat="29.60267777671731" lon="106.319493374597">
        <ele>257.783447265625</ele>
        <time>2026-08-30T11:31:09Z</time>
      </trkpt>
      <trkpt lat="29.6028917303751" lon="106.31948338634808">
        <ele>257.08251953125</ele>
        <time>2026-08-30T11:31:33Z</time>
      </trkpt>
      <trkpt lat="29.60294577865783" lon="106.3194494669182">
        <ele>258.671142578125</ele>
        <time>2026-08-30T11:31:39Z</time>
      </trkpt>
      <trkpt lat="29.602990865881424" lon="106.31939659486353">
        <ele>258.6966552734375</ele>
        <time>2026-08-30T11:31:45Z</time>
      </trkpt>
      <trkpt lat="29.603063304772537" lon="106.31915518692911">
        <ele>254.7813720703125</ele>
        <time>2026-08-30T11:32:09Z</time>
      </trkpt>
      <trkpt lat="29.60304793774022" lon="106.31882600066486">
        <ele>256.804931640625</ele>
        <time>2026-08-30T11:32:39Z</time>
      </trkpt>
      <trkpt lat="29.60304423951827" lon="106.31866838983368">
        <ele>254.66448974609375</ele>
        <time>2026-08-30T11:32:51Z</time>
      </trkpt>
      <trkpt lat="29.603003617122237" lon="106.31847686472996">
        <ele>251.6480712890625</ele>
        <time>2026-08-30T11:33:09Z</time>
      </trkpt>
      <trkpt lat="29.603015214270997" lon="106.3181616411151">
        <ele>254.0299072265625</ele>
        <time>2026-08-30T11:33:39Z</time>
      </trkpt>
      <trkpt lat="29.603036817382087" lon="106.31784142855116">
        <ele>255.23028564453125</ele>
        <time>2026-08-30T11:34:09Z</time>
      </trkpt>
      <trkpt lat="29.603020442956616" lon="106.31751523232421">
        <ele>257.1531982421875</ele>
        <time>2026-08-30T11:34:39Z</time>
      </trkpt>
      <trkpt lat="29.603016556053554" lon="106.31745637732658">
        <ele>255.970947265625</ele>
        <time>2026-08-30T11:34:45Z</time>
      </trkpt>
      <trkpt lat="29.603063763505943" lon="106.3173396614928">
        <ele>253.6195068359375</ele>
        <time>2026-08-30T11:34:57Z</time>
      </trkpt>
      <trkpt lat="29.60306389806688" lon="106.31726883560736">
        <ele>252.96990966796875</ele>
        <time>2026-08-30T11:35:03Z</time>
      </trkpt>
      <trkpt lat="29.603113928285072" lon="106.31724489144261">
        <ele>252.56304931640625</ele>
        <time>2026-08-30T11:35:09Z</time>
      </trkpt>
      <trkpt lat="29.6033308564025" lon="106.31724787101321">
        <ele>248.42388916015625</ele>
        <time>2026-08-30T11:35:33Z</time>
      </trkpt>
      <trkpt lat="29.60337579909739" lon="106.31727081190587">
        <ele>249.85394287109375</ele>
        <time>2026-08-30T11:35:39Z</time>
      </trkpt>
      <trkpt lat="29.603429826220466" lon="106.3172478650487">
        <ele>251.040283203125</ele>
        <time>2026-08-30T11:35:45Z</time>
      </trkpt>
      <trkpt lat="29.603465957351467" lon="106.3171730467545">
        <ele>250.931396484375</ele>
        <time>2026-08-30T11:35:51Z</time>
      </trkpt>
      <trkpt lat="29.60347009252241" lon="106.31710122299542">
        <ele>251.76629638671875</ele>
        <time>2026-08-30T11:35:57Z</time>
      </trkpt>
      <trkpt lat="29.60341375356398" lon="106.31676205930496">
        <ele>253.55010986328125</ele>
        <time>2026-08-30T11:36:27Z</time>
      </trkpt>
      <trkpt lat="29.60341400327838" lon="106.31663038242456">
        <ele>254.4954833984375</ele>
        <time>2026-08-30T11:36:39Z</time>
      </trkpt>
      <trkpt lat="29.603400121018527" lon="106.31657053009654">
        <ele>252.97723388671875</ele>
        <time>2026-08-30T11:36:45Z</time>
      </trkpt>
      <trkpt lat="29.60336119719993" lon="106.31653661563615">
        <ele>250.845703125</ele>
        <time>2026-08-30T11:36:51Z</time>
      </trkpt>
      <trkpt lat="29.603295207871312" lon="106.31654160737796">
        <ele>249.4140625</ele>
        <time>2026-08-30T11:37:00Z</time>
      </trkpt>
      <trkpt lat="29.603246169870165" lon="106.31656954181892">
        <ele>246.3729248046875</ele>
        <time>2026-08-30T11:37:06Z</time>
      </trkpt>
      <trkpt lat="29.603239069881536" lon="106.31662341009657">
        <ele>243.9365234375</ele>
        <time>2026-08-30T11:37:12Z</time>
      </trkpt>
      <trkpt lat="29.603212193478946" lon="106.31656256099488">
        <ele>253.76495361328125</ele>
        <time>2026-08-30T11:37:24Z</time>
      </trkpt>
      <trkpt lat="29.603218083852973" lon="106.31661942115062">
        <ele>245.1872032703334</ele>
        <time>2026-08-30T11:37:27Z</time>
      </trkpt>
      <trkpt lat="29.60334309301034" lon="106.31659447480153">
        <ele>257.610107421875</ele>
        <time>2026-08-30T11:37:30Z</time>
      </trkpt>
      <trkpt lat="29.6033731840871" lon="106.31654160268003">
        <ele>262.2568359375</ele>
        <time>2026-08-30T11:37:33Z</time>
      </trkpt>
      <trkpt lat="29.60331222726754" lon="106.31652863816038">
        <ele>266.9019775390625</ele>
        <time>2026-08-30T11:37:36Z</time>
      </trkpt>
      <trkpt lat="29.603129192329817" lon="106.31657653173735">
        <ele>265.87408447265625</ele>
        <time>2026-08-30T11:37:51Z</time>
      </trkpt>
      <trkpt lat="29.603274994591743" lon="106.31665732471501">
        <ele>247.38250732421875</ele>
        <time>2026-08-30T11:37:57Z</time>
      </trkpt>
      <trkpt lat="29.60320204901514" lon="106.31664037071965">
        <ele>233.2969970703125</ele>
        <time>2026-08-30T11:38:00Z</time>
      </trkpt>
      <trkpt lat="29.60325916023176" lon="106.31657253369518">
        <ele>229.7608642578125</ele>
        <time>2026-08-30T11:38:09Z</time>
      </trkpt>
      <trkpt lat="29.603308188779746" lon="106.31654958702121">
        <ele>241.9844970703125</ele>
        <time>2026-08-30T11:38:15Z</time>
      </trkpt>
      <trkpt lat="29.603361157491307" lon="106.31655756425475">
        <ele>247.479248046875</ele>
        <time>2026-08-30T11:38:21Z</time>
      </trkpt>
      <trkpt lat="29.603401065871363" lon="106.31659945907253">
        <ele>248.12615966796875</ele>
        <time>2026-08-30T11:38:30Z</time>
      </trkpt>
      <trkpt lat="29.603389802506424" lon="106.31674011461301">
        <ele>249.15966796875</ele>
        <time>2026-08-30T11:38:45Z</time>
      </trkpt>
      <trkpt lat="29.603417449524255" lon="106.31692166722858">
        <ele>249.8541259765625</ele>
        <time>2026-08-30T11:39:03Z</time>
      </trkpt>
      <trkpt lat="29.603410315340916" lon="106.31699349126256">
        <ele>250.9521484375</ele>
        <time>2026-08-30T11:39:09Z</time>
      </trkpt>
      <trkpt lat="29.603431036217614" lon="106.31713713710867">
        <ele>251.96148681640625</ele>
        <time>2026-08-30T11:39:21Z</time>
      </trkpt>
      <trkpt lat="29.60342590891609" lon="106.31720497071605">
        <ele>252.6419677734375</ele>
        <time>2026-08-30T11:39:27Z</time>
      </trkpt>
      <trkpt lat="29.603398803455754" lon="106.31726482523258">
        <ele>252.992431640625</ele>
        <time>2026-08-30T11:39:33Z</time>
      </trkpt>
      <trkpt lat="29.60329592960502" lon="106.31721495403154">
        <ele>254.5440673828125</ele>
        <time>2026-08-30T11:39:45Z</time>
      </trkpt>
      <trkpt lat="29.603073974600953" lon="106.3172269379855">
        <ele>255.68408203125</ele>
        <time>2026-08-30T11:40:09Z</time>
      </trkpt>
      <trkpt lat="29.603022011317446" lon="106.31721596808734">
        <ele>256.80810546875</ele>
        <time>2026-08-30T11:40:15Z</time>
      </trkpt>
      <trkpt lat="29.603011685064587" lon="106.3168628361965">
        <ele>257.6483154296875</ele>
        <time>2026-08-30T11:40:45Z</time>
      </trkpt>
      <trkpt lat="29.602991317656073" lon="106.31653264770749">
        <ele>258.5823974609375</ele>
        <time>2026-08-30T11:41:21Z</time>
      </trkpt>
      <trkpt lat="29.602924496922288" lon="106.31644885723081">
        <ele>258.556396484375</ele>
        <time>2026-08-30T11:41:33Z</time>
      </trkpt>
      <trkpt lat="29.602879569263465" lon="106.31641793576196">
        <ele>257.248291015625</ele>
        <time>2026-08-30T11:41:39Z</time>
      </trkpt>
      <trkpt lat="29.60282260935819" lon="106.31640596854284">
        <ele>257.7080078125</ele>
        <time>2026-08-30T11:41:45Z</time>
      </trkpt>
      <trkpt lat="29.602755595810702" lon="106.31642392855548">
        <ele>258.05450439453125</ele>
        <time>2026-08-30T11:41:51Z</time>
      </trkpt>
      <trkpt lat="29.60265343038322" lon="106.31652768029757">
        <ele>258.242431640625</ele>
        <time>2026-08-30T11:42:03Z</time>
      </trkpt>
      <trkpt lat="29.6025811895253" lon="106.31666634448744">
        <ele>258.1881103515625</ele>
        <time>2026-08-30T11:42:15Z</time>
      </trkpt>
      <trkpt lat="29.602571940643198" lon="106.31679901942819">
        <ele>257.8497314453125</ele>
        <time>2026-08-30T11:42:27Z</time>
      </trkpt>
      <trkpt lat="29.602632456289847" lon="106.31704441316634">
        <ele>255.2164306640625</ele>
        <time>2026-08-30T11:42:51Z</time>
      </trkpt>
      <trkpt lat="29.60261706684865" lon="106.31725190422168">
        <ele>256.666259765625</ele>
        <time>2026-08-30T11:43:09Z</time>
      </trkpt>
      <trkpt lat="29.602563848042976" lon="106.31737560332061">
        <ele>259.672607421875</ele>
        <time>2026-08-30T11:43:21Z</time>
      </trkpt>
      <trkpt lat="29.602470686904713" lon="106.31747536360868">
        <ele>262.42236328125</ele>
        <time>2026-08-30T11:43:33Z</time>
      </trkpt>
      <trkpt lat="29.60216166962352" lon="106.31753423745842">
        <ele>264.1678466796875</ele>
        <time>2026-08-30T11:44:03Z</time>
      </trkpt>
      <trkpt lat="29.601991624992177" lon="106.31758512254403">
        <ele>263.9937744140625</ele>
        <time>2026-08-30T11:44:21Z</time>
      </trkpt>
      <trkpt lat="29.601952564869087" lon="106.31762303162807">
        <ele>263.990478515625</ele>
        <time>2026-08-30T11:44:27Z</time>
      </trkpt>
      <trkpt lat="29.601932459073996" lon="106.3176818880064">
        <ele>259.97735595703125</ele>
        <time>2026-08-30T11:44:36Z</time>
      </trkpt>
      <trkpt lat="29.601960761159553" lon="106.31804399469979">
        <ele>256.33447265625</ele>
        <time>2026-08-30T11:45:12Z</time>
      </trkpt>
      <trkpt lat="29.60192816303609" lon="106.31836320998248">
        <ele>254.47161865234375</ele>
        <time>2026-08-30T11:45:42Z</time>
      </trkpt>
      <trkpt lat="29.601920688002693" lon="106.3186135929408">
        <ele>253.42462158203125</ele>
        <time>2026-08-30T11:46:06Z</time>
      </trkpt>
      <trkpt lat="29.601936555674715" lon="106.3186804270922">
        <ele>253.422119140625</ele>
        <time>2026-08-30T11:46:12Z</time>
      </trkpt>
      <trkpt lat="29.60194184220071" lon="106.31905350586037">
        <ele>255.02056884765625</ele>
        <time>2026-08-30T11:46:42Z</time>
      </trkpt>
      <trkpt lat="29.60193548991165" lon="106.3192390479608">
        <ele>251.8646240234375</ele>
        <time>2026-08-30T11:47:00Z</time>
      </trkpt>
      <trkpt lat="29.60196921475436" lon="106.31937770332611">
        <ele>251.7633056640625</ele>
        <time>2026-08-30T11:47:15Z</time>
      </trkpt>
      <trkpt lat="29.601968517339717" lon="106.31974280079477">
        <ele>250.4171142578125</ele>
        <time>2026-08-30T11:47:45Z</time>
      </trkpt>
      <trkpt lat="29.60198097377077" lon="106.32002510170224">
        <ele>250.8338623046875</ele>
        <time>2026-08-30T11:48:09Z</time>
      </trkpt>
      <trkpt lat="29.602047911276873" lon="106.32004704335988">
        <ele>252.24755859375</ele>
        <time>2026-08-30T11:48:16Z</time>
      </trkpt>
      <trkpt lat="29.602253861520147" lon="106.32004004821277">
        <ele>255.9805908203125</ele>
        <time>2026-08-30T11:48:34Z</time>
      </trkpt>
      <trkpt lat="29.602249723511864" lon="106.32011286825866">
        <ele>258.4749755859375</ele>
        <time>2026-08-30T11:48:43Z</time>
      </trkpt>
      <trkpt lat="29.602190535560922" lon="106.32022060518287">
        <ele>266.73370361328125</ele>
        <time>2026-08-30T11:48:55Z</time>
      </trkpt>
      <trkpt lat="29.60220347625257" lon="106.3202495327935">
        <ele>267.281494140625</ele>
        <time>2026-08-30T11:48:58Z</time>
      </trkpt>
    </trkseg>
  </trk>
</gpx>