<?xml version="1.0" encoding="UTF-8"?>
<gpx xmlns="http://www.topografix.com/GPX/1/1" xmlns:gpxtpx="http://www.garmin.com/xmlschemas/TrackPointExtension/v1" xmlns:xsi="http://www.w3.org/2001/XMLSchema-instance" xsi:schemaLocation="http://www.topografix.com/GPX/1/1 http://www.topografix.com/GPX/1/1/gpx.xsd" version="1.1" creator="gpx.py -- https://github.com/tkrajina/gpxpy">
  <trk>
    <name>gpx from keep</name>
    <type>Walk</type>
    <trkseg>
      <trkpt lat="29.602422063718077" lon="106.31990736631813">
        <ele>259.045166015625</ele>
        <time>2026-08-25T23:08:10Z</time>
        <extensions>
          <gpxtpx:TrackPointExtension>
            <gpxtpx:hr>128</gpxtpx:hr>
          </gpxtpx:TrackPointExtension>
        </extensions>
      </trkpt>
      <trkpt lat="29.60245120165282" lon="106.31983055456384">
        <ele>255.00567626953125</ele>
        <time>2026-08-25T23:08:16Z</time>
        <extensions>
          <gpxtpx:TrackPointExtension>
            <gpxtpx:hr>128</gpxtpx:hr>
          </gpxtpx:TrackPointExtension>
        </extensions>
      </trkpt>
      <trkpt lat="29.602438548739435" lon="106.31965099937992">
        <ele>254.32708740234375</ele>
        <time>2026-08-25T23:08:28Z</time>
        <extensions>
          <gpxtpx:TrackPointExtension>
            <gpxtpx:hr>128</gpxtpx:hr>
          </gpxtpx:TrackPointExtension>
        </extensions>
      </trkpt>
      <trkpt lat="29.602456688065026" lon="106.31957518572678">
        <ele>255.660888671875</ele>
        <time>2026-08-25T23:08:34Z</time>
      </trkpt>
      <trkpt lat="29.60251174936313" lon="106.31953428351288">
        <ele>257.9957275390625</ele>
        <time>2026-08-25T23:08:40Z</time>
      </trkpt>
      <trkpt lat="29.602838719892322" lon="106.31949735502567">
        <ele>261.8997802734375</ele>
        <time>2026-08-25T23:09:10Z</time>
      </trkpt>
      <trkpt lat="29.60289280056039" lon="106.31944647751041">
        <ele>260.24072265625</ele>
        <time>2026-08-25T23:09:16Z</time>
      </trkpt>
      <trkpt lat="29.602915934501322" lon="106.31937265854762">
        <ele>258.0853271484375</ele>
        <time>2026-08-25T23:09:22Z</time>
      </trkpt>
      <trkpt lat="29.602914538739697" lon="106.31905643980716">
        <ele>254.24176025390625</ele>
        <time>2026-08-25T23:09:46Z</time>
      </trkpt>
      <trkpt lat="29.602897128434314" lon="106.31875019686494">
        <ele>254.8199462890625</ele>
        <time>2026-08-25T23:10:10Z</time>
      </trkpt>
      <trkpt lat="29.602936542522528" lon="106.31852674576243">
        <ele>248.63360595703125</ele>
        <time>2026-08-25T23:10:28Z</time>
      </trkpt>
      <trkpt lat="29.602927244941874" lon="106.31815965133491">
        <ele>255.2510986328125</ele>
        <time>2026-08-25T23:10:58Z</time>
      </trkpt>
      <trkpt lat="29.602937969074688" lon="106.31777759168598">
        <ele>253.40313720703125</ele>
        <time>2026-08-25T23:11:28Z</time>
      </trkpt>
      <trkpt lat="29.6029192632707" lon="106.31762596599799">
        <ele>254.91925048828125</ele>
        <time>2026-08-25T23:11:40Z</time>
      </trkpt>
      <trkpt lat="29.60293197816483" lon="106.31724789505179">
        <ele>254.14398193359375</ele>
        <time>2026-08-25T23:12:10Z</time>
      </trkpt>
      <trkpt lat="29.60295229032518" lon="106.31708030566817">
        <ele>251.17987060546875</ele>
        <time>2026-08-25T23:12:22Z</time>
      </trkpt>
      <trkpt lat="29.60292788482362" lon="106.31677106654355">
        <ele>252.3411865234375</ele>
        <time>2026-08-25T23:12:46Z</time>
      </trkpt>
      <trkpt lat="29.60293017743567" lon="106.31661644583897">
        <ele>250.82659912109375</ele>
        <time>2026-08-25T23:12:58Z</time>
      </trkpt>
      <trkpt lat="29.60291731945527" lon="106.31654362525121">
        <ele>249.91351318359375</ele>
        <time>2026-08-25T23:13:04Z</time>
      </trkpt>
      <trkpt lat="29.602884446757113" lon="106.316481778919">
        <ele>249.73248291015625</ele>
        <time>2026-08-25T23:13:10Z</time>
      </trkpt>
      <trkpt lat="29.6027127053427" lon="106.31637305586874">
        <ele>251.87139892578125</ele>
        <time>2026-08-25T23:13:28Z</time>
      </trkpt>
      <trkpt lat="29.602600663987836" lon="106.31641296479324">
        <ele>244.64288330078125</ele>
        <time>2026-08-25T23:13:40Z</time>
      </trkpt>
      <trkpt lat="29.602554577874" lon="106.31646583793213">
        <ele>244.81341552734375</ele>
        <time>2026-08-25T23:13:46Z</time>
      </trkpt>
      <trkpt lat="29.60251942598375" lon="106.31655162964834">
        <ele>247.900390625</ele>
        <time>2026-08-25T23:13:52Z</time>
      </trkpt>
      <trkpt lat="29.602502255303552" lon="106.31664440309163">
        <ele>250.50811767578125</ele>
        <time>2026-08-25T23:13:58Z</time>
      </trkpt>
      <trkpt lat="29.60250998420823" lon="106.31678605499427">
        <ele>248.46240234375</ele>
        <time>2026-08-25T23:14:07Z</time>
      </trkpt>
      <trkpt lat="29.602560298373522" lon="106.31713918467892">
        <ele>250.73895263671875</ele>
        <time>2026-08-25T23:14:31Z</time>
      </trkpt>
      <trkpt lat="29.602538978892934" lon="106.31731076424443">
        <ele>252.88739013671875</ele>
        <time>2026-08-25T23:14:43Z</time>
      </trkpt>
      <trkpt lat="29.602502861015342" lon="106.31737859963734">
        <ele>251.569091796875</ele>
        <time>2026-08-25T23:14:49Z</time>
      </trkpt>
      <trkpt lat="29.602381706555676" lon="106.31747935915699">
        <ele>248.42138671875</ele>
        <time>2026-08-25T23:15:01Z</time>
      </trkpt>
      <trkpt lat="29.60208671915197" lon="106.31752027633112">
        <ele>252.22698974609375</ele>
        <time>2026-08-25T23:15:25Z</time>
      </trkpt>
      <trkpt lat="29.602013730145952" lon="106.3175262660066">
        <ele>255.8294677734375</ele>
        <time>2026-08-25T23:15:32Z</time>
      </trkpt>
      <trkpt lat="29.601943694710222" lon="106.31755619660612">
        <ele>255.6177978515625</ele>
        <time>2026-08-25T23:15:37Z</time>
      </trkpt>
      <trkpt lat="29.60188146712386" lon="106.31768588125982">
        <ele>256.971435546875</ele>
        <time>2026-08-25T23:15:49Z</time>
      </trkpt>
      <trkpt lat="29.601857885790203" lon="106.31799512130512">
        <ele>248.56146240234375</ele>
        <time>2026-08-25T23:16:13Z</time>
      </trkpt>
      <trkpt lat="29.6018336063782" lon="106.31814575167981">
        <ele>254.724365234375</ele>
        <time>2026-08-25T23:16:25Z</time>
      </trkpt>
      <trkpt lat="29.601850308581252" lon="106.31829937206362">
        <ele>257.79833984375</ele>
        <time>2026-08-25T23:16:37Z</time>
      </trkpt>
      <trkpt lat="29.60188403587549" lon="106.31843703063278">
        <ele>255.41064453125</ele>
        <time>2026-08-25T23:16:49Z</time>
      </trkpt>
      <trkpt lat="29.60187143104444" lon="106.31875624394623">
        <ele>252.41278076171875</ele>
        <time>2026-08-25T23:17:13Z</time>
      </trkpt>
      <trkpt lat="29.601877842789854" lon="106.31906348508602">
        <ele>253.44720458984375</ele>
        <time>2026-08-25T23:17:37Z</time>
      </trkpt>
      <trkpt lat="29.601891709043414" lon="106.31913131672363">
        <ele>252.58837890625</ele>
        <time>2026-08-25T23:17:43Z</time>
      </trkpt>
      <trkpt lat="29.60188156550113" lon="106.31920812760649">
        <ele>252.40228271484375</ele>
        <time>2026-08-25T23:17:49Z</time>
      </trkpt>
      <trkpt lat="29.601921280899735" lon="106.31935077277356">
        <ele>252.50469970703125</ele>
        <time>2026-08-25T23:18:02Z</time>
      </trkpt>
      <trkpt lat="29.60191668957654" lon="106.31966100619537">
        <ele>255.758056640625</ele>
        <time>2026-08-25T23:18:26Z</time>
      </trkpt>
      <trkpt lat="29.601903535362844" lon="106.31974380224791">
        <ele>256.885009765625</ele>
        <time>2026-08-25T23:18:32Z</time>
      </trkpt>
      <trkpt lat="29.601864404350184" lon="106.31981861957281">
        <ele>258.3330078125</ele>
        <time>2026-08-25T23:18:38Z</time>
      </trkpt>
      <trkpt lat="29.60188314875106" lon="106.31994929518167">
        <ele>253.480224609375</ele>
        <time>2026-08-25T23:18:50Z</time>
      </trkpt>
      <trkpt lat="29.601928031975767" lon="106.32000315919788">
        <ele>253.3555908203125</ele>
        <time>2026-08-25T23:18:56Z</time>
      </trkpt>
      <trkpt lat="29.60214499788852" lon="106.3199861880665">
        <ele>252.87945556640625</ele>
        <time>2026-08-25T23:19:14Z</time>
      </trkpt>
      <trkpt lat="29.602199937178966" lon="106.32000912798372">
        <ele>254.7257080078125</ele>
        <time>2026-08-25T23:19:20Z</time>
      </trkpt>
      <trkpt lat="29.602231645094406" lon="106.32015676072177">
        <ele>251.30322265625</ele>
        <time>2026-08-25T23:19:32Z</time>
      </trkpt>
      <trkpt lat="29.6022335777152" lon="106.32019167419055">
        <ele>250.757080078125</ele>
        <time>2026-08-25T23:19:35Z</time>
      </trkpt>
    </trkseg>
  </trk>
</gpx>