<?xml version="1.0" encoding="UTF-8"?>
<gpx xmlns="http://www.topografix.com/GPX/1/1" xmlns:gpxtpx="http://www.garmin.com/xmlschemas/TrackPointExtension/v1" xmlns:xsi="http://www.w3.org/2001/XMLSchema-instance" xsi:schemaLocation="http://www.topografix.com/GPX/1/1 http://www.topografix.com/GPX/1/1/gpx.xsd" version="1.1" creator="gpx.py -- https://github.com/tkrajina/gpxpy">
  <trk>
    <name>gpx from keep</name>
    <type>Walk</type>
    <trkseg>
      <trkpt lat="29.57203890983476" lon="106.56592609331004">
        <ele>158.65692138671875</ele>
        <time>2026-10-09T00:04:54Z</time>
      </trkpt>
      <trkpt lat="29.57224407248804" lon="106.5661132494632">
        <ele>159.1214599609375</ele>
        <time>2026-10-09T00:05:18Z</time>
      </trkpt>
      <trkpt lat="29.57250316451693" lon="106.5662593643464">
        <ele>158.85675048828125</ele>
        <time>2026-10-09T00:05:48Z</time>
      </trkpt>
      <trkpt lat="29.57262018366876" lon="106.56630740001253">
        <ele>160.71514892578125</ele>
        <time>2026-10-09T00:06:00Z</time>
      </trkpt>
      <trkpt lat="29.57267617310684" lon="106.56631440292036">
        <ele>160.67724609375</ele>
        <time>2026-10-09T00:06:06Z</time>
      </trkpt>
      <trkpt lat="29.57282201930512" lon="106.56623031988575">
        <ele>163.4984130859375</ele>
        <time>2026-10-09T00:06:30Z</time>
      </trkpt>
      <trkpt lat="29.573039035187016" lon="106.56630337189793">
        <ele>167.85870361328125</ele>
        <time>2026-10-09T00:07:00Z</time>
      </trkpt>
      <trkpt lat="29.573106017188955" lon="106.56630737150783">
        <ele>168.14398193359375</ele>
        <time>2026-10-09T00:07:06Z</time>
      </trkpt>
      <trkpt lat="29.57320390831005" lon="106.5662463116931">
        <ele>170.46746826171875</ele>
        <time>2026-10-09T00:07:18Z</time>
      </trkpt>
      <trkpt lat="29.5733129303255" lon="106.56629434786014">
        <ele>172.60498046875</ele>
        <time>2026-10-09T00:07:30Z</time>
      </trkpt>
      <trkpt lat="29.573417890719007" lon="106.566291339045">
        <ele>173.46697998046875</ele>
        <time>2026-10-09T00:07:42Z</time>
      </trkpt>
      <trkpt lat="29.573413785757428" lon="106.56620526293001">
        <ele>174.579833984375</ele>
        <time>2026-10-09T00:07:48Z</time>
      </trkpt>
      <trkpt lat="29.573435840094763" lon="106.56625530607451">
        <ele>180.30389404296875</ele>
        <time>2026-10-09T00:08:06Z</time>
      </trkpt>
      <trkpt lat="29.573738837783722" lon="106.56633736090173">
        <ele>185.59930419921875</ele>
        <time>2026-10-09T00:08:36Z</time>
      </trkpt>
      <trkpt lat="29.573932757999987" lon="106.56632633980375">
        <ele>189.767333984375</ele>
        <time>2026-10-09T00:08:54Z</time>
      </trkpt>
      <trkpt lat="29.574079738662515" lon="106.56635135326177">
        <ele>192.1600341796875</ele>
        <time>2026-10-09T00:09:06Z</time>
      </trkpt>
      <trkpt lat="29.57415670870871" lon="106.56634834609744">
        <ele>189.15087890625</ele>
        <time>2026-10-09T00:09:12Z</time>
      </trkpt>
      <trkpt lat="29.57424762836963" lon="106.5663083054103">
        <ele>184.220947265625</ele>
        <time>2026-10-09T00:09:18Z</time>
      </trkpt>
      <trkpt lat="29.574512447905246" lon="106.56623522514461">
        <ele>175.15869140625</ele>
        <time>2026-10-09T00:09:48Z</time>
      </trkpt>
      <trkpt lat="29.574620485274142" lon="106.56629527202581">
        <ele>190.2562255859375</ele>
        <time>2026-10-09T00:10:03Z</time>
      </trkpt>
      <trkpt lat="29.574610663517046" lon="106.56643739783036">
        <ele>192.46563720703125</ele>
        <time>2026-10-09T00:10:15Z</time>
      </trkpt>
      <trkpt lat="29.57477772928635" lon="106.56653747560344">
        <ele>200.148681640625</ele>
        <time>2026-10-09T00:10:33Z</time>
      </trkpt>
      <trkpt lat="29.575074735828743" lon="106.56662553482387">
        <ele>202.538330078125</ele>
        <time>2026-10-09T00:11:09Z</time>
      </trkpt>
      <trkpt lat="29.575111762273362" lon="106.56665756042565">
        <ele>206.168212890625</ele>
        <time>2026-10-09T00:11:15Z</time>
      </trkpt>
      <trkpt lat="29.575163689724196" lon="106.56661251830641">
        <ele>211.9576416015625</ele>
        <time>2026-10-09T00:11:21Z</time>
      </trkpt>
      <trkpt lat="29.575261304343332" lon="106.56632526096679">
        <ele>209.4139404296875</ele>
        <time>2026-10-09T00:11:30Z</time>
      </trkpt>
      <trkpt lat="29.575298339834138" lon="106.56636429323004">
        <ele>202.8380126953125</ele>
        <time>2026-10-09T00:11:39Z</time>
      </trkpt>
      <trkpt lat="29.575293420249167" lon="106.56642834986263">
        <ele>201.7548828125</ele>
        <time>2026-10-09T00:11:45Z</time>
      </trkpt>
      <trkpt lat="29.575264519666778" lon="106.56650141557218">
        <ele>199.9918212890625</ele>
        <time>2026-10-09T00:11:51Z</time>
      </trkpt>
      <trkpt lat="29.575261619799917" lon="106.566582486455">
        <ele>199.94183349609375</ele>
        <time>2026-10-09T00:11:57Z</time>
      </trkpt>
      <trkpt lat="29.575434589157297" lon="106.56660549632426">
        <ele>198.6683349609375</ele>
        <time>2026-10-09T00:12:15Z</time>
      </trkpt>
      <trkpt lat="29.57552550207102" lon="106.56655945092652">
        <ele>199.3970947265625</ele>
        <time>2026-10-09T00:12:27Z</time>
      </trkpt>
      <trkpt lat="29.575574483001624" lon="106.56655744630821">
        <ele>199.4000244140625</ele>
        <time>2026-10-09T00:12:33Z</time>
      </trkpt>
      <trkpt lat="29.575672505973447" lon="106.56660348062472">
        <ele>199.39984130859375</ele>
        <time>2026-10-09T00:12:42Z</time>
      </trkpt>
      <trkpt lat="29.575738497023014" lon="106.56661448631826">
        <ele>199.4022216796875</ele>
        <time>2026-10-09T00:12:48Z</time>
      </trkpt>
      <trkpt lat="29.575750424539688" lon="106.56655843685684">
        <ele>236.5361328125</ele>
        <time>2026-10-09T00:12:54Z</time>
      </trkpt>
      <trkpt lat="29.575711309116272" lon="106.56645334729535">
        <ele>222.46624755859375</ele>
        <time>2026-10-09T00:13:03Z</time>
      </trkpt>
      <trkpt lat="29.575749253244545" lon="106.56641831432577">
        <ele>225.0125732421875</ele>
        <time>2026-10-09T00:13:18Z</time>
      </trkpt>
      <trkpt lat="29.576029091939926" lon="106.56636425035134">
        <ele>222.92578125</ele>
        <time>2026-10-09T00:13:48Z</time>
      </trkpt>
      <trkpt lat="29.576259947184163" lon="106.56631018910302">
        <ele>219.95111083984375</ele>
        <time>2026-10-09T00:14:12Z</time>
      </trkpt>
      <trkpt lat="29.57649585131758" lon="106.56629716375437">
        <ele>212.8389892578125</ele>
        <time>2026-10-09T00:14:30Z</time>
      </trkpt>
      <trkpt lat="29.576635834838818" lon="106.56632217765933">
        <ele>214.5704345703125</ele>
        <time>2026-10-09T00:14:43Z</time>
      </trkpt>
      <trkpt lat="29.576886752524373" lon="106.56632416470359">
        <ele>219.05596923828125</ele>
        <time>2026-10-09T00:15:07Z</time>
      </trkpt>
      <trkpt lat="29.576942754575793" lon="106.56634117643864">
        <ele>220.0084228515625</ele>
        <time>2026-10-09T00:15:13Z</time>
      </trkpt>
      <trkpt lat="29.57697081283807" lon="106.5663962232901">
        <ele>221.59619140625</ele>
        <time>2026-10-09T00:15:19Z</time>
      </trkpt>
      <trkpt lat="29.577076828688092" lon="106.56643825400063">
        <ele>223.84234619140625</ele>
        <time>2026-10-09T00:15:31Z</time>
      </trkpt>
      <trkpt lat="29.5773506945089" lon="106.56640420803993">
        <ele>226.661376953125</ele>
        <time>2026-10-09T00:15:55Z</time>
      </trkpt>
      <trkpt lat="29.577485650247876" lon="106.56640520100053">
        <ele>224.7379150390625</ele>
        <time>2026-10-09T00:16:07Z</time>
      </trkpt>
      <trkpt lat="29.57767565750341" lon="106.56646324080165">
        <ele>220.72027587890625</ele>
        <time>2026-10-09T00:16:25Z</time>
      </trkpt>
      <trkpt lat="29.57788256452094" lon="106.56644421198797">
        <ele>223.189208984375</ele>
        <time>2026-10-09T00:16:43Z</time>
      </trkpt>
      <trkpt lat="29.577959495619854" lon="106.56640917671382">
        <ele>220.7806396484375</ele>
        <time>2026-10-09T00:16:49Z</time>
      </trkpt>
      <trkpt lat="29.57808834265913" lon="106.5663200906555">
        <ele>221.563232421875</ele>
        <time>2026-10-09T00:17:01Z</time>
      </trkpt>
      <trkpt lat="29.57821035218523" lon="106.56636111970714">
        <ele>227.449951171875</ele>
        <time>2026-10-09T00:17:22Z</time>
      </trkpt>
      <trkpt lat="29.578272316574928" lon="106.56634910548118">
        <ele>231.5040283203125</ele>
        <time>2026-10-09T00:17:28Z</time>
      </trkpt>
      <trkpt lat="29.578563286567494" lon="106.56640413688228">
        <ele>246.703125</ele>
        <time>2026-10-09T00:17:52Z</time>
      </trkpt>
      <trkpt lat="29.578663138475942" lon="106.56631104896395">
        <ele>245.98193359375</ele>
        <time>2026-10-09T00:18:04Z</time>
      </trkpt>
      <trkpt lat="29.57877110102153" lon="106.56631004174348">
        <ele>240.455322265625</ele>
        <time>2026-10-09T00:18:13Z</time>
      </trkpt>
    </trkseg>
  </trk>
</gpx>