<?xml version="1.0" encoding="UTF-8"?>
<gpx xmlns="http://www.topografix.com/GPX/1/1" xmlns:gpxtpx="http://www.garmin.com/xmlschemas/TrackPointExtension/v1" xmlns:xsi="http://www.w3.org/2001/XMLSchema-instance" xsi:schemaLocation="http://www.topografix.com/GPX/1/1 http://www.topografix.com/GPX/1/1/gpx.xsd" version="1.1" creator="gpx.py -- https://github.com/tkrajina/gpxpy">
  <trk>
    <name>gpx from keep</name>
    <type>Walk</type>
    <trkseg>
      <trkpt lat="29.6024393311445" lon="106.31976471811761">
        <ele>258.49822998046875</ele>
        <time>2026-10-03T23:13:08Z</time>
      </trkpt>
      <trkpt lat="29.602427626430508" lon="106.31961209622925">
        <ele>258.2833251953125</ele>
        <time>2026-10-03T23:13:20Z</time>
      </trkpt>
      <trkpt lat="29.602467732337303" lon="106.31955024671248">
        <ele>256.980224609375</ele>
        <time>2026-10-03T23:13:26Z</time>
      </trkpt>
      <trkpt lat="29.60253576679167" lon="106.31952131412083">
        <ele>255.53118896484375</ele>
        <time>2026-10-03T23:13:32Z</time>
      </trkpt>
      <trkpt lat="29.602811670981765" lon="106.31952728268237">
        <ele>255.1744384765625</ele>
        <time>2026-10-03T23:13:56Z</time>
      </trkpt>
      <trkpt lat="29.60287868099835" lon="106.31951131809404">
        <ele>255.565185546875</ele>
        <time>2026-10-03T23:14:02Z</time>
      </trkpt>
      <trkpt lat="29.602921805038285" lon="106.31943949301919">
        <ele>254.94537353515625</ele>
        <time>2026-10-03T23:14:08Z</time>
      </trkpt>
      <trkpt lat="29.60293040059413" lon="106.3191262663976">
        <ele>249.5831298828125</ele>
        <time>2026-10-03T23:14:32Z</time>
      </trkpt>
      <trkpt lat="29.602928103747672" lon="106.31875817530326">
        <ele>249.44024658203125</ele>
        <time>2026-10-03T23:15:02Z</time>
      </trkpt>
      <trkpt lat="29.6029248009198" lon="106.31839307610839">
        <ele>252.84130859375</ele>
        <time>2026-10-03T23:15:32Z</time>
      </trkpt>
      <trkpt lat="29.602936472008615" lon="106.31803894816693">
        <ele>252.4200439453125</ele>
        <time>2026-10-03T23:16:02Z</time>
      </trkpt>
      <trkpt lat="29.602950010953567" lon="106.31775364989423">
        <ele>251.5245361328125</ele>
        <time>2026-10-03T23:16:26Z</time>
      </trkpt>
      <trkpt lat="29.602936129075285" lon="106.31769379804955">
        <ele>251.905517578125</ele>
        <time>2026-10-03T23:16:32Z</time>
      </trkpt>
      <trkpt lat="29.60296177000684" lon="106.31735263575428">
        <ele>250.4898681640625</ele>
        <time>2026-10-03T23:17:02Z</time>
      </trkpt>
      <trkpt lat="29.60298102194103" lon="106.31721696810574">
        <ele>250.6593017578125</ele>
        <time>2026-10-03T23:17:14Z</time>
      </trkpt>
      <trkpt lat="29.60297615987531" lon="106.31714514491067">
        <ele>250.63720703125</ele>
        <time>2026-10-03T23:17:20Z</time>
      </trkpt>
      <trkpt lat="29.60290758053086" lon="106.31693466610562">
        <ele>251.27508544921875</ele>
        <time>2026-10-03T23:17:38Z</time>
      </trkpt>
      <trkpt lat="29.602905857482202" lon="106.31678902379578">
        <ele>250.38360595703125</ele>
        <time>2026-10-03T23:17:50Z</time>
      </trkpt>
      <trkpt lat="29.60292728992835" lon="106.31655759039442">
        <ele>250.609130859375</ele>
        <time>2026-10-03T23:18:08Z</time>
      </trkpt>
      <trkpt lat="29.602904408508778" lon="106.31649873612766">
        <ele>251.023681640625</ele>
        <time>2026-10-03T23:18:14Z</time>
      </trkpt>
      <trkpt lat="29.60280059339962" lon="106.31641794051977">
        <ele>251.865966796875</ele>
        <time>2026-10-03T23:18:26Z</time>
      </trkpt>
      <trkpt lat="29.602677642334157" lon="106.3164119626016">
        <ele>249.01654052734375</ele>
        <time>2026-10-03T23:18:38Z</time>
      </trkpt>
      <trkpt lat="29.60261459922122" lon="106.31644488568462">
        <ele>248.8299560546875</ele>
        <time>2026-10-03T23:18:44Z</time>
      </trkpt>
      <trkpt lat="29.60253545134324" lon="106.31653566783167">
        <ele>248.62152099609375</ele>
        <time>2026-10-03T23:18:56Z</time>
      </trkpt>
      <trkpt lat="29.602510209350832" lon="106.31666734631621">
        <ele>251.7681884765625</ele>
        <time>2026-10-03T23:19:08Z</time>
      </trkpt>
      <trkpt lat="29.60258749656316" lon="106.31703045018267">
        <ele>252.79443359375</ele>
        <time>2026-10-03T23:19:39Z</time>
      </trkpt>
      <trkpt lat="29.602579220574444" lon="106.3171770903862">
        <ele>251.99420166015625</ele>
        <time>2026-10-03T23:19:51Z</time>
      </trkpt>
      <trkpt lat="29.602491841632695" lon="106.31739057086568">
        <ele>250.96270751953125</ele>
        <time>2026-10-03T23:20:09Z</time>
      </trkpt>
      <trkpt lat="29.602393706675223" lon="106.31747736334101">
        <ele>250.657470703125</ele>
        <time>2026-10-03T23:20:21Z</time>
      </trkpt>
      <trkpt lat="29.602082644518287" lon="106.31756017841485">
        <ele>251.2703857421875</ele>
        <time>2026-10-03T23:20:51Z</time>
      </trkpt>
      <trkpt lat="29.6019456770277" lon="106.31756517439901">
        <ele>249.7550048828125</ele>
        <time>2026-10-03T23:21:03Z</time>
      </trkpt>
      <trkpt lat="29.60187563590126" lon="106.31759809762775">
        <ele>250.1676025390625</ele>
        <time>2026-10-03T23:21:09Z</time>
      </trkpt>
      <trkpt lat="29.60183353686344" lon="106.31765695534172">
        <ele>249.8304443359375</ele>
        <time>2026-10-03T23:21:15Z</time>
      </trkpt>
      <trkpt lat="29.60181742414169" lon="106.3177188041004">
        <ele>250.6480712890625</ele>
        <time>2026-10-03T23:21:21Z</time>
      </trkpt>
      <trkpt lat="29.601855152493236" lon="106.31785546539513">
        <ele>252.04180908203125</ele>
        <time>2026-10-03T23:21:33Z</time>
      </trkpt>
      <trkpt lat="29.601868456965494" lon="106.31821857012656">
        <ele>251.90087890625</ele>
        <time>2026-10-03T23:22:03Z</time>
      </trkpt>
      <trkpt lat="29.60187290807719" lon="106.31850586156177">
        <ele>252.0828857421875</ele>
        <time>2026-10-03T23:22:27Z</time>
      </trkpt>
      <trkpt lat="29.601857227962288" lon="106.3188649764429">
        <ele>253.30047607421875</ele>
        <time>2026-10-03T23:22:57Z</time>
      </trkpt>
      <trkpt lat="29.60187550640589" lon="106.31924004911421">
        <ele>252.93865966796875</ele>
        <time>2026-10-03T23:23:27Z</time>
      </trkpt>
      <trkpt lat="29.601898377470018" lon="106.319303890003">
        <ele>252.85235595703125</ele>
        <time>2026-10-03T23:23:33Z</time>
      </trkpt>
      <trkpt lat="29.601880106791356" lon="106.31944853366464">
        <ele>252.2098388671875</ele>
        <time>2026-10-03T23:23:45Z</time>
      </trkpt>
      <trkpt lat="29.601935380671744" lon="106.31981961282364">
        <ele>248.02447509765625</ele>
        <time>2026-10-03T23:24:15Z</time>
      </trkpt>
      <trkpt lat="29.601924094226494" lon="106.31997123841542">
        <ele>249.131591796875</ele>
        <time>2026-10-03T23:24:27Z</time>
      </trkpt>
      <trkpt lat="29.601986073311505" lon="106.31997223220804">
        <ele>249.2559814453125</ele>
        <time>2026-10-03T23:24:36Z</time>
      </trkpt>
      <trkpt lat="29.60202917263591" lon="106.319913375215">
        <ele>250.88653564453125</ele>
        <time>2026-10-03T23:24:42Z</time>
      </trkpt>
      <trkpt lat="29.602150200387047" lon="106.3198794518152">
        <ele>251.47900390625</ele>
        <time>2026-10-03T23:24:54Z</time>
      </trkpt>
      <trkpt lat="29.602356116332" lon="106.31989041224806">
        <ele>251.6904296875</ele>
        <time>2026-10-03T23:25:12Z</time>
      </trkpt>
      <trkpt lat="29.602411141444588" lon="106.31986846321618">
        <ele>251.3331298828125</ele>
        <time>2026-10-03T23:25:18Z</time>
      </trkpt>
      <trkpt lat="29.60244824641879" lon="106.31980761149096">
        <ele>252.70855712890625</ele>
        <time>2026-10-03T23:25:24Z</time>
      </trkpt>
      <trkpt lat="29.6024566709148" lon="106.31958416353233">
        <ele>246.12518310546875</ele>
        <time>2026-10-03T23:25:42Z</time>
      </trkpt>
      <trkpt lat="29.602479789639048" lon="106.31951832489507">
        <ele>248.37890625</ele>
        <time>2026-10-03T23:25:48Z</time>
      </trkpt>
      <trkpt lat="29.602531851847697" lon="106.31947742285035">
        <ele>247.7548828125</ele>
        <time>2026-10-03T23:25:54Z</time>
      </trkpt>
      <trkpt lat="29.602719904857615" lon="106.31941955450597">
        <ele>246.80126953125</ele>
        <time>2026-10-03T23:26:12Z</time>
      </trkpt>
      <trkpt lat="29.602873899708886" lon="106.31939759945364">
        <ele>245.59210205078125</ele>
        <time>2026-10-03T23:26:24Z</time>
      </trkpt>
      <trkpt lat="29.60291298684596" lon="106.31934572528161">
        <ele>246.14825439453125</ele>
        <time>2026-10-03T23:26:30Z</time>
      </trkpt>
      <trkpt lat="29.602914135095585" lon="106.31926791746436">
        <ele>244.3201904296875</ele>
        <time>2026-10-03T23:26:39Z</time>
      </trkpt>
      <trkpt lat="29.6028562556443" lon="106.31921405403403">
        <ele>247.1236572265625</ele>
        <time>2026-10-03T23:26:45Z</time>
      </trkpt>
      <trkpt lat="29.602820386599024" lon="106.31915121143611">
        <ele>250.38739013671875</ele>
        <time>2026-10-03T23:26:51Z</time>
      </trkpt>
      <trkpt lat="29.602877721344875" lon="106.31896666371321">
        <ele>250.74383544921875</ele>
        <time>2026-10-03T23:27:03Z</time>
      </trkpt>
      <trkpt lat="29.602900024788983" lon="106.31880406375028">
        <ele>250.85345458984375</ele>
        <time>2026-10-03T23:27:15Z</time>
      </trkpt>
      <trkpt lat="29.60292437695498" lon="106.31861552749812">
        <ele>251.90692138671875</ele>
        <time>2026-10-03T23:27:33Z</time>
      </trkpt>
      <trkpt lat="29.602913051634744" lon="106.31826339651067">
        <ele>255.40478515625</ele>
        <time>2026-10-03T23:28:03Z</time>
      </trkpt>
      <trkpt lat="29.602941590109527" lon="106.31797610266003">
        <ele>249.15533447265625</ele>
        <time>2026-10-03T23:28:27Z</time>
      </trkpt>
      <trkpt lat="29.60310272510726" lon="106.31787933124195">
        <ele>230.463623046875</ele>
        <time>2026-10-03T23:28:45Z</time>
      </trkpt>
      <trkpt lat="29.603132835529852" lon="106.31781648416344">
        <ele>226.10797119140625</ele>
        <time>2026-10-03T23:28:51Z</time>
      </trkpt>
      <trkpt lat="29.60314611998623" lon="106.3176648565875">
        <ele>223.5419921875</ele>
        <time>2026-10-03T23:29:03Z</time>
      </trkpt>
      <trkpt lat="29.603059846224873" lon="106.31729676718768">
        <ele>230.1209716796875</ele>
        <time>2026-10-03T23:29:27Z</time>
      </trkpt>
      <trkpt lat="29.60297047609253" lon="106.31697955206893">
        <ele>239.830078125</ele>
        <time>2026-10-03T23:29:51Z</time>
      </trkpt>
      <trkpt lat="29.602953905265828" lon="106.31675610170306">
        <ele>241.921875</ele>
        <time>2026-10-03T23:30:09Z</time>
      </trkpt>
      <trkpt lat="29.602812408255073" lon="106.31651370497254">
        <ele>247.1170654296875</ele>
        <time>2026-10-03T23:30:33Z</time>
      </trkpt>
      <trkpt lat="29.602672545571117" lon="106.31646383571761">
        <ele>244.5478515625</ele>
        <time>2026-10-03T23:30:51Z</time>
      </trkpt>
      <trkpt lat="29.602566479676437" lon="106.31651571489557">
        <ele>248.1427001953125</ele>
        <time>2026-10-03T23:31:03Z</time>
      </trkpt>
      <trkpt lat="29.602511314965472" lon="106.31661148331155">
        <ele>250.1087646484375</ele>
        <time>2026-10-03T23:31:15Z</time>
      </trkpt>
      <trkpt lat="29.602553789061194" lon="106.31688181725046">
        <ele>253.02362060546875</ele>
        <time>2026-10-03T23:31:39Z</time>
      </trkpt>
      <trkpt lat="29.602597501079764" lon="106.3170264593816">
        <ele>253.594482421875</ele>
        <time>2026-10-03T23:31:51Z</time>
      </trkpt>
      <trkpt lat="29.602536926435313" lon="106.31733869569635">
        <ele>250.23895263671875</ele>
        <time>2026-10-03T23:32:15Z</time>
      </trkpt>
      <trkpt lat="29.60250681619083" lon="106.31740154297952">
        <ele>251.844482421875</ele>
        <time>2026-10-03T23:32:21Z</time>
      </trkpt>
      <trkpt lat="29.60239564917613" lon="106.31750728961217">
        <ele>247.7198486328125</ele>
        <time>2026-10-03T23:32:33Z</time>
      </trkpt>
      <trkpt lat="29.602325602332265" lon="106.31754320549172">
        <ele>246.54443359375</ele>
        <time>2026-10-03T23:32:39Z</time>
      </trkpt>
      <trkpt lat="29.60211760344782" lon="106.31757613704004">
        <ele>247.88818359375</ele>
        <time>2026-10-03T23:32:57Z</time>
      </trkpt>
      <trkpt lat="29.60198466886457" lon="106.31756317695735">
        <ele>247.6707763671875</ele>
        <time>2026-10-03T23:33:09Z</time>
      </trkpt>
      <trkpt lat="29.601939608688955" lon="106.31760208395421">
        <ele>249.77716064453125</ele>
        <time>2026-10-03T23:33:15Z</time>
      </trkpt>
      <trkpt lat="29.601875036261063" lon="106.31791332172867">
        <ele>250.93988037109375</ele>
        <time>2026-10-03T23:33:45Z</time>
      </trkpt>
      <trkpt lat="29.601883440966002" lon="106.31822455447222">
        <ele>252.87060546875</ele>
        <time>2026-10-03T23:34:09Z</time>
      </trkpt>
      <trkpt lat="29.601918922488483" lon="106.31849089569023">
        <ele>252.6021728515625</ele>
        <time>2026-10-03T23:34:33Z</time>
      </trkpt>
      <trkpt lat="29.601891807185076" lon="106.31855573740306">
        <ele>251.66510009765625</ele>
        <time>2026-10-03T23:34:39Z</time>
      </trkpt>
      <trkpt lat="29.601887136939155" lon="106.31890786875401">
        <ele>253.39044189453125</ele>
        <time>2026-10-03T23:35:09Z</time>
      </trkpt>
      <trkpt lat="29.6018894773564" lon="106.31925301623406">
        <ele>252.06787109375</ele>
        <time>2026-10-03T23:35:39Z</time>
      </trkpt>
      <trkpt lat="29.601918361814498" lon="106.31930887647394">
        <ele>252.40264892578125</ele>
        <time>2026-10-03T23:35:45Z</time>
      </trkpt>
      <trkpt lat="29.601899856775752" lon="106.31957621685">
        <ele>253.1717529296875</ele>
        <time>2026-10-03T23:36:09Z</time>
      </trkpt>
      <trkpt lat="29.601928256985673" lon="106.3198854503992">
        <ele>252.851806640625</ele>
        <time>2026-10-03T23:36:33Z</time>
      </trkpt>
      <trkpt lat="29.601923113602492" lon="106.31996126315484">
        <ele>252.5162353515625</ele>
        <time>2026-10-03T23:36:39Z</time>
      </trkpt>
      <trkpt lat="29.601946991822675" lon="106.32002111362564">
        <ele>251.632080078125</ele>
        <time>2026-10-03T23:36:45Z</time>
      </trkpt>
      <trkpt lat="29.602166991149062" lon="106.31998618673958">
        <ele>254.64111328125</ele>
        <time>2026-10-03T23:37:03Z</time>
      </trkpt>
      <trkpt lat="29.602209892159564" lon="106.32003107308084">
        <ele>252.222412109375</ele>
        <time>2026-10-03T23:37:09Z</time>
      </trkpt>
      <trkpt lat="29.602197623078464" lon="106.32017372080246">
        <ele>249.225830078125</ele>
        <time>2026-10-03T23:37:21Z</time>
      </trkpt>
    </trkseg>
  </trk>
</gpx>