<?xml version="1.0" encoding="UTF-8"?>
<gpx xmlns="http://www.topografix.com/GPX/1/1" xmlns:gpxtpx="http://www.garmin.com/xmlschemas/TrackPointExtension/v1" xmlns:xsi="http://www.w3.org/2001/XMLSchema-instance" xsi:schemaLocation="http://www.topografix.com/GPX/1/1 http://www.topografix.com/GPX/1/1/gpx.xsd" version="1.1" creator="gpx.py -- https://github.com/tkrajina/gpxpy">
  <trk>
    <name>gpx from keep</name>
    <type>Walk</type>
    <trkseg>
      <trkpt lat="29.60257581362189" lon="106.31949038814471">
        <ele>260.7535400390625</ele>
        <time>2026-09-17T22:37:48Z</time>
      </trkpt>
      <trkpt lat="29.602691713372575" lon="106.3195242973162">
        <ele>261.627197265625</ele>
        <time>2026-09-17T22:37:57Z</time>
      </trkpt>
      <trkpt lat="29.602874775576872" lon="106.31946243914909">
        <ele>255.176513671875</ele>
        <time>2026-09-17T22:38:15Z</time>
      </trkpt>
      <trkpt lat="29.602911874767297" lon="106.31940457990616">
        <ele>253.69921875</ele>
        <time>2026-09-17T22:38:21Z</time>
      </trkpt>
      <trkpt lat="29.602912476530967" lon="106.31908935863565">
        <ele>255.69842529296875</ele>
        <time>2026-09-17T22:38:45Z</time>
      </trkpt>
      <trkpt lat="29.602925163633373" lon="106.31872725179184">
        <ele>255.05291748046875</ele>
        <time>2026-09-17T22:39:15Z</time>
      </trkpt>
      <trkpt lat="29.60293926397069" lon="106.31867238631888">
        <ele>257.17071533203125</ele>
        <time>2026-09-17T22:39:21Z</time>
      </trkpt>
      <trkpt lat="29.602913631298396" lon="106.31848385293499">
        <ele>248.89251708984375</ele>
        <time>2026-09-17T22:39:33Z</time>
      </trkpt>
      <trkpt lat="29.60291090022417" lon="106.31834319991795">
        <ele>247.95751953125</ele>
        <time>2026-09-17T22:39:45Z</time>
      </trkpt>
      <trkpt lat="29.602929029647093" lon="106.31827237341804">
        <ele>250.12310791015625</ele>
        <time>2026-09-17T22:39:51Z</time>
      </trkpt>
      <trkpt lat="29.60291532648613" lon="106.31811875283172">
        <ele>251.98114013671875</ele>
        <time>2026-09-17T22:40:03Z</time>
      </trkpt>
      <trkpt lat="29.602932494119038" lon="106.31802797543742">
        <ele>251.4539794921875</ele>
        <time>2026-09-17T22:40:09Z</time>
      </trkpt>
      <trkpt lat="29.602921662669242" lon="106.31794118985118">
        <ele>251.9276123046875</ele>
        <time>2026-09-17T22:40:15Z</time>
      </trkpt>
      <trkpt lat="29.602949802188213" lon="106.3178633797609">
        <ele>253.2591552734375</ele>
        <time>2026-09-17T22:40:21Z</time>
      </trkpt>
      <trkpt lat="29.602909272015772" lon="106.31762297396413">
        <ele>256.201416015625</ele>
        <time>2026-09-17T22:40:39Z</time>
      </trkpt>
      <trkpt lat="29.602911927423282" lon="106.31727782269608">
        <ele>257.1685791015625</ele>
        <time>2026-09-17T22:41:03Z</time>
      </trkpt>
      <trkpt lat="29.602925086409474" lon="106.31719203276967">
        <ele>255.2083740234375</ele>
        <time>2026-09-17T22:41:09Z</time>
      </trkpt>
      <trkpt lat="29.60291955982699" lon="106.31694364333563">
        <ele>257.244873046875</ele>
        <time>2026-09-17T22:41:27Z</time>
      </trkpt>
      <trkpt lat="29.6029418994698" lon="106.31676109018419">
        <ele>255.1220703125</ele>
        <time>2026-09-17T22:41:39Z</time>
      </trkpt>
      <trkpt lat="29.60289737661524" lon="106.31651669251374">
        <ele>257.441162109375</ele>
        <time>2026-09-17T22:41:57Z</time>
      </trkpt>
      <trkpt lat="29.60282561978163" lon="106.31639998303575">
        <ele>256.009765625</ele>
        <time>2026-09-17T22:42:09Z</time>
      </trkpt>
      <trkpt lat="29.602707693642152" lon="106.31638003905215">
        <ele>255.025634765625</ele>
        <time>2026-09-17T22:42:21Z</time>
      </trkpt>
      <trkpt lat="29.60263567407566" lon="106.3164019895873">
        <ele>253.01861572265625</ele>
        <time>2026-09-17T22:42:27Z</time>
      </trkpt>
      <trkpt lat="29.602582605226647" lon="106.31644688272">
        <ele>251.59442138671875</ele>
        <time>2026-09-17T22:42:33Z</time>
      </trkpt>
      <trkpt lat="29.60254149866714" lon="106.31650973107993">
        <ele>251.025390625</ele>
        <time>2026-09-17T22:42:39Z</time>
      </trkpt>
      <trkpt lat="29.602516368280288" lon="106.31658255397619">
        <ele>253.16241455078125</ele>
        <time>2026-09-17T22:42:45Z</time>
      </trkpt>
      <trkpt lat="29.60253977441455" lon="106.31689179360093">
        <ele>250.963134765625</ele>
        <time>2026-09-17T22:43:06Z</time>
      </trkpt>
      <trkpt lat="29.602563450877295" lon="106.31705838301603">
        <ele>249.41412353515625</ele>
        <time>2026-09-17T22:43:18Z</time>
      </trkpt>
      <trkpt lat="29.602507965632356" lon="106.31732273668338">
        <ele>249.75140380859375</ele>
        <time>2026-09-17T22:43:30Z</time>
      </trkpt>
      <trkpt lat="29.602444821889854" lon="106.31740852954393">
        <ele>251.0020751953125</ele>
        <time>2026-09-17T22:43:36Z</time>
      </trkpt>
      <trkpt lat="29.602291730314633" lon="106.31748135967254">
        <ele>252.62213134765625</ele>
        <time>2026-09-17T22:43:48Z</time>
      </trkpt>
      <trkpt lat="29.60200473100822" lon="106.31752726409502">
        <ele>254.5606689453125</ele>
        <time>2026-09-17T22:44:09Z</time>
      </trkpt>
      <trkpt lat="29.60193267911694" lon="106.31756617272819">
        <ele>257.5426025390625</ele>
        <time>2026-09-17T22:44:15Z</time>
      </trkpt>
      <trkpt lat="29.60187859894132" lon="106.31761705081367">
        <ele>256.31103515625</ele>
        <time>2026-09-17T22:44:21Z</time>
      </trkpt>
      <trkpt lat="29.60187300080411" lon="106.31793227517608">
        <ele>252.46649169921875</ele>
        <time>2026-09-17T22:44:45Z</time>
      </trkpt>
      <trkpt lat="29.601862308701303" lon="106.31829737625809">
        <ele>254.7496337890625</ele>
        <time>2026-09-17T22:45:06Z</time>
      </trkpt>
      <trkpt lat="29.60187659499462" lon="106.31866945778134">
        <ele>257.1087646484375</ele>
        <time>2026-09-17T22:45:30Z</time>
      </trkpt>
      <trkpt lat="29.601883126748096" lon="106.31891385422033">
        <ele>254.14599609375</ele>
        <time>2026-09-17T22:45:48Z</time>
      </trkpt>
      <trkpt lat="29.601861030728827" lon="106.31896772256415">
        <ele>253.6368408203125</ele>
        <time>2026-09-17T22:45:51Z</time>
      </trkpt>
      <trkpt lat="29.601868879813846" lon="106.31904552996747">
        <ele>251.13232421875</ele>
        <time>2026-09-17T22:45:57Z</time>
      </trkpt>
      <trkpt lat="29.60184858323856" lon="106.31920413945255">
        <ele>253.243896484375</ele>
        <time>2026-09-17T22:46:09Z</time>
      </trkpt>
      <trkpt lat="29.60189822509451" lon="106.3193836928172">
        <ele>251.426025390625</ele>
        <time>2026-09-17T22:46:21Z</time>
      </trkpt>
      <trkpt lat="29.601905872085844" lon="106.31956723868211">
        <ele>253.3763427734375</ele>
        <time>2026-09-17T22:46:33Z</time>
      </trkpt>
      <trkpt lat="29.601890539349316" lon="106.3197438030319">
        <ele>256.6656494140625</ele>
        <time>2026-09-17T22:46:45Z</time>
      </trkpt>
      <trkpt lat="29.601901070767333" lon="106.31998720031508">
        <ele>255.89910888671875</ele>
        <time>2026-09-17T22:47:03Z</time>
      </trkpt>
      <trkpt lat="29.60197100353589" lon="106.32001113685953">
        <ele>254.323974609375</ele>
        <time>2026-09-17T22:47:09Z</time>
      </trkpt>
      <trkpt lat="29.602099031051882" lon="106.3199762155208">
        <ele>253.7598876953125</ele>
        <time>2026-09-17T22:47:18Z</time>
      </trkpt>
      <trkpt lat="29.60216896574506" lon="106.31999915453441">
        <ele>253.5216064453125</ele>
        <time>2026-09-17T22:47:24Z</time>
      </trkpt>
      <trkpt lat="29.602180843825902" lon="106.32006100078134">
        <ele>254.89324951171875</ele>
        <time>2026-09-17T22:47:30Z</time>
      </trkpt>
      <trkpt lat="29.60217653794143" lon="106.32022160355827">
        <ele>256.17877197265625</ele>
        <time>2026-09-17T22:47:42Z</time>
      </trkpt>
    </trkseg>
  </trk>
</gpx>