<?xml version="1.0" encoding="UTF-8"?>
<gpx xmlns="http://www.topografix.com/GPX/1/1" xmlns:gpxtpx="http://www.garmin.com/xmlschemas/TrackPointExtension/v1" xmlns:xsi="http://www.w3.org/2001/XMLSchema-instance" xsi:schemaLocation="http://www.topografix.com/GPX/1/1 http://www.topografix.com/GPX/1/1/gpx.xsd" version="1.1" creator="gpx.py -- https://github.com/tkrajina/gpxpy">
  <trk>
    <name>gpx from keep</name>
    <type>Walk</type>
    <trkseg>
      <trkpt lat="29.60244533693348" lon="106.31976072762357">
        <ele>260.8914794921875</ele>
        <time>2026-08-27T23:05:50Z</time>
      </trkpt>
      <trkpt lat="29.60243246862102" lon="106.31969389368183">
        <ele>261.45947265625</ele>
        <time>2026-08-27T23:05:56Z</time>
      </trkpt>
      <trkpt lat="29.6024476184048" lon="106.31961309255692">
        <ele>259.7666015625</ele>
        <time>2026-08-27T23:06:02Z</time>
      </trkpt>
      <trkpt lat="29.602486720807768" lon="106.319553238169">
        <ele>261.7464599609375</ele>
        <time>2026-08-27T23:06:08Z</time>
      </trkpt>
      <trkpt lat="29.602545771354343" lon="106.31951732338078">
        <ele>258.4580078125</ele>
        <time>2026-08-27T23:06:14Z</time>
      </trkpt>
      <trkpt lat="29.602665725131782" lon="106.31952230381563">
        <ele>258.62969970703125</ele>
        <time>2026-08-27T23:06:26Z</time>
      </trkpt>
      <trkpt lat="29.60285975158151" lon="106.3194774030711">
        <ele>261.640380859375</ele>
        <time>2026-08-27T23:06:44Z</time>
      </trkpt>
      <trkpt lat="29.60291298875066" lon="106.31934472774647">
        <ele>265.298828125</ele>
        <time>2026-08-27T23:06:56Z</time>
      </trkpt>
      <trkpt lat="29.60292762232855" lon="106.31901055232969">
        <ele>264.29266357421875</ele>
        <time>2026-08-27T23:07:26Z</time>
      </trkpt>
      <trkpt lat="29.602930177323564" lon="106.31871927118183">
        <ele>255.77880859375</ele>
        <time>2026-08-27T23:07:50Z</time>
      </trkpt>
      <trkpt lat="29.602875853899363" lon="106.31837312824999">
        <ele>259.65179443359375</ele>
        <time>2026-08-27T23:08:20Z</time>
      </trkpt>
      <trkpt lat="29.602919289175063" lon="106.31813770589201">
        <ele>260.4951171875</ele>
        <time>2026-08-27T23:08:38Z</time>
      </trkpt>
      <trkpt lat="29.60296840526391" lon="106.31806887251781">
        <ele>257.0496826171875</ele>
        <time>2026-08-27T23:08:44Z</time>
      </trkpt>
      <trkpt lat="29.602949013156536" lon="106.31775265240988">
        <ele>260.943115234375</ele>
        <time>2026-08-27T23:09:08Z</time>
      </trkpt>
      <trkpt lat="29.6029327144135" lon="106.3173865541072">
        <ele>261.662109375</ele>
        <time>2026-08-27T23:09:38Z</time>
      </trkpt>
      <trkpt lat="29.602949213583152" lon="106.31712120536356">
        <ele>259.63720703125</ele>
        <time>2026-08-27T23:09:59Z</time>
      </trkpt>
      <trkpt lat="29.602941880547935" lon="106.31677106570027">
        <ele>255.496826171875</ele>
        <time>2026-08-27T23:10:23Z</time>
      </trkpt>
      <trkpt lat="29.602953166628897" lon="106.31661843955914">
        <ele>254.749267578125</ele>
        <time>2026-08-27T23:10:35Z</time>
      </trkpt>
      <trkpt lat="29.602941304561842" lon="106.31654761401887">
        <ele>254.6431884765625</ele>
        <time>2026-08-27T23:10:41Z</time>
      </trkpt>
      <trkpt lat="29.602911432838432" lon="106.31648476995417">
        <ele>254.4571533203125</ele>
        <time>2026-08-27T23:10:47Z</time>
      </trkpt>
      <trkpt lat="29.602809617110378" lon="106.316403974217">
        <ele>255.1822509765625</ele>
        <time>2026-08-27T23:10:59Z</time>
      </trkpt>
      <trkpt lat="29.602673688916834" lon="106.3163880215362">
        <ele>257.3768310546875</ele>
        <time>2026-08-27T23:11:11Z</time>
      </trkpt>
      <trkpt lat="29.602608640750248" lon="106.31642393740859">
        <ele>257.454833984375</ele>
        <time>2026-08-27T23:11:17Z</time>
      </trkpt>
      <trkpt lat="29.602550541288373" lon="106.31648578924982">
        <ele>259.218017578125</ele>
        <time>2026-08-27T23:11:23Z</time>
      </trkpt>
      <trkpt lat="29.602508404766425" lon="106.3165645985025">
        <ele>257.1456298828125</ele>
        <time>2026-08-27T23:11:29Z</time>
      </trkpt>
      <trkpt lat="29.60250510494133" lon="106.316723209538">
        <ele>255.1453857421875</ele>
        <time>2026-08-27T23:11:41Z</time>
      </trkpt>
      <trkpt lat="29.602566516241545" lon="106.31702346859993">
        <ele>254.8780517578125</ele>
        <time>2026-08-27T23:12:05Z</time>
      </trkpt>
      <trkpt lat="29.602544068329742" lon="106.3172628816479">
        <ele>258.243896484375</ele>
        <time>2026-08-27T23:12:23Z</time>
      </trkpt>
      <trkpt lat="29.602521938605317" lon="106.31733470641021">
        <ele>261.6287841796875</ele>
        <time>2026-08-27T23:12:29Z</time>
      </trkpt>
      <trkpt lat="29.602377715364586" lon="106.31747536921203">
        <ele>258.01824951171875</ele>
        <time>2026-08-27T23:12:45Z</time>
      </trkpt>
      <trkpt lat="29.60231067709142" lon="106.31750629718728">
        <ele>257.92535400390625</ele>
        <time>2026-08-27T23:12:51Z</time>
      </trkpt>
      <trkpt lat="29.60203864662281" lon="106.31756616634144">
        <ele>260.2969970703125</ele>
        <time>2026-08-27T23:13:15Z</time>
      </trkpt>
      <trkpt lat="29.601868554584385" lon="106.31764199005285">
        <ele>261.7713623046875</ele>
        <time>2026-08-27T23:13:33Z</time>
      </trkpt>
      <trkpt lat="29.60185246083981" lon="106.31769386336771">
        <ele>260.947509765625</ele>
        <time>2026-08-27T23:13:39Z</time>
      </trkpt>
      <trkpt lat="29.60187293055681" lon="106.31796918427963">
        <ele>255.935546875</ele>
        <time>2026-08-27T23:14:03Z</time>
      </trkpt>
      <trkpt lat="29.601820351986827" lon="106.31828141813028">
        <ele>257.20562744140625</ele>
        <time>2026-08-27T23:14:27Z</time>
      </trkpt>
      <trkpt lat="29.601852910408684" lon="106.31850785784705">
        <ele>257.2783203125</ele>
        <time>2026-08-27T23:14:45Z</time>
      </trkpt>
      <trkpt lat="29.60186533205675" lon="106.31880911383557">
        <ele>258.1246337890625</ele>
        <time>2026-08-27T23:15:09Z</time>
      </trkpt>
      <trkpt lat="29.60190820851657" lon="106.31886696844393">
        <ele>256.99261474609375</ele>
        <time>2026-08-27T23:15:15Z</time>
      </trkpt>
      <trkpt lat="29.601897566307024" lon="106.31920513403408">
        <ele>254.323974609375</ele>
        <time>2026-08-27T23:15:45Z</time>
      </trkpt>
      <trkpt lat="29.601929308921832" lon="106.31933481172827">
        <ele>254.58135986328125</ele>
        <time>2026-08-27T23:15:57Z</time>
      </trkpt>
      <trkpt lat="29.60189959567903" lon="106.31971287895904">
        <ele>256.8646240234375</ele>
        <time>2026-08-27T23:16:27Z</time>
      </trkpt>
      <trkpt lat="29.601912334342398" lon="106.31984754512686">
        <ele>256.262451171875</ele>
        <time>2026-08-27T23:16:39Z</time>
      </trkpt>
      <trkpt lat="29.601901057418193" lon="106.31999418303892">
        <ele>257.200439453125</ele>
        <time>2026-08-27T23:16:51Z</time>
      </trkpt>
      <trkpt lat="29.602025979048424" lon="106.32001512366972">
        <ele>258.1165771484375</ele>
        <time>2026-08-27T23:17:03Z</time>
      </trkpt>
      <trkpt lat="29.602162967583023" lon="106.31999915489631">
        <ele>256.978271484375</ele>
        <time>2026-08-27T23:17:15Z</time>
      </trkpt>
      <trkpt lat="29.602211868660927" lon="106.32004304334124">
        <ele>256.381103515625</ele>
        <time>2026-08-27T23:17:21Z</time>
      </trkpt>
      <trkpt lat="29.602225597334154" lon="106.32018269689351">
        <ele>257.2979736328125</ele>
        <time>2026-08-27T23:17:33Z</time>
      </trkpt>
      <trkpt lat="29.602250486660576" lon="106.32023656205776">
        <ele>253.8846435546875</ele>
        <time>2026-08-27T23:17:39Z</time>
      </trkpt>
    </trkseg>
  </trk>
</gpx>