<?xml version="1.0" encoding="UTF-8"?>
<gpx xmlns="http://www.topografix.com/GPX/1/1" xmlns:gpxtpx="http://www.garmin.com/xmlschemas/TrackPointExtension/v1" xmlns:xsi="http://www.w3.org/2001/XMLSchema-instance" xsi:schemaLocation="http://www.topografix.com/GPX/1/1 http://www.topografix.com/GPX/1/1/gpx.xsd" version="1.1" creator="gpx.py -- https://github.com/tkrajina/gpxpy">
  <trk>
    <name>gpx from keep</name>
    <type>Walk</type>
    <trkseg>
      <trkpt lat="29.60238413254829" lon="106.31987744263725">
        <ele>258.9931640625</ele>
        <time>2026-09-30T23:02:53Z</time>
      </trkpt>
      <trkpt lat="29.602428199158343" lon="106.31983554361452">
        <ele>255.374267578125</ele>
        <time>2026-09-30T23:02:59Z</time>
      </trkpt>
      <trkpt lat="29.602458319611998" lon="106.31976770957083">
        <ele>254.29241943359375</ele>
        <time>2026-09-30T23:03:05Z</time>
      </trkpt>
      <trkpt lat="29.60246143115703" lon="106.31970885493311">
        <ele>253.861572265625</ele>
        <time>2026-09-30T23:03:11Z</time>
      </trkpt>
      <trkpt lat="29.602430684587393" lon="106.31958117249845">
        <ele>253.44384765625</ele>
        <time>2026-09-30T23:03:23Z</time>
      </trkpt>
      <trkpt lat="29.602450794701383" lon="106.31952032171236">
        <ele>254.65399169921875</ele>
        <time>2026-09-30T23:03:29Z</time>
      </trkpt>
      <trkpt lat="29.60248886690716" lon="106.31947642790887">
        <ele>253.3408203125</ele>
        <time>2026-09-30T23:03:35Z</time>
      </trkpt>
      <trkpt lat="29.60279989945827" lon="106.319409574334">
        <ele>247.26922607421875</ele>
        <time>2026-09-30T23:04:05Z</time>
      </trkpt>
      <trkpt lat="29.602918975489853" lon="106.31935071259545">
        <ele>246.9794921875</ele>
        <time>2026-09-30T23:04:17Z</time>
      </trkpt>
      <trkpt lat="29.602942057983153" lon="106.3193038270524">
        <ele>247.743408203125</ele>
        <time>2026-09-30T23:04:23Z</time>
      </trkpt>
      <trkpt lat="29.602950529648663" lon="106.31905544009994">
        <ele>250.404296875</ele>
        <time>2026-09-30T23:04:47Z</time>
      </trkpt>
      <trkpt lat="29.60291217711468" lon="106.31872226488271">
        <ele>250.77947998046875</ele>
        <time>2026-09-30T23:05:17Z</time>
      </trkpt>
      <trkpt lat="29.602913695933076" lon="106.31844993657202">
        <ele>253.8477783203125</ele>
        <time>2026-09-30T23:05:41Z</time>
      </trkpt>
      <trkpt lat="29.602897831974335" lon="106.318381107249">
        <ele>252.942626953125</ele>
        <time>2026-09-30T23:05:47Z</time>
      </trkpt>
      <trkpt lat="29.60292335063381" lon="106.31810478675766">
        <ele>249.8511962890625</ele>
        <time>2026-09-30T23:06:11Z</time>
      </trkpt>
      <trkpt lat="29.60301864064323" lon="106.31793719383201">
        <ele>247.550048828125</ele>
        <time>2026-09-30T23:06:29Z</time>
      </trkpt>
      <trkpt lat="29.603067707316175" lon="106.317894296507">
        <ele>245.2215576171875</ele>
        <time>2026-09-30T23:06:35Z</time>
      </trkpt>
      <trkpt lat="29.603082977938147" lon="106.31774965170125">
        <ele>240.33074951171875</ele>
        <time>2026-09-30T23:06:47Z</time>
      </trkpt>
      <trkpt lat="29.603033624805136" lon="106.31741747197884">
        <ele>241.59136962890625</ele>
        <time>2026-09-30T23:07:11Z</time>
      </trkpt>
      <trkpt lat="29.602972191405627" lon="106.31712918436965">
        <ele>247.4237060546875</ele>
        <time>2026-09-30T23:07:35Z</time>
      </trkpt>
      <trkpt lat="29.60295782646214" lon="106.3167970010748">
        <ele>249.176025390625</ele>
        <time>2026-09-30T23:08:05Z</time>
      </trkpt>
      <trkpt lat="29.602797261564504" lon="106.31659351013442">
        <ele>259.109619140625</ele>
        <time>2026-09-30T23:08:29Z</time>
      </trkpt>
      <trkpt lat="29.602783549449747" lon="106.3164438779524">
        <ele>254.9796142578125</ele>
        <time>2026-09-30T23:08:41Z</time>
      </trkpt>
      <trkpt lat="29.60276064342414" lon="106.3163979918415">
        <ele>255.669677734375</ele>
        <time>2026-09-30T23:08:47Z</time>
      </trkpt>
      <trkpt lat="29.602708704675578" lon="106.31637405366428">
        <ele>254.95953369140625</ele>
        <time>2026-09-30T23:08:53Z</time>
      </trkpt>
      <trkpt lat="29.602647711985146" lon="106.3163800426656">
        <ele>253.13916015625</ele>
        <time>2026-09-30T23:08:59Z</time>
      </trkpt>
      <trkpt lat="29.602553593302826" lon="106.31645785756076">
        <ele>250.63140869140625</ele>
        <time>2026-09-30T23:09:11Z</time>
      </trkpt>
      <trkpt lat="29.602518488686524" lon="106.31651871044703">
        <ele>249.8759765625</ele>
        <time>2026-09-30T23:09:17Z</time>
      </trkpt>
      <trkpt lat="29.602502349869535" lon="106.31659452545502">
        <ele>249.9962158203125</ele>
        <time>2026-09-30T23:09:23Z</time>
      </trkpt>
      <trkpt lat="29.602511203370078" lon="106.31667033891304">
        <ele>251.5106201171875</ele>
        <time>2026-09-30T23:09:29Z</time>
      </trkpt>
      <trkpt lat="29.602581496504417" lon="106.31703144809379">
        <ele>252.5323486328125</ele>
        <time>2026-09-30T23:09:59Z</time>
      </trkpt>
      <trkpt lat="29.60255808489225" lon="106.31725190777618">
        <ele>252.11297607421875</ele>
        <time>2026-09-30T23:10:17Z</time>
      </trkpt>
      <trkpt lat="29.602493863768718" lon="106.31737860017958">
        <ele>252.1104736328125</ele>
        <time>2026-09-30T23:10:29Z</time>
      </trkpt>
      <trkpt lat="29.602379741297916" lon="106.31746140343976">
        <ele>247.53192138671875</ele>
        <time>2026-09-30T23:10:41Z</time>
      </trkpt>
      <trkpt lat="29.602071697198667" lon="106.3175342428811">
        <ele>247.5302734375</ele>
        <time>2026-09-30T23:11:11Z</time>
      </trkpt>
      <trkpt lat="29.60194866852141" lon="106.31756916440179">
        <ele>249.1431884765625</ele>
        <time>2026-09-30T23:11:23Z</time>
      </trkpt>
      <trkpt lat="29.60189761587693" lon="106.31760507912178">
        <ele>249.6502685546875</ele>
        <time>2026-09-30T23:11:29Z</time>
      </trkpt>
      <trkpt lat="29.601869512542113" lon="106.31766393598936">
        <ele>249.62542724609375</ele>
        <time>2026-09-30T23:11:35Z</time>
      </trkpt>
      <trkpt lat="29.601873859996097" lon="106.3180060933141">
        <ele>250.8648681640625</ele>
        <time>2026-09-30T23:12:05Z</time>
      </trkpt>
      <trkpt lat="29.601877243290954" lon="106.31832929666759">
        <ele>252.6492919921875</ele>
        <time>2026-09-30T23:12:35Z</time>
      </trkpt>
      <trkpt lat="29.601885997243578" lon="106.3184569813169">
        <ele>252.42132568359375</ele>
        <time>2026-09-30T23:12:47Z</time>
      </trkpt>
      <trkpt lat="29.601877322668948" lon="106.31881210572647">
        <ele>254.10614013671875</ele>
        <time>2026-09-30T23:13:17Z</time>
      </trkpt>
      <trkpt lat="29.601867065048562" lon="106.31894876899442">
        <ele>255.0257568359375</ele>
        <time>2026-09-30T23:13:29Z</time>
      </trkpt>
      <trkpt lat="29.601845947778237" lon="106.31901361017434">
        <ele>255.305419921875</ele>
        <time>2026-09-30T23:13:35Z</time>
      </trkpt>
      <trkpt lat="29.601859551302134" lon="106.31921910182749">
        <ele>255.5931396484375</ele>
        <time>2026-09-30T23:13:53Z</time>
      </trkpt>
      <trkpt lat="29.601900300672035" lon="106.31934379129368">
        <ele>253.8067626953125</ele>
        <time>2026-09-30T23:14:05Z</time>
      </trkpt>
      <trkpt lat="29.601883671107387" lon="106.31967597118832">
        <ele>255.7203369140625</ele>
        <time>2026-09-30T23:14:35Z</time>
      </trkpt>
      <trkpt lat="29.601912429664747" lon="106.3197976684883">
        <ele>256.31787109375</ele>
        <time>2026-09-30T23:14:47Z</time>
      </trkpt>
      <trkpt lat="29.6019190728759" lon="106.31998320910144">
        <ele>253.94647216796875</ele>
        <time>2026-09-30T23:15:05Z</time>
      </trkpt>
      <trkpt lat="29.60197506524175" lon="106.31997821806377">
        <ele>254.0098876953125</ele>
        <time>2026-09-30T23:15:11Z</time>
      </trkpt>
      <trkpt lat="29.602073229699194" lon="106.31987646386166">
        <ele>255.77276611328125</ele>
        <time>2026-09-30T23:15:23Z</time>
      </trkpt>
      <trkpt lat="29.602134254860314" lon="106.31985351693375">
        <ele>254.5113525390625</ele>
        <time>2026-09-30T23:15:29Z</time>
      </trkpt>
      <trkpt lat="29.602358111906437" lon="106.31989240719228">
        <ele>258.00811767578125</ele>
        <time>2026-09-30T23:15:53Z</time>
      </trkpt>
      <trkpt lat="29.60241213541872" lon="106.31987145575346">
        <ele>257.7081298828125</ele>
        <time>2026-09-30T23:15:59Z</time>
      </trkpt>
      <trkpt lat="29.602464327307406" lon="106.3197627215438">
        <ele>255.757568359375</ele>
        <time>2026-09-30T23:16:11Z</time>
      </trkpt>
      <trkpt lat="29.602436560786412" lon="106.31964501429887">
        <ele>253.9691162109375</ele>
        <time>2026-09-30T23:16:24Z</time>
      </trkpt>
      <trkpt lat="29.602436690373683" lon="106.3195771820008">
        <ele>255.07208251953125</ele>
        <time>2026-09-30T23:16:29Z</time>
      </trkpt>
      <trkpt lat="29.602479785828333" lon="106.31952031996357">
        <ele>253.77899169921875</ele>
        <time>2026-09-30T23:16:35Z</time>
      </trkpt>
      <trkpt lat="29.602537817623425" lon="106.31949438057377">
        <ele>253.7242431640625</ele>
        <time>2026-09-30T23:16:42Z</time>
      </trkpt>
      <trkpt lat="29.60279972990314" lon="106.31949835491186">
        <ele>256.24627685546875</ele>
        <time>2026-09-30T23:17:06Z</time>
      </trkpt>
      <trkpt lat="29.60286175097053" lon="106.3194774029505">
        <ele>254.4808349609375</ele>
        <time>2026-09-30T23:17:12Z</time>
      </trkpt>
      <trkpt lat="29.602910814113116" lon="106.31943650107853">
        <ele>253.0755615234375</ele>
        <time>2026-09-30T23:17:18Z</time>
      </trkpt>
      <trkpt lat="29.602937925877463" lon="106.319373654756">
        <ele>252.73541259765625</ele>
        <time>2026-09-30T23:17:24Z</time>
      </trkpt>
      <trkpt lat="29.602947580055815" lon="106.31902950432482">
        <ele>252.97552490234375</ele>
        <time>2026-09-30T23:17:54Z</time>
      </trkpt>
      <trkpt lat="29.60292686242568" lon="106.31888486269067">
        <ele>252.1953125</ele>
        <time>2026-09-30T23:18:06Z</time>
      </trkpt>
      <trkpt lat="29.602940989436405" lon="106.31881603173544">
        <ele>251.89581298828125</ele>
        <time>2026-09-30T23:18:12Z</time>
      </trkpt>
      <trkpt lat="29.602947523952718" lon="106.31853472541698">
        <ele>250.44610595703125</ele>
        <time>2026-09-30T23:18:36Z</time>
      </trkpt>
      <trkpt lat="29.60293419341305" lon="106.31818558700232">
        <ele>249.7813720703125</ele>
        <time>2026-09-30T23:19:06Z</time>
      </trkpt>
      <trkpt lat="29.602955564948083" lon="106.31798707479055">
        <ele>249.424560546875</ele>
        <time>2026-09-30T23:19:24Z</time>
      </trkpt>
      <trkpt lat="29.60300078851321" lon="106.31786237914365">
        <ele>244.9000244140625</ele>
        <time>2026-09-30T23:19:36Z</time>
      </trkpt>
      <trkpt lat="29.603010937295018" lon="106.31778257500913">
        <ele>244.2674560546875</ele>
        <time>2026-09-30T23:19:42Z</time>
      </trkpt>
      <trkpt lat="29.602992096796164" lon="106.3177017750349">
        <ele>245.638916015625</ele>
        <time>2026-09-30T23:19:48Z</time>
      </trkpt>
      <trkpt lat="29.602962828458963" lon="106.31732171172297">
        <ele>248.6317138671875</ele>
        <time>2026-09-30T23:20:18Z</time>
      </trkpt>
      <trkpt lat="29.6029604772528" lon="106.31698055022136">
        <ele>248.27587890625</ele>
        <time>2026-09-30T23:20:48Z</time>
      </trkpt>
      <trkpt lat="29.602954189018853" lon="106.31660646886563">
        <ele>249.7481689453125</ele>
        <time>2026-09-30T23:21:18Z</time>
      </trkpt>
      <trkpt lat="29.60287839187248" lon="106.3165117058904">
        <ele>251.26141357421875</ele>
        <time>2026-09-30T23:21:30Z</time>
      </trkpt>
      <trkpt lat="29.60277350146645" lon="106.31647081251205">
        <ele>251.26416015625</ele>
        <time>2026-09-30T23:21:42Z</time>
      </trkpt>
      <trkpt lat="29.602650523940895" lon="106.31647880035067">
        <ele>252.580810546875</ele>
        <time>2026-09-30T23:21:54Z</time>
      </trkpt>
      <trkpt lat="29.602554415277744" lon="106.31655162754036">
        <ele>252.33795166015625</ele>
        <time>2026-09-30T23:22:09Z</time>
      </trkpt>
      <trkpt lat="29.602519204706013" lon="106.3166683433265">
        <ele>252.7379150390625</ele>
        <time>2026-09-30T23:22:21Z</time>
      </trkpt>
      <trkpt lat="29.602525089363347" lon="106.31672819609297">
        <ele>254.23333740234375</ele>
        <time>2026-09-30T23:22:27Z</time>
      </trkpt>
      <trkpt lat="29.60259169982717" lon="106.31692271453606">
        <ele>253.73956298828125</ele>
        <time>2026-09-30T23:22:45Z</time>
      </trkpt>
      <trkpt lat="29.602545028227695" lon="106.31728383009386">
        <ele>251.96697998046875</ele>
        <time>2026-09-30T23:23:15Z</time>
      </trkpt>
      <trkpt lat="29.602522907972496" lon="106.31735066710876">
        <ele>252.190673828125</ele>
        <time>2026-09-30T23:23:21Z</time>
      </trkpt>
      <trkpt lat="29.60236569628349" lon="106.31748734049262">
        <ele>248.8775634765625</ele>
        <time>2026-09-30T23:23:39Z</time>
      </trkpt>
      <trkpt lat="29.60230867011847" lon="106.31751028749291">
        <ele>248.09844970703125</ele>
        <time>2026-09-30T23:23:45Z</time>
      </trkpt>
      <trkpt lat="29.601999639610153" lon="106.31757614414987">
        <ele>249.5877685546875</ele>
        <time>2026-09-30T23:24:15Z</time>
      </trkpt>
      <trkpt lat="29.601897570351664" lon="106.31762902021495">
        <ele>252.04327392578125</ele>
        <time>2026-09-30T23:24:27Z</time>
      </trkpt>
      <trkpt lat="29.601871479676806" lon="106.31768089413686">
        <ele>252.12762451171875</ele>
        <time>2026-09-30T23:24:33Z</time>
      </trkpt>
      <trkpt lat="29.60187183402512" lon="106.31802005903575">
        <ele>252.619140625</ele>
        <time>2026-09-30T23:25:03Z</time>
      </trkpt>
      <trkpt lat="29.601852467572257" lon="106.31821557846592">
        <ele>254.541748046875</ele>
        <time>2026-09-30T23:25:21Z</time>
      </trkpt>
      <trkpt lat="29.601870838343267" lon="106.31854277065382">
        <ele>253.507568359375</ele>
        <time>2026-09-30T23:25:51Z</time>
      </trkpt>
      <trkpt lat="29.601862207400966" lon="106.31887495151908">
        <ele>252.38836669921875</ele>
        <time>2026-09-30T23:26:21Z</time>
      </trkpt>
      <trkpt lat="29.601865598970047" lon="106.31919316553214">
        <ele>251.74169921875</ele>
        <time>2026-09-30T23:26:51Z</time>
      </trkpt>
      <trkpt lat="29.601922977387925" lon="106.31950938067483">
        <ele>255.3453369140625</ele>
        <time>2026-09-30T23:27:21Z</time>
      </trkpt>
      <trkpt lat="29.601934727891617" lon="106.3196380618367">
        <ele>255.64630126953125</ele>
        <time>2026-09-30T23:27:33Z</time>
      </trkpt>
      <trkpt lat="29.60192359785007" lon="106.31970788984509">
        <ele>256.198974609375</ele>
        <time>2026-09-30T23:27:39Z</time>
      </trkpt>
      <trkpt lat="29.601938204345185" lon="106.3199113856387">
        <ele>255.62939453125</ele>
        <time>2026-09-30T23:27:57Z</time>
      </trkpt>
      <trkpt lat="29.601922075770016" lon="106.31998121385647">
        <ele>254.627197265625</ele>
        <time>2026-09-30T23:28:03Z</time>
      </trkpt>
      <trkpt lat="29.60195298807603" lon="106.32002211079558">
        <ele>255.072265625</ele>
        <time>2026-09-30T23:28:09Z</time>
      </trkpt>
      <trkpt lat="29.602001068713484" lon="106.31997223130334">
        <ele>257.44140625</ele>
        <time>2026-09-30T23:28:15Z</time>
      </trkpt>
      <trkpt lat="29.602031183463424" lon="106.31990738990028">
        <ele>252.59075927734375</ele>
        <time>2026-09-30T23:28:21Z</time>
      </trkpt>
      <trkpt lat="29.602341052280877" lon="106.31992632431735">
        <ele>260.2401123046875</ele>
        <time>2026-09-30T23:28:51Z</time>
      </trkpt>
      <trkpt lat="29.602397069462175" lon="106.3199083653583">
        <ele>259.4246826171875</ele>
        <time>2026-09-30T23:28:57Z</time>
      </trkpt>
      <trkpt lat="29.602439157661756" lon="106.31985549360405">
        <ele>257.60479736328125</ele>
        <time>2026-09-30T23:29:03Z</time>
      </trkpt>
      <trkpt lat="29.60245528621676" lon="106.31978566534538">
        <ele>257.2117919921875</ele>
        <time>2026-09-30T23:29:09Z</time>
      </trkpt>
      <trkpt lat="29.602435559186596" lon="106.31964601189279">
        <ele>253.519287109375</ele>
        <time>2026-09-30T23:29:21Z</time>
      </trkpt>
      <trkpt lat="29.602454705826908" lon="106.3195662080414">
        <ele>255.1251220703125</ele>
        <time>2026-09-30T23:29:27Z</time>
      </trkpt>
      <trkpt lat="29.602506785189544" lon="106.31951632819835">
        <ele>254.51422119140625</ele>
        <time>2026-09-30T23:29:33Z</time>
      </trkpt>
      <trkpt lat="29.602834717303843" lon="106.31949935033559">
        <ele>252.13043212890625</ele>
        <time>2026-09-30T23:30:03Z</time>
      </trkpt>
      <trkpt lat="29.602891764668534" lon="106.31946543072753">
        <ele>252.589111328125</ele>
        <time>2026-09-30T23:30:09Z</time>
      </trkpt>
      <trkpt lat="29.60292786226084" lon="106.31940856908064">
        <ele>252.49786376953125</ele>
        <time>2026-09-30T23:30:15Z</time>
      </trkpt>
      <trkpt lat="29.602962246118395" lon="106.3192020772122">
        <ele>253.129150390625</ele>
        <time>2026-09-30T23:30:33Z</time>
      </trkpt>
      <trkpt lat="29.602962659222843" lon="106.31898561179413">
        <ele>252.4530029296875</ele>
        <time>2026-09-30T23:30:51Z</time>
      </trkpt>
      <trkpt lat="29.602934080989588" lon="106.31876914786329">
        <ele>252.89605712890625</ele>
        <time>2026-09-30T23:31:09Z</time>
      </trkpt>
      <trkpt lat="29.602933638497625" lon="106.3184768689494">
        <ele>250.2244873046875</ele>
        <time>2026-09-30T23:31:33Z</time>
      </trkpt>
      <trkpt lat="29.602908855222825" lon="106.31836714101688">
        <ele>249.59576416015625</ele>
        <time>2026-09-30T23:31:45Z</time>
      </trkpt>
      <trkpt lat="29.602917113113172" lon="106.3182304774023">
        <ele>250.3424072265625</ele>
        <time>2026-09-30T23:31:57Z</time>
      </trkpt>
      <trkpt lat="29.602896233514475" lon="106.31817062616466">
        <ele>249.13458251953125</ele>
        <time>2026-09-30T23:32:03Z</time>
      </trkpt>
      <trkpt lat="29.60293483334265" lon="106.31784941504985">
        <ele>244.8917236328125</ele>
        <time>2026-09-30T23:32:33Z</time>
      </trkpt>
      <trkpt lat="29.602920232613684" lon="106.31764192666428">
        <ele>247.08837890625</ele>
        <time>2026-09-30T23:32:51Z</time>
      </trkpt>
      <trkpt lat="29.602944509777792" lon="106.31749229333867">
        <ele>245.443603515625</ele>
        <time>2026-09-30T23:33:03Z</time>
      </trkpt>
      <trkpt lat="29.60293764843063" lon="106.31742047040359">
        <ele>245.3936767578125</ele>
        <time>2026-09-30T23:33:09Z</time>
      </trkpt>
      <trkpt lat="29.602945309508566" lon="106.317071328146">
        <ele>248.30877685546875</ele>
        <time>2026-09-30T23:33:39Z</time>
      </trkpt>
      <trkpt lat="29.602933555551164" lon="106.31694364249229">
        <ele>248.29766845703125</ele>
        <time>2026-09-30T23:33:51Z</time>
      </trkpt>
      <trkpt lat="29.602947816269275" lon="106.31680398453659">
        <ele>249.82781982421875</ele>
        <time>2026-09-30T23:34:03Z</time>
      </trkpt>
      <trkpt lat="29.60299573915929" lon="106.31683690083484">
        <ele>251.57073974609375</ele>
        <time>2026-09-30T23:34:15Z</time>
      </trkpt>
      <trkpt lat="29.603059766933633" lon="106.31681195820055">
        <ele>250.28045654296875</ele>
        <time>2026-09-30T23:34:21Z</time>
      </trkpt>
      <trkpt lat="29.603096831333524" lon="106.31677205391544">
        <ele>248.0194091796875</ele>
        <time>2026-09-30T23:34:27Z</time>
      </trkpt>
      <trkpt lat="29.60309272468828" lon="106.31682891458308">
        <ele>248.84136962890625</ele>
        <time>2026-09-30T23:34:36Z</time>
      </trkpt>
      <trkpt lat="29.603060656856282" lon="106.31686981610086">
        <ele>250.71282958984375</ele>
        <time>2026-09-30T23:34:45Z</time>
      </trkpt>
      <trkpt lat="29.60304456141458" lon="106.3169226872482">
        <ele>252.474609375</ele>
        <time>2026-09-30T23:35:30Z</time>
      </trkpt>
      <trkpt lat="29.60302368140091" lon="106.31686283547366">
        <ele>255.02789306640625</ele>
        <time>2026-09-30T23:36:00Z</time>
      </trkpt>
      <trkpt lat="29.602971706741766" lon="106.31685785085148">
        <ele>250.318603515625</ele>
        <time>2026-09-30T23:36:09Z</time>
      </trkpt>
      <trkpt lat="29.60294681278984" lon="106.31680597969945">
        <ele>249.96142578125</ele>
        <time>2026-09-30T23:36:15Z</time>
      </trkpt>
      <trkpt lat="29.602913347148515" lon="106.3165296597451">
        <ele>249.0185546875</ele>
        <time>2026-09-30T23:36:33Z</time>
      </trkpt>
      <trkpt lat="29.602869508051267" lon="106.31645185320534">
        <ele>251.30987548828125</ele>
        <time>2026-09-30T23:36:39Z</time>
      </trkpt>
      <trkpt lat="29.602805627782626" lon="106.31639898668583">
        <ele>249.828857421875</ele>
        <time>2026-09-30T23:36:45Z</time>
      </trkpt>
      <trkpt lat="29.6027297171546" lon="106.31636407685286">
        <ele>247.47796630859375</ele>
        <time>2026-09-30T23:36:51Z</time>
      </trkpt>
      <trkpt lat="29.60265773349546" lon="106.31636707385306">
        <ele>246.14263916015625</ele>
        <time>2026-09-30T23:36:57Z</time>
      </trkpt>
      <trkpt lat="29.60258467833122" lon="106.31640797798511">
        <ele>247.360595703125</ele>
        <time>2026-09-30T23:37:03Z</time>
      </trkpt>
      <trkpt lat="29.60253257137041" lon="106.31647282213433">
        <ele>247.5379638671875</ele>
        <time>2026-09-30T23:37:09Z</time>
      </trkpt>
      <trkpt lat="29.602499430211214" lon="106.31655262840616">
        <ele>246.3028564453125</ele>
        <time>2026-09-30T23:37:15Z</time>
      </trkpt>
      <trkpt lat="29.602503067713318" lon="106.3167431606958">
        <ele>246.3544921875</ele>
        <time>2026-09-30T23:37:27Z</time>
      </trkpt>
      <trkpt lat="29.60256156511072" lon="106.31699853015613">
        <ele>249.57623291015625</ele>
        <time>2026-09-30T23:37:45Z</time>
      </trkpt>
      <trkpt lat="29.602547071202107" lon="106.31726088637117">
        <ele>247.292236328125</ele>
        <time>2026-09-30T23:38:03Z</time>
      </trkpt>
      <trkpt lat="29.60251591959115" lon="106.31734567979358">
        <ele>247.2137451171875</ele>
        <time>2026-09-30T23:38:09Z</time>
      </trkpt>
      <trkpt lat="29.60246879369233" lon="106.31741950111416">
        <ele>245.561767578125</ele>
        <time>2026-09-30T23:38:15Z</time>
      </trkpt>
      <trkpt lat="29.60233168014386" lon="106.31750130819043">
        <ele>245.1702880859375</ele>
        <time>2026-09-30T23:38:27Z</time>
      </trkpt>
      <trkpt lat="29.60203766020551" lon="106.31755918358027">
        <ele>246.3399658203125</ele>
        <time>2026-09-30T23:38:51Z</time>
      </trkpt>
      <trkpt lat="29.601970667466546" lon="106.3175661704386">
        <ele>246.876220703125</ele>
        <time>2026-09-30T23:38:57Z</time>
      </trkpt>
      <trkpt lat="29.601905609630073" lon="106.31760707373098">
        <ele>248.5152587890625</ele>
        <time>2026-09-30T23:39:03Z</time>
      </trkpt>
      <trkpt lat="29.601857510531044" lon="106.31766692934809">
        <ele>251.94708251953125</ele>
        <time>2026-09-30T23:39:09Z</time>
      </trkpt>
      <trkpt lat="29.60186188266461" lon="106.31799611860711">
        <ele>250.06414794921875</ele>
        <time>2026-09-30T23:39:33Z</time>
      </trkpt>
      <trkpt lat="29.60183742467515" lon="106.31824051790939">
        <ele>253.4061279296875</ele>
        <time>2026-09-30T23:39:51Z</time>
      </trkpt>
      <trkpt lat="29.60186207493687" lon="106.31842007377293">
        <ele>253.2100830078125</ele>
        <time>2026-09-30T23:40:03Z</time>
      </trkpt>
      <trkpt lat="29.601859457552003" lon="106.31874427420829">
        <ele>250.67352294921875</ele>
        <time>2026-09-30T23:40:27Z</time>
      </trkpt>
      <trkpt lat="29.60186478395624" lon="106.31909640457728">
        <ele>248.884765625</ele>
        <time>2026-09-30T23:40:51Z</time>
      </trkpt>
      <trkpt lat="29.6018624856367" lon="106.31925301786202">
        <ele>250.517333984375</ele>
        <time>2026-09-30T23:41:03Z</time>
      </trkpt>
      <trkpt lat="29.601892327885956" lon="106.31933082381832">
        <ele>253.232666015625</ele>
        <time>2026-09-30T23:41:09Z</time>
      </trkpt>
      <trkpt lat="29.601895663615593" lon="106.3196779655316">
        <ele>252.229248046875</ele>
        <time>2026-09-30T23:41:33Z</time>
      </trkpt>
      <trkpt lat="29.60188702547716" lon="106.3200131369897">
        <ele>255.09112548828125</ele>
        <time>2026-09-30T23:41:57Z</time>
      </trkpt>
      <trkpt lat="29.601951933074613" lon="106.32005103927696">
        <ele>252.7421875</ele>
        <time>2026-09-30T23:42:03Z</time>
      </trkpt>
      <trkpt lat="29.602091018247304" lon="106.31998419625947">
        <ele>255.2896728515625</ele>
        <time>2026-09-30T23:42:12Z</time>
      </trkpt>
      <trkpt lat="29.602218900846015" lon="106.32002508734725">
        <ele>259.14764404296875</ele>
        <time>2026-09-30T23:42:24Z</time>
      </trkpt>
      <trkpt lat="29.602219509508775" lon="106.32022958121166">
        <ele>248.950439453125</ele>
        <time>2026-09-30T23:42:42Z</time>
      </trkpt>
      <trkpt lat="29.60224848536521" lon="106.32023755970926">
        <ele>247.856201171875</ele>
        <time>2026-09-30T23:42:45Z</time>
      </trkpt>
    </trkseg>
  </trk>
</gpx>