<?xml version="1.0" encoding="UTF-8"?>
<gpx xmlns="http://www.topografix.com/GPX/1/1" xmlns:gpxtpx="http://www.garmin.com/xmlschemas/TrackPointExtension/v1" xmlns:xsi="http://www.w3.org/2001/XMLSchema-instance" xsi:schemaLocation="http://www.topografix.com/GPX/1/1 http://www.topografix.com/GPX/1/1/gpx.xsd" version="1.1" creator="gpx.py -- https://github.com/tkrajina/gpxpy">
  <trk>
    <name>gpx from keep</name>
    <type>Walk</type>
    <trkseg>
      <trkpt lat="29.601907887838" lon="106.31851084715143">
        <ele>254.47735595703125</ele>
        <time>2026-10-10T23:45:41Z</time>
      </trkpt>
      <trkpt lat="29.601903213855312" lon="106.31886497366978">
        <ele>259.1910400390625</ele>
        <time>2026-10-10T23:46:11Z</time>
      </trkpt>
      <trkpt lat="29.60190209427964" lon="106.31892781859949">
        <ele>258.90130615234375</ele>
        <time>2026-10-10T23:46:17Z</time>
      </trkpt>
      <trkpt lat="29.601903463541504" lon="106.31925800306814">
        <ele>255.4703369140625</ele>
        <time>2026-10-10T23:46:47Z</time>
      </trkpt>
      <trkpt lat="29.601933355310674" lon="106.31930987310484">
        <ele>256.206298828125</ele>
        <time>2026-10-10T23:46:53Z</time>
      </trkpt>
      <trkpt lat="29.601959636368477" lon="106.31968195180589">
        <ele>254.05352783203125</ele>
        <time>2026-10-10T23:47:23Z</time>
      </trkpt>
      <trkpt lat="29.601951204172963" lon="106.31990938978994">
        <ele>255.21295166015625</ele>
        <time>2026-10-10T23:47:41Z</time>
      </trkpt>
      <trkpt lat="29.601935088946806" lon="106.31997223528403">
        <ele>257.988525390625</ele>
        <time>2026-10-10T23:47:47Z</time>
      </trkpt>
      <trkpt lat="29.601961968152573" lon="106.32003108803902">
        <ele>256.3970947265625</ele>
        <time>2026-10-10T23:47:53Z</time>
      </trkpt>
      <trkpt lat="29.602012013852683" lon="106.31999916400379">
        <ele>254.76068115234375</ele>
        <time>2026-10-10T23:47:59Z</time>
      </trkpt>
      <trkpt lat="29.60204608733885" lon="106.31995527054357">
        <ele>254.4964599609375</ele>
        <time>2026-10-10T23:48:05Z</time>
      </trkpt>
      <trkpt lat="29.602093116793853" lon="106.3199323244685">
        <ele>255.0828857421875</ele>
        <time>2026-10-10T23:48:11Z</time>
      </trkpt>
      <trkpt lat="29.602350971037996" lon="106.31996722253317">
        <ele>253.47808837890625</ele>
        <time>2026-10-10T23:48:35Z</time>
      </trkpt>
      <trkpt lat="29.60240603619947" lon="106.31992432533247">
        <ele>253.40283203125</ele>
        <time>2026-10-10T23:48:41Z</time>
      </trkpt>
      <trkpt lat="29.602449146975562" lon="106.31985948313128">
        <ele>254.844482421875</ele>
        <time>2026-10-10T23:48:47Z</time>
      </trkpt>
      <trkpt lat="29.602486577886225" lon="106.31962805321122">
        <ele>254.71697998046875</ele>
        <time>2026-10-10T23:49:05Z</time>
      </trkpt>
      <trkpt lat="29.602521694856573" lon="106.31956121633085">
        <ele>254.1536865234375</ele>
        <time>2026-10-10T23:49:11Z</time>
      </trkpt>
      <trkpt lat="29.602571751969954" lon="106.31952330701839">
        <ele>253.01220703125</ele>
        <time>2026-10-10T23:49:17Z</time>
      </trkpt>
      <trkpt lat="29.602830710904776" lon="106.31950334071416">
        <ele>253.68341064453125</ele>
        <time>2026-10-10T23:49:41Z</time>
      </trkpt>
      <trkpt lat="29.602887733502143" lon="106.31948238905485">
        <ele>255.861328125</ele>
        <time>2026-10-10T23:49:47Z</time>
      </trkpt>
      <trkpt lat="29.602932813109057" lon="106.31943350714785">
        <ele>255.0263671875</ele>
        <time>2026-10-10T23:49:53Z</time>
      </trkpt>
      <trkpt lat="29.602943497521768" lon="106.31907339618166">
        <ele>251.15777587890625</ele>
        <time>2026-10-10T23:50:23Z</time>
      </trkpt>
      <trkpt lat="29.602941627569706" lon="106.3190055638008">
        <ele>251.50408935546875</ele>
        <time>2026-10-10T23:50:29Z</time>
      </trkpt>
      <trkpt lat="29.602906918006756" lon="106.31885892791564">
        <ele>252.3017578125</ele>
        <time>2026-10-10T23:50:41Z</time>
      </trkpt>
      <trkpt lat="29.602905065115834" lon="106.31878211760908">
        <ele>251.21551513671875</ele>
        <time>2026-10-10T23:50:47Z</time>
      </trkpt>
      <trkpt lat="29.60294748212247" lon="106.3185566712885">
        <ele>246.78057861328125</ele>
        <time>2026-10-10T23:51:05Z</time>
      </trkpt>
      <trkpt lat="29.602946166951366" lon="106.3181975567804">
        <ele>251.4493408203125</ele>
        <time>2026-10-10T23:51:35Z</time>
      </trkpt>
      <trkpt lat="29.602921558242674" lon="106.31799605472699">
        <ele>251.509521484375</ele>
        <time>2026-10-10T23:51:53Z</time>
      </trkpt>
      <trkpt lat="29.602941072524917" lon="106.3177227265506">
        <ele>249.1090087890625</ele>
        <time>2026-10-10T23:52:17Z</time>
      </trkpt>
      <trkpt lat="29.602927327216843" lon="106.31759105142059">
        <ele>250.320068359375</ele>
        <time>2026-10-10T23:52:29Z</time>
      </trkpt>
      <trkpt lat="29.60294699063786" lon="106.31723891621506">
        <ele>253.21978759765625</ele>
        <time>2026-10-10T23:52:59Z</time>
      </trkpt>
      <trkpt lat="29.602921661441354" lon="106.31688977548899">
        <ele>252.97344970703125</ele>
        <time>2026-10-10T23:53:29Z</time>
      </trkpt>
      <trkpt lat="29.602944101286244" lon="106.3166543519945">
        <ele>254.5830078125</ele>
        <time>2026-10-10T23:53:47Z</time>
      </trkpt>
      <trkpt lat="29.602904374477106" lon="106.31651669209215">
        <ele>254.09796142578125</ele>
        <time>2026-10-10T23:53:59Z</time>
      </trkpt>
      <trkpt lat="29.602806585895898" lon="106.31642093282125">
        <ele>252.71405029296875</ele>
        <time>2026-10-10T23:54:11Z</time>
      </trkpt>
      <trkpt lat="29.602682627574982" lon="106.31641894518064">
        <ele>252.0211181640625</ele>
        <time>2026-10-10T23:54:23Z</time>
      </trkpt>
      <trkpt lat="29.602627582014" lon="106.31645186778005">
        <ele>251.71087646484375</ele>
        <time>2026-10-10T23:54:29Z</time>
      </trkpt>
      <trkpt lat="29.60255338911024" lon="106.31656559334537">
        <ele>250.9110107421875</ele>
        <time>2026-10-10T23:54:41Z</time>
      </trkpt>
      <trkpt lat="29.60252124759968" lon="106.31664539949978">
        <ele>250.79144287109375</ele>
        <time>2026-10-10T23:54:47Z</time>
      </trkpt>
      <trkpt lat="29.60252893297906" lon="106.31680999508289">
        <ele>252.904296875</ele>
        <time>2026-10-10T23:54:59Z</time>
      </trkpt>
      <trkpt lat="29.602595456241346" lon="106.31705040069245">
        <ele>253.78729248046875</ele>
        <time>2026-10-10T23:55:17Z</time>
      </trkpt>
      <trkpt lat="29.602565039166237" lon="106.31727485095809">
        <ele>252.2998046875</ele>
        <time>2026-10-10T23:55:35Z</time>
      </trkpt>
      <trkpt lat="29.602468704581717" lon="106.31746638581036">
        <ele>254.3446044921875</ele>
        <time>2026-10-10T23:55:53Z</time>
      </trkpt>
      <trkpt lat="29.602347625940848" lon="106.31752724342863">
        <ele>256.8009033203125</ele>
        <time>2026-10-10T23:56:05Z</time>
      </trkpt>
      <trkpt lat="29.60207562959382" lon="106.31756915674971">
        <ele>258.228271484375</ele>
        <time>2026-10-10T23:56:29Z</time>
      </trkpt>
      <trkpt lat="29.60194861351676" lon="106.3175980932293">
        <ele>259.75390625</ele>
        <time>2026-10-10T23:56:41Z</time>
      </trkpt>
      <trkpt lat="29.60190055615294" lon="106.31763600285231">
        <ele>259.9539794921875</ele>
        <time>2026-10-10T23:56:47Z</time>
      </trkpt>
      <trkpt lat="29.60187633014499" lon="106.31775870233459">
        <ele>257.11151123046875</ele>
        <time>2026-10-10T23:56:59Z</time>
      </trkpt>
      <trkpt lat="29.601888684480024" lon="106.31809587125262">
        <ele>253.373046875</ele>
        <time>2026-10-10T23:57:29Z</time>
      </trkpt>
      <trkpt lat="29.60189299319596" lon="106.31845797843515">
        <ele>254.7384033203125</ele>
        <time>2026-10-10T23:57:59Z</time>
      </trkpt>
      <trkpt lat="29.60189031868225" lon="106.31881210494278">
        <ele>255.48614501953125</ele>
        <time>2026-10-10T23:58:29Z</time>
      </trkpt>
      <trkpt lat="29.601882668013584" lon="106.31915426059997">
        <ele>253.69256591796875</ele>
        <time>2026-10-10T23:58:59Z</time>
      </trkpt>
      <trkpt lat="29.601889526867957" lon="106.31922708030521">
        <ele>254.674560546875</ele>
        <time>2026-10-10T23:59:05Z</time>
      </trkpt>
      <trkpt lat="29.60191638528218" lon="106.31929690616984">
        <ele>252.91748046875</ele>
        <time>2026-10-10T23:59:11Z</time>
      </trkpt>
      <trkpt lat="29.601939060122962" lon="106.31946349312587">
        <ele>252.075439453125</ele>
        <time>2026-10-10T23:59:23Z</time>
      </trkpt>
      <trkpt lat="29.60191637696523" lon="106.31982460163339">
        <ele>254.3690185546875</ele>
        <time>2026-10-10T23:59:53Z</time>
      </trkpt>
      <trkpt lat="29.601905235437762" lon="106.31990041477287">
        <ele>256.0152587890625</ele>
        <time>2026-10-11T00:00:02Z</time>
      </trkpt>
      <trkpt lat="29.601927104748313" lon="106.319965253042">
        <ele>255.023193359375</ele>
        <time>2026-10-11T00:00:08Z</time>
      </trkpt>
      <trkpt lat="29.60197201276473" lon="106.32000614913977">
        <ele>253.56317138671875</ele>
        <time>2026-10-11T00:00:14Z</time>
      </trkpt>
      <trkpt lat="29.602108959334725" lon="106.320012126068">
        <ele>257.06268310546875</ele>
        <time>2026-10-11T00:00:27Z</time>
      </trkpt>
      <trkpt lat="29.60220689117124" lon="106.32003207079357">
        <ele>257.05450439453125</ele>
        <time>2026-10-11T00:00:33Z</time>
      </trkpt>
      <trkpt lat="29.602244755561358" lon="106.32009690805721">
        <ele>254.46484375</ele>
        <time>2026-10-11T00:00:39Z</time>
      </trkpt>
      <trkpt lat="29.60225563774481" lon="106.32015675927413">
        <ele>253.5035400390625</ele>
        <time>2026-10-11T00:00:48Z</time>
      </trkpt>
      <trkpt lat="29.602284531575034" lon="106.32020763161043">
        <ele>255.162109375</ele>
        <time>2026-10-11T00:00:54Z</time>
      </trkpt>
      <trkpt lat="29.602329500628315" lon="106.32021660667462">
        <ele>254.8177490234375</ele>
        <time>2026-10-11T00:01:03Z</time>
      </trkpt>
      <trkpt lat="29.602329498720557" lon="106.32021760420554">
        <ele>254.8160400390625</ele>
        <time>2026-10-11T00:01:36Z</time>
      </trkpt>
    </trkseg>
  </trk>
</gpx>