<?xml version="1.0" encoding="UTF-8"?>
<gpx xmlns="http://www.topografix.com/GPX/1/1" xmlns:gpxtpx="http://www.garmin.com/xmlschemas/TrackPointExtension/v1" xmlns:xsi="http://www.w3.org/2001/XMLSchema-instance" xsi:schemaLocation="http://www.topografix.com/GPX/1/1 http://www.topografix.com/GPX/1/1/gpx.xsd" version="1.1" creator="gpx.py -- https://github.com/tkrajina/gpxpy">
  <trk>
    <name>gpx from keep</name>
    <type>Walk</type>
    <trkseg>
      <trkpt lat="29.602445291182928" lon="106.31978466841554">
        <ele>261.04815673828125</ele>
        <time>2026-08-24T22:35:48Z</time>
      </trkpt>
      <trkpt lat="29.602431592809065" lon="106.31962905406174">
        <ele>259.74267578125</ele>
        <time>2026-08-24T22:36:00Z</time>
      </trkpt>
      <trkpt lat="29.602443737775317" lon="106.31955124569387">
        <ele>260.27386474609375</ele>
        <time>2026-08-24T22:36:06Z</time>
      </trkpt>
      <trkpt lat="29.60249081485357" lon="106.31950336121724">
        <ele>260.82623291015625</ele>
        <time>2026-08-24T22:36:12Z</time>
      </trkpt>
      <trkpt lat="29.60255881691599" lon="106.31949138670426">
        <ele>263.22198486328125</ele>
        <time>2026-08-24T22:36:18Z</time>
      </trkpt>
      <trkpt lat="29.602761722462468" lon="106.3195083325467">
        <ele>262.5013427734375</ele>
        <time>2026-08-24T22:36:36Z</time>
      </trkpt>
      <trkpt lat="29.60282672165334" lon="106.31949835328368">
        <ele>263.1312255859375</ele>
        <time>2026-08-24T22:36:42Z</time>
      </trkpt>
      <trkpt lat="29.602887773510954" lon="106.31946144083061">
        <ele>262.7264404296875</ele>
        <time>2026-08-24T22:36:48Z</time>
      </trkpt>
      <trkpt lat="29.602931857229315" lon="106.31941056390905">
        <ele>259.78314208984375</ele>
        <time>2026-08-24T22:36:54Z</time>
      </trkpt>
      <trkpt lat="29.60293745556968" lon="106.31909633988376">
        <ele>257.0196533203125</ele>
        <time>2026-08-24T22:37:18Z</time>
      </trkpt>
      <trkpt lat="29.60292413921016" lon="106.31874021985278">
        <ele>258.1361083984375</ele>
        <time>2026-08-24T22:37:48Z</time>
      </trkpt>
      <trkpt lat="29.602935388808824" lon="106.31860754652122">
        <ele>258.79638671875</ele>
        <time>2026-08-24T22:38:00Z</time>
      </trkpt>
      <trkpt lat="29.602909691451952" lon="106.31845292943369">
        <ele>254.63818359375</ele>
        <time>2026-08-24T22:38:12Z</time>
      </trkpt>
      <trkpt lat="29.602907355520646" lon="106.31810478772195">
        <ele>255.64801025390625</ele>
        <time>2026-08-24T22:38:42Z</time>
      </trkpt>
      <trkpt lat="29.60292747095925" lon="106.3180409437948">
        <ele>255.194580078125</ele>
        <time>2026-08-24T22:38:48Z</time>
      </trkpt>
      <trkpt lat="29.602927192534406" lon="106.31766187714824">
        <ele>251.4891357421875</ele>
        <time>2026-08-24T22:39:18Z</time>
      </trkpt>
      <trkpt lat="29.602938858531672" lon="106.31730974259769">
        <ele>252.030517578125</ele>
        <time>2026-08-24T22:39:48Z</time>
      </trkpt>
      <trkpt lat="29.602903538208384" lon="106.31695761000275">
        <ele>252.25079345703125</ele>
        <time>2026-08-24T22:40:18Z</time>
      </trkpt>
      <trkpt lat="29.602883837709143" lon="106.31680299084033">
        <ele>252.95172119140625</ele>
        <time>2026-08-24T22:40:30Z</time>
      </trkpt>
      <trkpt lat="29.60289817018752" lon="106.31662542574075">
        <ele>254.147705078125</ele>
        <time>2026-08-24T22:40:42Z</time>
      </trkpt>
      <trkpt lat="29.60289032581139" lon="106.31654462443069">
        <ele>253.3450927734375</ele>
        <time>2026-08-24T22:40:48Z</time>
      </trkpt>
      <trkpt lat="29.60283857422843" lon="106.31642192844829">
        <ele>251.23541259765625</ele>
        <time>2026-08-24T22:41:00Z</time>
      </trkpt>
      <trkpt lat="29.602721664793926" lon="106.31639300641795">
        <ele>251.23779296875</ele>
        <time>2026-08-24T22:41:12Z</time>
      </trkpt>
      <trkpt lat="29.60265566418054" lon="106.31640398349161">
        <ele>252.263671875</ele>
        <time>2026-08-24T22:41:18Z</time>
      </trkpt>
      <trkpt lat="29.602541517573442" lon="106.31649975554379">
        <ele>252.1175537109375</ele>
        <time>2026-08-24T22:41:30Z</time>
      </trkpt>
      <trkpt lat="29.60252240426563" lon="106.31656260255298">
        <ele>245.5142822265625</ele>
        <time>2026-08-24T22:41:39Z</time>
      </trkpt>
      <trkpt lat="29.602533058536068" lon="106.31674315888881">
        <ele>245.890380859375</ele>
        <time>2026-08-24T22:41:51Z</time>
      </trkpt>
      <trkpt lat="29.602578455758884" lon="106.31705339436506">
        <ele>253.85186767578125</ele>
        <time>2026-08-24T22:42:15Z</time>
      </trkpt>
      <trkpt lat="29.602570166488714" lon="106.31720701738313">
        <ele>254.349365234375</ele>
        <time>2026-08-24T22:42:27Z</time>
      </trkpt>
      <trkpt lat="29.602550022908098" lon="106.31728582488827">
        <ele>254.09832763671875</ele>
        <time>2026-08-24T22:42:33Z</time>
      </trkpt>
      <trkpt lat="29.602460818889863" lon="106.31740753103297">
        <ele>254.25244140625</ele>
        <time>2026-08-24T22:42:45Z</time>
      </trkpt>
      <trkpt lat="29.602345702405543" lon="106.31748734169766">
        <ele>254.22271728515625</ele>
        <time>2026-08-24T22:42:57Z</time>
      </trkpt>
      <trkpt lat="29.602082640725097" lon="106.3175621735067">
        <ele>255.6688232421875</ele>
        <time>2026-08-24T22:43:21Z</time>
      </trkpt>
      <trkpt lat="29.601951667601636" lon="106.31756916422104">
        <ele>257.6688232421875</ele>
        <time>2026-08-24T22:43:33Z</time>
      </trkpt>
      <trkpt lat="29.60189061802354" lon="106.31760507954354">
        <ele>258.2275390625</ele>
        <time>2026-08-24T22:43:39Z</time>
      </trkpt>
      <trkpt lat="29.601842397498935" lon="106.31772877804234">
        <ele>255.7962646484375</ele>
        <time>2026-08-24T22:43:51Z</time>
      </trkpt>
      <trkpt lat="29.601859704769417" lon="106.31808988774576">
        <ele>254.46844482421875</ele>
        <time>2026-08-24T22:44:21Z</time>
      </trkpt>
      <trkpt lat="29.60184930128693" lon="106.31830336228838">
        <ele>254.89276123046875</ele>
        <time>2026-08-24T22:44:39Z</time>
      </trkpt>
      <trkpt lat="29.60188265211204" lon="106.31863853371058">
        <ele>253.6805419921875</ele>
        <time>2026-08-24T22:45:09Z</time>
      </trkpt>
      <trkpt lat="29.601878994756895" lon="106.31898368207364">
        <ele>252.14605712890625</ele>
        <time>2026-08-24T22:45:39Z</time>
      </trkpt>
      <trkpt lat="29.601892270744905" lon="106.31936074987331">
        <ele>260.0980224609375</ele>
        <time>2026-08-24T22:46:09Z</time>
      </trkpt>
      <trkpt lat="29.60185613891773" lon="106.31943556716116">
        <ele>260.962646484375</ele>
        <time>2026-08-24T22:46:15Z</time>
      </trkpt>
      <trkpt lat="29.601848691371096" lon="106.3196709856315">
        <ele>261.9432373046875</ele>
        <time>2026-08-24T22:46:33Z</time>
      </trkpt>
      <trkpt lat="29.601868410749137" lon="106.31981462920037">
        <ele>262.3758544921875</ele>
        <time>2026-08-24T22:46:45Z</time>
      </trkpt>
      <trkpt lat="29.601861115452806" lon="106.31997024468309">
        <ele>262.5975341796875</ele>
        <time>2026-08-24T22:46:57Z</time>
      </trkpt>
      <trkpt lat="29.601877993908936" lon="106.32003109310547">
        <ele>261.1307373046875</ele>
        <time>2026-08-24T22:47:03Z</time>
      </trkpt>
      <trkpt lat="29.60192396836022" lon="106.32003707552163">
        <ele>260.746826171875</ele>
        <time>2026-08-24T22:47:06Z</time>
      </trkpt>
      <trkpt lat="29.602060214616497" lon="106.31988643997057">
        <ele>258.966552734375</ele>
        <time>2026-08-24T22:47:21Z</time>
      </trkpt>
      <trkpt lat="29.60222022279766" lon="106.31985650434483">
        <ele>262.0126953125</ele>
        <time>2026-08-24T22:47:39Z</time>
      </trkpt>
      <trkpt lat="29.602356175437475" lon="106.31985948874026">
        <ele>260.62109375</ele>
        <time>2026-08-24T22:47:51Z</time>
      </trkpt>
      <trkpt lat="29.602409199253284" lon="106.3198385373585">
        <ele>258.59918212890625</ele>
        <time>2026-08-24T22:47:57Z</time>
      </trkpt>
      <trkpt lat="29.602436318718695" lon="106.3197717010297">
        <ele>256.2264404296875</ele>
        <time>2026-08-24T22:48:03Z</time>
      </trkpt>
      <trkpt lat="29.60243658937328" lon="106.31963005129391">
        <ele>257.2310791015625</ele>
        <time>2026-08-24T22:48:15Z</time>
      </trkpt>
      <trkpt lat="29.60245772015311" lon="106.31955822758817">
        <ele>258.81494140625</ele>
        <time>2026-08-24T22:48:21Z</time>
      </trkpt>
      <trkpt lat="29.60251077824983" lon="106.31951932055992">
        <ele>258.8702392578125</ele>
        <time>2026-08-24T22:48:27Z</time>
      </trkpt>
      <trkpt lat="29.602787666882918" lon="106.31953326933483">
        <ele>258.519287109375</ele>
        <time>2026-08-24T22:48:51Z</time>
      </trkpt>
      <trkpt lat="29.602865700212064" lon="106.31950333860354">
        <ele>258.271728515625</ele>
        <time>2026-08-24T22:48:57Z</time>
      </trkpt>
      <trkpt lat="29.602916808470447" lon="106.31943849578603">
        <ele>257.0067138671875</ele>
        <time>2026-08-24T22:49:03Z</time>
      </trkpt>
      <trkpt lat="29.60294344992986" lon="106.31909833459494">
        <ele>252.18377685546875</ele>
        <time>2026-08-24T22:49:27Z</time>
      </trkpt>
      <trkpt lat="29.602960616057366" lon="106.31900855526617">
        <ele>251.49212646484375</ele>
        <time>2026-08-24T22:49:33Z</time>
      </trkpt>
      <trkpt lat="29.602956786661657" lon="106.31891977469625">
        <ele>251.3218994140625</ele>
        <time>2026-08-24T22:49:39Z</time>
      </trkpt>
      <trkpt lat="29.602976942293637" lon="106.31883498278683">
        <ele>251.33392333984375</ele>
        <time>2026-08-24T22:49:45Z</time>
      </trkpt>
      <trkpt lat="29.603000446924135" lon="106.31856664348886">
        <ele>252.81610107421875</ele>
        <time>2026-08-24T22:50:03Z</time>
      </trkpt>
      <trkpt lat="29.602960941965577" lon="106.31831327067636">
        <ele>249.9197998046875</ele>
        <time>2026-08-24T22:50:21Z</time>
      </trkpt>
      <trkpt lat="29.60296408545992" lon="106.31823745736013">
        <ele>249.0830078125</ele>
        <time>2026-08-24T22:50:27Z</time>
      </trkpt>
      <trkpt lat="29.602895349689284" lon="106.31810977615672">
        <ele>250.10009765625</ele>
        <time>2026-08-24T22:50:39Z</time>
      </trkpt>
      <trkpt lat="29.602898675389792" lon="106.3179381986071">
        <ele>252.193603515625</ele>
        <time>2026-08-24T22:50:51Z</time>
      </trkpt>
      <trkpt lat="29.6029337956856" lon="106.31786936598826">
        <ele>251.9022216796875</ele>
        <time>2026-08-24T22:50:57Z</time>
      </trkpt>
      <trkpt lat="29.602951378684057" lon="106.31756012605454">
        <ele>251.57952880859375</ele>
        <time>2026-08-24T22:51:21Z</time>
      </trkpt>
      <trkpt lat="29.602951095520293" lon="106.31718305326667">
        <ele>253.4542236328125</ele>
        <time>2026-08-24T22:51:51Z</time>
      </trkpt>
      <trkpt lat="29.60296637506114" lon="106.31703342000036">
        <ele>249.69879150390625</ele>
        <time>2026-08-24T22:52:03Z</time>
      </trkpt>
      <trkpt lat="29.6029640005948" lon="106.31670422840305">
        <ele>249.375244140625</ele>
        <time>2026-08-24T22:52:28Z</time>
      </trkpt>
      <trkpt lat="29.602962165771796" lon="106.31661744146433">
        <ele>250.37841796875</ele>
        <time>2026-08-24T22:52:34Z</time>
      </trkpt>
      <trkpt lat="29.6029054554663" lon="106.3164737972237">
        <ele>252.14630126953125</ele>
        <time>2026-08-24T22:52:46Z</time>
      </trkpt>
      <trkpt lat="29.602854561779665" lon="106.31642591770162">
        <ele>251.73223876953125</ele>
        <time>2026-08-24T22:52:52Z</time>
      </trkpt>
      <trkpt lat="29.602721683693108" lon="106.31638303087273">
        <ele>251.52789306640625</ele>
        <time>2026-08-24T22:53:04Z</time>
      </trkpt>
      <trkpt lat="29.602650692168893" lon="106.31639001803039">
        <ele>251.90460205078125</ele>
        <time>2026-08-24T22:53:10Z</time>
      </trkpt>
      <trkpt lat="29.602547527081672" lon="106.31649376986036">
        <ele>250.285400390625</ele>
        <time>2026-08-24T22:53:22Z</time>
      </trkpt>
      <trkpt lat="29.602513251938422" lon="106.31664440242909">
        <ele>248.791748046875</ele>
        <time>2026-08-24T22:53:34Z</time>
      </trkpt>
      <trkpt lat="29.60252288939416" lon="106.31683393667308">
        <ele>252.09185791015625</ele>
        <time>2026-08-24T22:53:46Z</time>
      </trkpt>
      <trkpt lat="29.60257842545679" lon="106.31706935515598">
        <ele>256.7293701171875</ele>
        <time>2026-08-24T22:54:01Z</time>
      </trkpt>
      <trkpt lat="29.602568104572587" lon="106.31723993659644">
        <ele>256.9439697265625</ele>
        <time>2026-08-24T22:54:13Z</time>
      </trkpt>
      <trkpt lat="29.60251986339724" lon="106.31737460842437">
        <ele>253.90533447265625</ele>
        <time>2026-08-24T22:54:25Z</time>
      </trkpt>
      <trkpt lat="29.602448750518118" lon="106.31744543853597">
        <ele>254.4215087890625</ele>
        <time>2026-08-24T22:54:31Z</time>
      </trkpt>
      <trkpt lat="29.602374691632516" lon="106.31748833749678">
        <ele>253.41265869140625</ele>
        <time>2026-08-24T22:54:37Z</time>
      </trkpt>
      <trkpt lat="29.60205568882664" lon="106.31754122666771">
        <ele>255.324462890625</ele>
        <time>2026-08-24T22:55:01Z</time>
      </trkpt>
      <trkpt lat="29.60191067448288" lon="106.31757215932898">
        <ele>255.61602783203125</ele>
        <time>2026-08-24T22:55:13Z</time>
      </trkpt>
      <trkpt lat="29.601870603291662" lon="106.31761605375014">
        <ele>254.9840087890625</ele>
        <time>2026-08-24T22:55:19Z</time>
      </trkpt>
      <trkpt lat="29.60189717567572" lon="106.31783650952781">
        <ele>252.8446044921875</ele>
        <time>2026-08-24T22:55:37Z</time>
      </trkpt>
      <trkpt lat="29.60186553577625" lon="106.31817767109504">
        <ele>253.28070068359375</ele>
        <time>2026-08-24T22:56:01Z</time>
      </trkpt>
      <trkpt lat="29.60187021313046" lon="106.31834625528477">
        <ele>254.792236328125</ele>
        <time>2026-08-24T22:56:13Z</time>
      </trkpt>
      <trkpt lat="29.601886926597768" lon="106.31849389023893">
        <ele>253.49334716796875</ele>
        <time>2026-08-24T22:56:25Z</time>
      </trkpt>
      <trkpt lat="29.601871780993754" lon="106.31857269678066">
        <ele>252.1990966796875</ele>
        <time>2026-08-24T22:56:31Z</time>
      </trkpt>
      <trkpt lat="29.601878080705976" lon="106.31893879295781">
        <ele>249.0162353515625</ele>
        <time>2026-08-24T22:57:01Z</time>
      </trkpt>
      <trkpt lat="29.60186060431172" lon="106.31919117076163">
        <ele>254.11456298828125</ele>
        <time>2026-08-24T22:57:19Z</time>
      </trkpt>
      <trkpt lat="29.60186847237044" lon="106.3192590027141">
        <ele>255.39251708984375</ele>
        <time>2026-08-24T22:57:25Z</time>
      </trkpt>
      <trkpt lat="29.60191235032227" lon="106.31931585958311">
        <ele>255.308837890625</ele>
        <time>2026-08-24T22:57:31Z</time>
      </trkpt>
      <trkpt lat="29.601932033691543" lon="106.31947845656572">
        <ele>256.50543212890625</ele>
        <time>2026-08-24T22:57:43Z</time>
      </trkpt>
      <trkpt lat="29.601903390483727" lon="106.31981961475354">
        <ele>258.76336669921875</ele>
        <time>2026-08-24T22:58:13Z</time>
      </trkpt>
      <trkpt lat="29.601904132776852" lon="106.31995428157589">
        <ele>258.58349609375</ele>
        <time>2026-08-24T22:58:25Z</time>
      </trkpt>
      <trkpt lat="29.601928039603987" lon="106.31999916907017">
        <ele>256.0859375</ele>
        <time>2026-08-24T22:58:31Z</time>
      </trkpt>
      <trkpt lat="29.602004004862472" lon="106.32000514967781">
        <ele>253.69671630859375</ele>
        <time>2026-08-24T22:58:37Z</time>
      </trkpt>
      <trkpt lat="29.602201074173905" lon="106.31993730561585">
        <ele>252.58917236328125</ele>
        <time>2026-08-24T22:58:55Z</time>
      </trkpt>
      <trkpt lat="29.60229065182596" lon="106.32014378925693">
        <ele>251.25970458984375</ele>
        <time>2026-08-24T22:59:13Z</time>
      </trkpt>
      <trkpt lat="29.60235361727894" lon="106.3201517657068">
        <ele>251.7056884765625</ele>
        <time>2026-08-24T22:59:19Z</time>
      </trkpt>
    </trkseg>
  </trk>
</gpx>