<?xml version="1.0" encoding="UTF-8"?>
<gpx xmlns="http://www.topografix.com/GPX/1/1" xmlns:gpxtpx="http://www.garmin.com/xmlschemas/TrackPointExtension/v1" xmlns:xsi="http://www.w3.org/2001/XMLSchema-instance" xsi:schemaLocation="http://www.topografix.com/GPX/1/1 http://www.topografix.com/GPX/1/1/gpx.xsd" version="1.1" creator="gpx.py -- https://github.com/tkrajina/gpxpy">
  <trk>
    <name>gpx from keep</name>
    <type>Walk</type>
    <trkseg>
      <trkpt lat="29.602465250749113" lon="106.31980262280148">
        <ele>248.05755615234375</ele>
        <time>2026-08-15T23:11:58Z</time>
      </trkpt>
      <trkpt lat="29.602465384186996" lon="106.31973279548991">
        <ele>252.47906494140625</ele>
        <time>2026-08-15T23:12:04Z</time>
      </trkpt>
      <trkpt lat="29.60243066553135" lon="106.31959114783766">
        <ele>256.8236083984375</ele>
        <time>2026-08-15T23:12:16Z</time>
      </trkpt>
      <trkpt lat="29.60245777731651" lon="106.31952830156409">
        <ele>258.6966552734375</ele>
        <time>2026-08-15T23:12:22Z</time>
      </trkpt>
      <trkpt lat="29.60251081064038" lon="106.31950236247684">
        <ele>258.828369140625</ele>
        <time>2026-08-15T23:12:28Z</time>
      </trkpt>
      <trkpt lat="29.602654722778716" lon="106.31952529708165">
        <ele>254.76861572265625</ele>
        <time>2026-08-15T23:12:40Z</time>
      </trkpt>
      <trkpt lat="29.602841718975775" lon="106.31949735484477">
        <ele>256.39739990234375</ele>
        <time>2026-08-15T23:12:59Z</time>
      </trkpt>
      <trkpt lat="29.602904791179775" lon="106.3194494693906">
        <ele>254.70196533203125</ele>
        <time>2026-08-15T23:13:04Z</time>
      </trkpt>
      <trkpt lat="29.60293488107714" lon="106.31939759577527">
        <ele>253.4105224609375</ele>
        <time>2026-08-15T23:13:10Z</time>
      </trkpt>
      <trkpt lat="29.602911440665554" lon="106.31910831188871">
        <ele>256.1597900390625</ele>
        <time>2026-08-15T23:13:34Z</time>
      </trkpt>
      <trkpt lat="29.602930589054456" lon="106.31902751027609">
        <ele>253.9068603515625</ele>
        <time>2026-08-15T23:13:40Z</time>
      </trkpt>
      <trkpt lat="29.602933269606957" lon="106.31867039160284">
        <ele>259.29046630859375</ele>
        <time>2026-08-15T23:14:07Z</time>
      </trkpt>
      <trkpt lat="29.602921708697085" lon="106.31844195576811">
        <ele>255.93853759765625</ele>
        <time>2026-08-15T23:14:25Z</time>
      </trkpt>
      <trkpt lat="29.602872164856116" lon="106.31821052928255">
        <ele>258.35418701171875</ele>
        <time>2026-08-15T23:14:43Z</time>
      </trkpt>
      <trkpt lat="29.602912593270393" lon="106.31797909703712">
        <ele>255.338623046875</ele>
        <time>2026-08-15T23:15:01Z</time>
      </trkpt>
      <trkpt lat="29.60294871897049" lon="106.31790727174561">
        <ele>252.52520751953125</ele>
        <time>2026-08-15T23:15:07Z</time>
      </trkpt>
      <trkpt lat="29.602916444372184" lon="106.31753119932918">
        <ele>257.1845703125</ele>
        <time>2026-08-15T23:15:37Z</time>
      </trkpt>
      <trkpt lat="29.60291573097953" lon="106.31738056984868">
        <ele>257.7384033203125</ele>
        <time>2026-08-15T23:15:49Z</time>
      </trkpt>
      <trkpt lat="29.602979982455484" lon="106.31723791667876">
        <ele>252.65679931640625</ele>
        <time>2026-08-15T23:16:01Z</time>
      </trkpt>
      <trkpt lat="29.6030300581365" lon="106.31719003134694">
        <ele>251.32220458984375</ele>
        <time>2026-08-15T23:16:07Z</time>
      </trkpt>
      <trkpt lat="29.603045172906018" lon="106.31712718487398">
        <ele>245.51629638671875</ele>
        <time>2026-08-15T23:16:13Z</time>
      </trkpt>
      <trkpt lat="29.602996803198987" lon="106.31680298403373">
        <ele>243.55059814453125</ele>
        <time>2026-08-15T23:16:37Z</time>
      </trkpt>
      <trkpt lat="29.602986101701255" lon="106.31664736659741">
        <ele>245.4075927734375</ele>
        <time>2026-08-15T23:16:49Z</time>
      </trkpt>
      <trkpt lat="29.602967241783563" lon="106.3165765414946">
        <ele>247.64361572265625</ele>
        <time>2026-08-15T23:16:55Z</time>
      </trkpt>
      <trkpt lat="29.602878463713676" lon="106.31647379884981">
        <ele>250.598876953125</ele>
        <time>2026-08-15T23:17:07Z</time>
      </trkpt>
      <trkpt lat="29.602698647254655" lon="106.31640597601073">
        <ele>251.22314453125</ele>
        <time>2026-08-15T23:17:25Z</time>
      </trkpt>
      <trkpt lat="29.60264562754634" lon="106.3164249327345">
        <ele>250.63250732421875</ele>
        <time>2026-08-15T23:17:31Z</time>
      </trkpt>
      <trkpt lat="29.60252438663477" lon="106.31657158041074">
        <ele>251.80865478515625</ele>
        <time>2026-08-15T23:17:49Z</time>
      </trkpt>
      <trkpt lat="29.60250126128386" lon="106.31664141049419">
        <ele>253.6474609375</ele>
        <time>2026-08-15T23:17:55Z</time>
      </trkpt>
      <trkpt lat="29.60252983615106" lon="106.31686087012868">
        <ele>254.53045654296875</ele>
        <time>2026-08-15T23:18:13Z</time>
      </trkpt>
      <trkpt lat="29.602576539693896" lon="106.3170095023009">
        <ele>257.2919921875</ele>
        <time>2026-08-15T23:18:25Z</time>
      </trkpt>
      <trkpt lat="29.60258239961195" lon="106.31708232305628">
        <ele>256.0418701171875</ele>
        <time>2026-08-15T23:18:31Z</time>
      </trkpt>
      <trkpt lat="29.602564107690856" lon="106.31723893928927">
        <ele>253.5633544921875</ele>
        <time>2026-08-15T23:18:43Z</time>
      </trkpt>
      <trkpt lat="29.602511873426895" lon="106.31737061871749">
        <ele>253.3568115234375</ele>
        <time>2026-08-15T23:18:55Z</time>
      </trkpt>
      <trkpt lat="29.602417720187574" lon="106.31746638888316">
        <ele>253.15911865234375</ele>
        <time>2026-08-15T23:19:07Z</time>
      </trkpt>
      <trkpt lat="29.602133581475478" lon="106.3175851139881">
        <ele>256.44171142578125</ele>
        <time>2026-08-15T23:19:37Z</time>
      </trkpt>
      <trkpt lat="29.601999609262716" lon="106.31759210488218">
        <ele>260.4921875</ele>
        <time>2026-08-15T23:19:49Z</time>
      </trkpt>
      <trkpt lat="29.6018865433731" lon="106.31764498160439">
        <ele>259.81536865234375</ele>
        <time>2026-08-15T23:20:01Z</time>
      </trkpt>
      <trkpt lat="29.601854460226395" lon="106.3176938632472">
        <ele>260.55224609375</ele>
        <time>2026-08-15T23:20:07Z</time>
      </trkpt>
      <trkpt lat="29.601842365241353" lon="106.31774573630297">
        <ele>259.85205078125</ele>
        <time>2026-08-15T23:20:13Z</time>
      </trkpt>
      <trkpt lat="29.601869114032834" lon="106.31787342034173">
        <ele>257.384521484375</ele>
        <time>2026-08-15T23:20:25Z</time>
      </trkpt>
      <trkpt lat="29.60186299248001" lon="106.31793826103933">
        <ele>256.296630859375</ele>
        <time>2026-08-15T23:20:31Z</time>
      </trkpt>
      <trkpt lat="29.601890761733287" lon="106.31805497188805">
        <ele>254.9464111328125</ele>
        <time>2026-08-15T23:20:43Z</time>
      </trkpt>
      <trkpt lat="29.601889066656522" lon="106.31842007214554">
        <ele>252.3062744140625</ele>
        <time>2026-08-15T23:21:13Z</time>
      </trkpt>
      <trkpt lat="29.60188861033357" lon="106.31865948166858">
        <ele>253.33447265625</ele>
        <time>2026-08-15T23:21:31Z</time>
      </trkpt>
      <trkpt lat="29.60187995257756" lon="106.31900562782869">
        <ele>253.86785888671875</ele>
        <time>2026-08-15T23:22:01Z</time>
      </trkpt>
      <trkpt lat="29.601885419546598" lon="106.31928394007807">
        <ele>252.37274169921875</ele>
        <time>2026-08-15T23:22:25Z</time>
      </trkpt>
      <trkpt lat="29.601912298897034" lon="106.31934279303493">
        <ele>252.2584228515625</ele>
        <time>2026-08-15T23:22:31Z</time>
      </trkpt>
      <trkpt lat="29.601881603104953" lon="106.31971188251126">
        <ele>258.2965087890625</ele>
        <time>2026-08-15T23:23:01Z</time>
      </trkpt>
      <trkpt lat="29.601896058951443" lon="106.31999418334048">
        <ele>257.17156982421875</ele>
        <time>2026-08-15T23:23:25Z</time>
      </trkpt>
      <trkpt lat="29.60193395957256" lon="106.32004006751372">
        <ele>256.627685546875</ele>
        <time>2026-08-15T23:23:31Z</time>
      </trkpt>
      <trkpt lat="29.602048117235896" lon="106.31993930990816">
        <ele>255.00946044921875</ele>
        <time>2026-08-15T23:23:43Z</time>
      </trkpt>
      <trkpt lat="29.60218214482416" lon="106.31990339066367">
        <ele>253.7606201171875</ele>
        <time>2026-08-15T23:23:55Z</time>
      </trkpt>
      <trkpt lat="29.60222718824176" lon="106.31987346197617">
        <ele>255.9700927734375</ele>
        <time>2026-08-15T23:24:01Z</time>
      </trkpt>
      <trkpt lat="29.602359136386998" lon="106.31987943921004">
        <ele>255.98779296875</ele>
        <time>2026-08-15T23:24:13Z</time>
      </trkpt>
      <trkpt lat="29.60241516881917" lon="106.31985349998631">
        <ele>254.2593994140625</ele>
        <time>2026-08-15T23:24:19Z</time>
      </trkpt>
      <trkpt lat="29.602448410355848" lon="106.31972182364974">
        <ele>254.76239013671875</ele>
        <time>2026-08-15T23:24:31Z</time>
      </trkpt>
      <trkpt lat="29.602442558950425" lon="106.31964501393703">
        <ele>254.6927490234375</ele>
        <time>2026-08-15T23:24:37Z</time>
      </trkpt>
      <trkpt lat="29.602466707871816" lon="106.31956321471567">
        <ele>254.8843994140625</ele>
        <time>2026-08-15T23:24:44Z</time>
      </trkpt>
      <trkpt lat="29.602524754913407" lon="106.31952929505798">
        <ele>255.0506591796875</ele>
        <time>2026-08-15T23:24:50Z</time>
      </trkpt>
      <trkpt lat="29.60279564538404" lon="106.31954324419392">
        <ele>254.52581787109375</ele>
        <time>2026-08-15T23:25:14Z</time>
      </trkpt>
      <trkpt lat="29.602859677275795" lon="106.3195163069112">
        <ele>251.42315673828125</ele>
        <time>2026-08-15T23:25:20Z</time>
      </trkpt>
      <trkpt lat="29.602907790263465" lon="106.3194494692097">
        <ele>252.01629638671875</ele>
        <time>2026-08-15T23:25:26Z</time>
      </trkpt>
      <trkpt lat="29.602925348812114" lon="106.31915419771367">
        <ele>252.51055908203125</ele>
        <time>2026-08-15T23:25:50Z</time>
      </trkpt>
      <trkpt lat="29.602959625879492" lon="106.31900356764162">
        <ele>252.00860595703125</ele>
        <time>2026-08-15T23:26:02Z</time>
      </trkpt>
      <trkpt lat="29.60296333842066" lon="106.31862949069539">
        <ele>252.45196533203125</ele>
        <time>2026-08-15T23:26:32Z</time>
      </trkpt>
      <trkpt lat="29.60291375105852" lon="106.318421007904">
        <ele>251.5438232421875</ele>
        <time>2026-08-15T23:26:50Z</time>
      </trkpt>
      <trkpt lat="29.602914433150136" lon="106.31806289051681">
        <ele>255.06964111328125</ele>
        <time>2026-08-15T23:27:20Z</time>
      </trkpt>
      <trkpt lat="29.60294314591007" lon="106.31768382217734">
        <ele>254.51373291015625</ele>
        <time>2026-08-15T23:27:50Z</time>
      </trkpt>
      <trkpt lat="29.6029707445123" lon="106.31736460577964">
        <ele>255.5224609375</ele>
        <time>2026-08-15T23:28:14Z</time>
      </trkpt>
      <trkpt lat="29.602968024015933" lon="106.31721796643723">
        <ele>254.78533935546875</ele>
        <time>2026-08-15T23:28:26Z</time>
      </trkpt>
      <trkpt lat="29.60296960135112" lon="106.31691371381186">
        <ele>247.7659912109375</ele>
        <time>2026-08-15T23:28:50Z</time>
      </trkpt>
      <trkpt lat="29.60294621415644" lon="106.31659449871307">
        <ele>249.42352294921875</ele>
        <time>2026-08-15T23:29:14Z</time>
      </trkpt>
      <trkpt lat="29.602885457794486" lon="106.31647579353591">
        <ele>252.52880859375</ele>
        <time>2026-08-15T23:29:26Z</time>
      </trkpt>
      <trkpt lat="29.602774622135563" lon="106.316406968988">
        <ele>252.91754150390625</ele>
        <time>2026-08-15T23:29:38Z</time>
      </trkpt>
      <trkpt lat="29.602711650840835" lon="106.31640198501023">
        <ele>253.328125</ele>
        <time>2026-08-15T23:29:44Z</time>
      </trkpt>
      <trkpt lat="29.602648639859943" lon="106.31641794967399">
        <ele>253.340576171875</ele>
        <time>2026-08-15T23:29:50Z</time>
      </trkpt>
      <trkpt lat="29.602521359186305" lon="106.31658654388703">
        <ele>253.34649658203125</ele>
        <time>2026-08-15T23:30:08Z</time>
      </trkpt>
      <trkpt lat="29.602505070885556" lon="106.31674116547174">
        <ele>255.675048828125</ele>
        <time>2026-08-15T23:30:20Z</time>
      </trkpt>
      <trkpt lat="29.602589482695432" lon="106.31703743290963">
        <ele>255.90496826171875</ele>
        <time>2026-08-15T23:30:44Z</time>
      </trkpt>
      <trkpt lat="29.602589022350774" lon="106.31727983725159">
        <ele>255.243896484375</ele>
        <time>2026-08-15T23:31:02Z</time>
      </trkpt>
      <trkpt lat="29.602570891395136" lon="106.31735166176422">
        <ele>255.5767822265625</ele>
        <time>2026-08-15T23:31:08Z</time>
      </trkpt>
      <trkpt lat="29.602451692718248" lon="106.31747536475345">
        <ele>256.520751953125</ele>
        <time>2026-08-15T23:31:20Z</time>
      </trkpt>
      <trkpt lat="29.602160675619196" lon="106.31753124488033">
        <ele>257.94049072265625</ele>
        <time>2026-08-15T23:31:44Z</time>
      </trkpt>
      <trkpt lat="29.601956679345033" lon="106.3175621810985">
        <ele>258.60302734375</ele>
        <time>2026-08-15T23:32:02Z</time>
      </trkpt>
      <trkpt lat="29.60190062823461" lon="106.31759809612143">
        <ele>260.1474609375</ele>
        <time>2026-08-15T23:32:08Z</time>
      </trkpt>
      <trkpt lat="29.601878538238317" lon="106.31764897226782">
        <ele>259.20654296875</ele>
        <time>2026-08-15T23:32:14Z</time>
      </trkpt>
      <trkpt lat="29.60189511365207" lon="106.31786942859955">
        <ele>257.5340576171875</ele>
        <time>2026-08-15T23:32:32Z</time>
      </trkpt>
      <trkpt lat="29.60189143281296" lon="106.31822754661485">
        <ele>255.7144775390625</ele>
        <time>2026-08-15T23:33:02Z</time>
      </trkpt>
      <trkpt lat="29.60191601275639" lon="106.3184440114859">
        <ele>253.9615478515625</ele>
        <time>2026-08-15T23:33:20Z</time>
      </trkpt>
      <trkpt lat="29.601893753330287" lon="106.31858366838848">
        <ele>252.130615234375</ele>
        <time>2026-08-15T23:33:32Z</time>
      </trkpt>
      <trkpt lat="29.601894498177376" lon="106.3187173385574">
        <ele>252.30426025390625</ele>
        <time>2026-08-15T23:33:44Z</time>
      </trkpt>
      <trkpt lat="29.601871084755807" lon="106.31893779584244">
        <ele>252.83172607421875</ele>
        <time>2026-08-15T23:34:02Z</time>
      </trkpt>
      <trkpt lat="29.60187854166667" lon="106.31922109575358">
        <ele>252.90777587890625</ele>
        <time>2026-08-15T23:34:26Z</time>
      </trkpt>
      <trkpt lat="29.60192825780124" lon="106.3193617452377">
        <ele>254.985595703125</ele>
        <time>2026-08-15T23:34:38Z</time>
      </trkpt>
      <trkpt lat="29.601938578002454" lon="106.31971586920697">
        <ele>258.9998779296875</ele>
        <time>2026-08-15T23:35:08Z</time>
      </trkpt>
      <trkpt lat="29.601952978540364" lon="106.32002709845467">
        <ele>258.027587890625</ele>
        <time>2026-08-15T23:35:32Z</time>
      </trkpt>
      <trkpt lat="29.60199996031798" lon="106.32002909068348">
        <ele>255.10595703125</ele>
        <time>2026-08-15T23:35:38Z</time>
      </trkpt>
      <trkpt lat="29.602087162488413" lon="106.31990938158751">
        <ele>254.8302001953125</ele>
        <time>2026-08-15T23:35:50Z</time>
      </trkpt>
      <trkpt lat="29.6023790940385" lon="106.31989839112019">
        <ele>255.8114013671875</ele>
        <time>2026-08-15T23:36:20Z</time>
      </trkpt>
      <trkpt lat="29.60242514288006" lon="106.31986546977417">
        <ele>254.8992919921875</ele>
        <time>2026-08-15T23:36:26Z</time>
      </trkpt>
      <trkpt lat="29.602447256256706" lon="106.31980262388706">
        <ele>254.9384765625</ele>
        <time>2026-08-15T23:36:32Z</time>
      </trkpt>
      <trkpt lat="29.602423538082725" lon="106.31965898055313">
        <ele>256.452880859375</ele>
        <time>2026-08-15T23:36:44Z</time>
      </trkpt>
      <trkpt lat="29.602445674280624" lon="106.31958416419567">
        <ele>256.41217041015625</ele>
        <time>2026-08-15T23:36:50Z</time>
      </trkpt>
      <trkpt lat="29.602512703326237" lon="106.31955822427145">
        <ele>254.767578125</ele>
        <time>2026-08-15T23:36:56Z</time>
      </trkpt>
      <trkpt lat="29.60279864256189" lon="106.31954424154713">
        <ele>253.57647705078125</ele>
        <time>2026-08-15T23:37:20Z</time>
      </trkpt>
      <trkpt lat="29.60286664465135" lon="106.3195322670366">
        <ele>252.218505859375</ele>
        <time>2026-08-15T23:37:26Z</time>
      </trkpt>
      <trkpt lat="29.602907721677536" lon="106.31948538045208">
        <ele>252.59259033203125</ele>
        <time>2026-08-15T23:37:32Z</time>
      </trkpt>
      <trkpt lat="29.602940846860886" lon="106.31941455350551">
        <ele>252.71929931640625</ele>
        <time>2026-08-15T23:37:38Z</time>
      </trkpt>
      <trkpt lat="29.602938150618208" lon="106.31925594559021">
        <ele>253.13671875</ele>
        <time>2026-08-15T23:37:50Z</time>
      </trkpt>
      <trkpt lat="29.602947757058608" lon="106.31893673337473">
        <ele>252.18756103515625</ele>
        <time>2026-08-15T23:38:14Z</time>
      </trkpt>
      <trkpt lat="29.602956919860908" lon="106.3188499470609">
        <ele>251.02655029296875</ele>
        <time>2026-08-15T23:38:20Z</time>
      </trkpt>
      <trkpt lat="29.602936223043265" lon="106.31869433235343">
        <ele>251.1741943359375</ele>
        <time>2026-08-15T23:38:32Z</time>
      </trkpt>
      <trkpt lat="29.602948356313448" lon="106.31862250882564">
        <ele>250.254150390625</ele>
        <time>2026-08-15T23:38:38Z</time>
      </trkpt>
      <trkpt lat="29.60293352062293" lon="106.31853871641957">
        <ele>252.558349609375</ele>
        <time>2026-08-15T23:38:44Z</time>
      </trkpt>
      <trkpt lat="29.602940187781204" lon="106.31818758172433">
        <ele>253.03033447265625</ele>
        <time>2026-08-15T23:39:14Z</time>
      </trkpt>
      <trkpt lat="29.60295171805434" lon="106.31790727156482">
        <ele>250.3868408203125</ele>
        <time>2026-08-15T23:39:38Z</time>
      </trkpt>
      <trkpt lat="29.602911250538494" lon="106.31763394684353">
        <ele>256.8309326171875</ele>
        <time>2026-08-15T23:40:02Z</time>
      </trkpt>
      <trkpt lat="29.602930906459456" lon="106.31728580193413">
        <ele>256.0673828125</ele>
        <time>2026-08-15T23:40:32Z</time>
      </trkpt>
      <trkpt lat="29.602940165185824" lon="106.31714813972587">
        <ele>254.874755859375</ele>
        <time>2026-08-15T23:40:44Z</time>
      </trkpt>
      <trkpt lat="29.60292987853612" lon="106.31677405907777">
        <ele>254.60430908203125</ele>
        <time>2026-08-15T23:41:14Z</time>
      </trkpt>
      <trkpt lat="29.602942179444693" lon="106.31661345245794">
        <ele>253.28466796875</ele>
        <time>2026-08-15T23:41:26Z</time>
      </trkpt>
      <trkpt lat="29.602895420710716" lon="106.31649374890135">
        <ele>254.38330078125</ele>
        <time>2026-08-15T23:41:38Z</time>
      </trkpt>
      <trkpt lat="29.602792582613343" lon="106.31642492388139">
        <ele>254.899169921875</ele>
        <time>2026-08-15T23:41:50Z</time>
      </trkpt>
      <trkpt lat="29.602672645752815" lon="106.31641096534838">
        <ele>255.03515625</ele>
        <time>2026-08-15T23:42:02Z</time>
      </trkpt>
      <trkpt lat="29.602567526636115" lon="106.3164907759947">
        <ele>254.43310546875</ele>
        <time>2026-08-15T23:42:14Z</time>
      </trkpt>
      <trkpt lat="29.602503304173794" lon="106.31661846666273">
        <ele>254.825927734375</ele>
        <time>2026-08-15T23:42:26Z</time>
      </trkpt>
      <trkpt lat="29.60249103543448" lon="106.3167621149013">
        <ele>254.06121826171875</ele>
        <time>2026-08-15T23:42:38Z</time>
      </trkpt>
      <trkpt lat="29.602590330871976" lon="106.31711723679474">
        <ele>253.52081298828125</ele>
        <time>2026-08-15T23:43:08Z</time>
      </trkpt>
      <trkpt lat="29.602519876666342" lon="106.31736762559377">
        <ele>252.10015869140625</ele>
        <time>2026-08-15T23:43:26Z</time>
      </trkpt>
      <trkpt lat="29.602329699718663" lon="106.31749133284731">
        <ele>253.1424560546875</ele>
        <time>2026-08-15T23:43:44Z</time>
      </trkpt>
      <trkpt lat="29.60205072828773" lon="106.31752127604638">
        <ele>255.9051513671875</ele>
        <time>2026-08-15T23:44:08Z</time>
      </trkpt>
      <trkpt lat="29.601981707715282" lon="106.31754322621848">
        <ele>255.7042236328125</ele>
        <time>2026-08-15T23:44:14Z</time>
      </trkpt>
      <trkpt lat="29.6019436017721" lon="106.31760507635012">
        <ele>257.68951416015625</ele>
        <time>2026-08-15T23:44:20Z</time>
      </trkpt>
      <trkpt lat="29.601894539022766" lon="106.31764597866771">
        <ele>257.875</ele>
        <time>2026-08-15T23:44:23Z</time>
      </trkpt>
      <trkpt lat="29.60186636736808" lon="106.31774074713329">
        <ele>258.52001953125</ele>
        <time>2026-08-15T23:44:26Z</time>
      </trkpt>
      <trkpt lat="29.601878828080512" lon="106.31802205369966">
        <ele>252.8375244140625</ele>
        <time>2026-08-15T23:44:38Z</time>
      </trkpt>
      <trkpt lat="29.60186468044453" lon="106.31810185795334">
        <ele>253.44610595703125</ele>
        <time>2026-08-15T23:44:41Z</time>
      </trkpt>
      <trkpt lat="29.601887548025832" lon="106.31816769434991">
        <ele>253.3912353515625</ele>
        <time>2026-08-15T23:44:47Z</time>
      </trkpt>
      <trkpt lat="29.60186841896716" lon="106.31823852095805">
        <ele>255.4449462890625</ele>
        <time>2026-08-15T23:44:53Z</time>
      </trkpt>
      <trkpt lat="29.60192397798717" lon="106.3184609691871">
        <ele>255.42230224609375</ele>
        <time>2026-08-15T23:45:11Z</time>
      </trkpt>
      <trkpt lat="29.60188784834054" lon="106.31853478931164">
        <ele>253.31585693359375</ele>
        <time>2026-08-15T23:45:17Z</time>
      </trkpt>
      <trkpt lat="29.601885133746595" lon="106.31890986394966">
        <ele>253.8890380859375</ele>
        <time>2026-08-15T23:45:47Z</time>
      </trkpt>
      <trkpt lat="29.601878680663905" lon="106.31914827562393">
        <ele>252.29974365234375</ele>
        <time>2026-08-15T23:46:05Z</time>
      </trkpt>
      <trkpt lat="29.601923297428822" lon="106.31934179483649">
        <ele>254.84124755859375</ele>
        <time>2026-08-15T23:46:17Z</time>
      </trkpt>
      <trkpt lat="29.60190871108818" lon="106.31965103134196">
        <ele>259.39093017578125</ele>
        <time>2026-08-15T23:46:41Z</time>
      </trkpt>
      <trkpt lat="29.60189156191645" lon="106.31973183257341">
        <ele>258.63189697265625</ele>
        <time>2026-08-15T23:46:47Z</time>
      </trkpt>
      <trkpt lat="29.601951423426048" lon="106.31979467353757">
        <ele>259.3162841796875</ele>
        <time>2026-08-15T23:46:53Z</time>
      </trkpt>
      <trkpt lat="29.601987280843343" lon="106.31986350112538">
        <ele>259.3441162109375</ele>
        <time>2026-08-15T23:46:59Z</time>
      </trkpt>
      <trkpt lat="29.60201401323966" lon="106.31999916388315">
        <ele>259.1246337890625</ele>
        <time>2026-08-15T23:47:11Z</time>
      </trkpt>
      <trkpt lat="29.60207994533537" lon="106.32002409819926">
        <ele>257.7945556640625</ele>
        <time>2026-08-15T23:47:17Z</time>
      </trkpt>
      <trkpt lat="29.60211495558928" lon="106.32001312323798">
        <ele>257.1201171875</ele>
        <time>2026-08-15T23:47:20Z</time>
      </trkpt>
      <trkpt lat="29.602190983797588" lon="106.31998618529204">
        <ele>258.638916015625</ele>
        <time>2026-08-15T23:47:26Z</time>
      </trkpt>
      <trkpt lat="29.602280570953685" lon="106.32018768123132">
        <ele>257.36865234375</ele>
        <time>2026-08-15T23:47:41Z</time>
      </trkpt>
    </trkseg>
  </trk>
</gpx>