<?xml version="1.0" encoding="UTF-8"?>
<gpx xmlns="http://www.topografix.com/GPX/1/1" xmlns:gpxtpx="http://www.garmin.com/xmlschemas/TrackPointExtension/v1" xmlns:xsi="http://www.w3.org/2001/XMLSchema-instance" xsi:schemaLocation="http://www.topografix.com/GPX/1/1 http://www.topografix.com/GPX/1/1/gpx.xsd" version="1.1" creator="gpx.py -- https://github.com/tkrajina/gpxpy">
  <trk>
    <name>gpx from keep</name>
    <type>Walk</type>
    <trkseg>
      <trkpt lat="29.60244316978362" lon="106.31984851063449">
        <ele>262.3984375</ele>
        <time>2026-08-18T23:08:29Z</time>
        <extensions>
          <gpxtpx:TrackPointExtension>
            <gpxtpx:hr>127</gpxtpx:hr>
          </gpxtpx:TrackPointExtension>
        </extensions>
      </trkpt>
      <trkpt lat="29.602427470151067" lon="106.31969389398337">
        <ele>264.2744140625</ele>
        <time>2026-08-18T23:08:41Z</time>
        <extensions>
          <gpxtpx:TrackPointExtension>
            <gpxtpx:hr>127</gpxtpx:hr>
          </gpxtpx:TrackPointExtension>
        </extensions>
      </trkpt>
      <trkpt lat="29.602439638003922" lon="106.31960411523511">
        <ele>263.31640625</ele>
        <time>2026-08-18T23:08:47Z</time>
        <extensions>
          <gpxtpx:TrackPointExtension>
            <gpxtpx:hr>127</gpxtpx:hr>
          </gpxtpx:TrackPointExtension>
        </extensions>
      </trkpt>
      <trkpt lat="29.602487739556476" lon="106.31954326276758">
        <ele>263.05419921875</ele>
        <time>2026-08-18T23:08:53Z</time>
      </trkpt>
      <trkpt lat="29.60255178476183" lon="106.3195093427447">
        <ele>264.1337890625</ele>
        <time>2026-08-18T23:08:59Z</time>
      </trkpt>
      <trkpt lat="29.602724741392105" lon="106.31950434464066">
        <ele>265.876953125</ele>
        <time>2026-08-18T23:09:17Z</time>
      </trkpt>
      <trkpt lat="29.602851826420462" lon="106.31943949724034">
        <ele>267.4105224609375</ele>
        <time>2026-08-18T23:09:29Z</time>
      </trkpt>
      <trkpt lat="29.60289089070617" lon="106.31939959349825">
        <ele>264.56536865234375</ele>
        <time>2026-08-18T23:09:35Z</time>
      </trkpt>
      <trkpt lat="29.602914110338045" lon="106.31928088542607">
        <ele>262.572021484375</ele>
        <time>2026-08-18T23:09:48Z</time>
      </trkpt>
      <trkpt lat="29.602897505860177" lon="106.31907639156492">
        <ele>261.836181640625</ele>
        <time>2026-08-18T23:10:06Z</time>
      </trkpt>
      <trkpt lat="29.602903176059286" lon="106.3187242605024">
        <ele>259.3331298828125</ele>
        <time>2026-08-18T23:10:36Z</time>
      </trkpt>
      <trkpt lat="29.602930281934658" lon="106.31866440655028">
        <ele>257.5074462890625</ele>
        <time>2026-08-18T23:10:42Z</time>
      </trkpt>
      <trkpt lat="29.602921708697085" lon="106.31844195576811">
        <ele>254.04571533203125</ele>
        <time>2026-08-18T23:11:00Z</time>
      </trkpt>
      <trkpt lat="29.602931844397002" lon="106.31836913471192">
        <ele>254.73870849609375</ele>
        <time>2026-08-18T23:11:06Z</time>
      </trkpt>
      <trkpt lat="29.602927394994627" lon="106.31808084549897">
        <ele>254.352294921875</ele>
        <time>2026-08-18T23:11:30Z</time>
      </trkpt>
      <trkpt lat="29.602969928938457" lon="106.31779355046794">
        <ele>252.9761962890625</ele>
        <time>2026-08-18T23:11:54Z</time>
      </trkpt>
      <trkpt lat="29.60296653150233" lon="106.31747732881672">
        <ele>254.81353759765625</ele>
        <time>2026-08-18T23:12:18Z</time>
      </trkpt>
      <trkpt lat="29.602978812201158" lon="106.31732769604423">
        <ele>254.5421142578125</ele>
        <time>2026-08-18T23:12:30Z</time>
      </trkpt>
      <trkpt lat="29.60304612713715" lon="106.31715112598634">
        <ele>246.168212890625</ele>
        <time>2026-08-18T23:12:48Z</time>
      </trkpt>
      <trkpt lat="29.602992741967892" lon="106.31683590346448">
        <ele>245.1512451171875</ele>
        <time>2026-08-18T23:13:12Z</time>
      </trkpt>
      <trkpt lat="29.60297126514542" lon="106.31656357306338">
        <ele>250.175537109375</ele>
        <time>2026-08-18T23:13:36Z</time>
      </trkpt>
      <trkpt lat="29.6029373776329" lon="106.31650970722984">
        <ele>250.7154541015625</ele>
        <time>2026-08-18T23:13:42Z</time>
      </trkpt>
      <trkpt lat="29.602761629888516" lon="106.31640497466218">
        <ele>248.735595703125</ele>
        <time>2026-08-18T23:13:57Z</time>
      </trkpt>
      <trkpt lat="29.602678660928785" lon="106.31640198699765">
        <ele>252.0621337890625</ele>
        <time>2026-08-18T23:14:03Z</time>
      </trkpt>
      <trkpt lat="29.602617600194108" lon="106.31644388794987">
        <ele>251.5726318359375</ele>
        <time>2026-08-18T23:14:09Z</time>
      </trkpt>
      <trkpt lat="29.60254140979945" lon="106.3165566160895">
        <ele>249.7825927734375</ele>
        <time>2026-08-18T23:14:21Z</time>
      </trkpt>
      <trkpt lat="29.60253593273026" lon="106.31680899710996">
        <ele>254.23138427734375</ele>
        <time>2026-08-18T23:14:39Z</time>
      </trkpt>
      <trkpt lat="29.602589458076256" lon="106.3170504010539">
        <ele>256.02606201171875</ele>
        <time>2026-08-18T23:14:57Z</time>
      </trkpt>
      <trkpt lat="29.602573176939238" lon="106.31720103191196">
        <ele>255.306884765625</ele>
        <time>2026-08-18T23:15:09Z</time>
      </trkpt>
      <trkpt lat="29.60253490998817" lon="106.31734767374365">
        <ele>250.371337890625</ele>
        <time>2026-08-18T23:15:18Z</time>
      </trkpt>
      <trkpt lat="29.602373672976213" lon="106.31749831302086">
        <ele>249.0928955078125</ele>
        <time>2026-08-18T23:15:33Z</time>
      </trkpt>
      <trkpt lat="29.60211268463545" lon="106.31753424041077">
        <ele>253.7603759765625</ele>
        <time>2026-08-18T23:15:51Z</time>
      </trkpt>
      <trkpt lat="29.601977634974006" lon="106.31758213075025">
        <ele>249.715576171875</ele>
        <time>2026-08-18T23:16:03Z</time>
      </trkpt>
      <trkpt lat="29.601899404684374" lon="106.31771580652477">
        <ele>246.4493408203125</ele>
        <time>2026-08-18T23:16:15Z</time>
      </trkpt>
      <trkpt lat="29.60188795633473" lon="106.31795322268336">
        <ele>251.782470703125</ele>
        <time>2026-08-18T23:16:33Z</time>
      </trkpt>
      <trkpt lat="29.601878311395247" lon="106.31829338512912">
        <ele>252.2664794921875</ele>
        <time>2026-08-18T23:16:57Z</time>
      </trkpt>
      <trkpt lat="29.60189664591698" lon="106.31863953040575">
        <ele>247.4725341796875</ele>
        <time>2026-08-18T23:17:18Z</time>
      </trkpt>
      <trkpt lat="29.601881494555457" lon="106.31872132949556">
        <ele>248.06732177734375</ele>
        <time>2026-08-18T23:17:24Z</time>
      </trkpt>
      <trkpt lat="29.60189430984543" lon="106.31881609485394">
        <ele>247.96551513671875</ele>
        <time>2026-08-18T23:17:30Z</time>
      </trkpt>
      <trkpt lat="29.601888829898517" lon="106.31906847210615">
        <ele>247.31195068359375</ele>
        <time>2026-08-18T23:17:48Z</time>
      </trkpt>
      <trkpt lat="29.601865530419694" lon="106.31922907682385">
        <ele>248.72406005859375</ele>
        <time>2026-08-18T23:18:00Z</time>
      </trkpt>
      <trkpt lat="29.601907047072764" lon="106.31947546546978">
        <ele>248.76007080078125</ele>
        <time>2026-08-18T23:18:18Z</time>
      </trkpt>
      <trkpt lat="29.601900734505335" lon="106.31964005895439">
        <ele>251.57049560546875</ele>
        <time>2026-08-18T23:18:30Z</time>
      </trkpt>
      <trkpt lat="29.601925568645786" lon="106.31972285272386">
        <ele>251.60467529296875</ele>
        <time>2026-08-18T23:18:36Z</time>
      </trkpt>
      <trkpt lat="29.60191311857567" lon="106.31996026622586">
        <ele>252.43115234375</ele>
        <time>2026-08-18T23:18:54Z</time>
      </trkpt>
      <trkpt lat="29.601924996660845" lon="106.3200221124844">
        <ele>252.767578125</ele>
        <time>2026-08-18T23:19:00Z</time>
      </trkpt>
      <trkpt lat="29.602122979837212" lon="106.31999915730889">
        <ele>252.40582275390625</ele>
        <time>2026-08-18T23:19:18Z</time>
      </trkpt>
      <trkpt lat="29.60218590332479" lon="106.32002907946486">
        <ele>250.05352783203125</ele>
        <time>2026-08-18T23:19:24Z</time>
      </trkpt>
      <trkpt lat="29.602236580611816" lon="106.3201896789475">
        <ele>252.5771484375</ele>
        <time>2026-08-18T23:19:36Z</time>
      </trkpt>
      <trkpt lat="29.602283474647997" lon="106.32023755759802">
        <ele>251.70953369140625</ele>
        <time>2026-08-18T23:19:42Z</time>
      </trkpt>
      <trkpt lat="29.602364421233283" lon="106.32025251567411">
        <ele>251.15625</ele>
        <time>2026-08-18T23:19:48Z</time>
      </trkpt>
      <trkpt lat="29.602364421233283" lon="106.32025251567411">
        <ele>251.15625</ele>
        <time>2026-08-18T23:19:59Z</time>
      </trkpt>
    </trkseg>
  </trk>
</gpx>