<?xml version="1.0" encoding="UTF-8"?>
<gpx xmlns="http://www.topografix.com/GPX/1/1" xmlns:gpxtpx="http://www.garmin.com/xmlschemas/TrackPointExtension/v1" xmlns:xsi="http://www.w3.org/2001/XMLSchema-instance" xsi:schemaLocation="http://www.topografix.com/GPX/1/1 http://www.topografix.com/GPX/1/1/gpx.xsd" version="1.1" creator="gpx.py -- https://github.com/tkrajina/gpxpy">
  <trk>
    <name>gpx from keep</name>
    <type>Walk</type>
    <trkseg>
      <trkpt lat="29.602518676718965" lon="106.31957119185195">
        <ele>254.5892333984375</ele>
        <time>2026-08-09T23:01:15Z</time>
        <extensions>
          <gpxtpx:TrackPointExtension>
            <gpxtpx:hr>139</gpxtpx:hr>
          </gpxtpx:TrackPointExtension>
        </extensions>
      </trkpt>
      <trkpt lat="29.602519788834083" lon="106.31951233727727">
        <ele>253.99554443359375</ele>
        <time>2026-08-09T23:01:18Z</time>
        <extensions>
          <gpxtpx:TrackPointExtension>
            <gpxtpx:hr>139</gpxtpx:hr>
          </gpxtpx:TrackPointExtension>
        </extensions>
      </trkpt>
      <trkpt lat="29.60257783015733" lon="106.31948141021428">
        <ele>254.055419921875</ele>
        <time>2026-08-09T23:01:24Z</time>
        <extensions>
          <gpxtpx:TrackPointExtension>
            <gpxtpx:hr>139</gpxtpx:hr>
          </gpxtpx:TrackPointExtension>
        </extensions>
      </trkpt>
      <trkpt lat="29.602631825075406" lon="106.31947542175118">
        <ele>251.87762451171875</ele>
        <time>2026-08-09T23:01:30Z</time>
        <extensions>
          <gpxtpx:TrackPointExtension>
            <gpxtpx:hr>139</gpxtpx:hr>
          </gpxtpx:TrackPointExtension>
        </extensions>
      </trkpt>
      <trkpt lat="29.602701771285844" lon="106.31949237561534">
        <ele>252.4130859375</ele>
        <time>2026-08-09T23:01:36Z</time>
      </trkpt>
      <trkpt lat="29.60287972832494" lon="106.31948637967498">
        <ele>250.2264404296875</ele>
        <time>2026-08-09T23:01:54Z</time>
      </trkpt>
      <trkpt lat="29.6029238501478" lon="106.31941555206541">
        <ele>253.00079345703125</ele>
        <time>2026-08-09T23:02:00Z</time>
      </trkpt>
      <trkpt lat="29.602940980199143" lon="106.31934472605808">
        <ele>256.1444091796875</ele>
        <time>2026-08-09T23:02:06Z</time>
      </trkpt>
      <trkpt lat="29.60292627044136" lon="106.3191950966314">
        <ele>256.67626953125</ele>
        <time>2026-08-09T23:02:18Z</time>
      </trkpt>
      <trkpt lat="29.602978618174287" lon="106.31900456403305">
        <ele>254.424560546875</ele>
        <time>2026-08-09T23:02:30Z</time>
      </trkpt>
      <trkpt lat="29.602941941565806" lon="106.31884097012436">
        <ele>256.6114501953125</ele>
        <time>2026-08-09T23:02:42Z</time>
      </trkpt>
      <trkpt lat="29.602931293040573" lon="106.31865842125642">
        <ele>260.8875732421875</ele>
        <time>2026-08-09T23:03:00Z</time>
      </trkpt>
      <trkpt lat="29.602913446870907" lon="106.31858061428554">
        <ele>259.51373291015625</ele>
        <time>2026-08-09T23:03:06Z</time>
      </trkpt>
      <trkpt lat="29.60295672842208" lon="106.31842599301386">
        <ele>254.18194580078125</ele>
        <time>2026-08-09T23:03:18Z</time>
      </trkpt>
      <trkpt lat="29.602964148156026" lon="106.31820453848756">
        <ele>252.9744873046875</ele>
        <time>2026-08-09T23:03:36Z</time>
      </trkpt>
      <trkpt lat="29.60292664405519" lon="106.31795016743996">
        <ele>251.75811767578125</ele>
        <time>2026-08-09T23:04:00Z</time>
      </trkpt>
      <trkpt lat="29.602955773781424" lon="106.317877345013">
        <ele>249.593017578125</ele>
        <time>2026-08-09T23:04:06Z</time>
      </trkpt>
      <trkpt lat="29.602945331203284" lon="106.31758606260742">
        <ele>252.5447998046875</ele>
        <time>2026-08-09T23:04:30Z</time>
      </trkpt>
      <trkpt lat="29.602970600434936" lon="106.31744041935133">
        <ele>250.42291259765625</ele>
        <time>2026-08-09T23:04:42Z</time>
      </trkpt>
      <trkpt lat="29.60294727859407" lon="106.31708728881422">
        <ele>251.05401611328125</ele>
        <time>2026-08-09T23:05:12Z</time>
      </trkpt>
      <trkpt lat="29.602934965937585" lon="106.31672717384554">
        <ele>248.82086181640625</ele>
        <time>2026-08-09T23:05:42Z</time>
      </trkpt>
      <trkpt lat="29.602934278335646" lon="106.31656257773871">
        <ele>250.83807373046875</ele>
        <time>2026-08-09T23:05:54Z</time>
      </trkpt>
      <trkpt lat="29.602916408624722" lon="106.3164967402976">
        <ele>251.928466796875</ele>
        <time>2026-08-09T23:06:00Z</time>
      </trkpt>
      <trkpt lat="29.60282256777608" lon="106.31642791473728">
        <ele>252.74609375</ele>
        <time>2026-08-09T23:06:12Z</time>
      </trkpt>
      <trkpt lat="29.60270065609334" lon="106.31640098811827">
        <ele>253.57000732421875</ele>
        <time>2026-08-09T23:06:24Z</time>
      </trkpt>
      <trkpt lat="29.602598573869013" lon="106.31646084751252">
        <ele>253.283203125</ele>
        <time>2026-08-09T23:06:36Z</time>
      </trkpt>
      <trkpt lat="29.60253138638452" lon="106.31657058243603">
        <ele>253.0615234375</ele>
        <time>2026-08-09T23:06:48Z</time>
      </trkpt>
      <trkpt lat="29.602537102720074" lon="106.31671921740273">
        <ele>255.969482421875</ele>
        <time>2026-08-09T23:07:00Z</time>
      </trkpt>
      <trkpt lat="29.602589672041766" lon="106.31693767791245">
        <ele>253.5484619140625</ele>
        <time>2026-08-09T23:07:18Z</time>
      </trkpt>
      <trkpt lat="29.602567971918116" lon="106.3173097649496">
        <ele>252.8343505859375</ele>
        <time>2026-08-09T23:07:48Z</time>
      </trkpt>
      <trkpt lat="29.60253285752497" lon="106.31737560518833">
        <ele>252.8416748046875</ele>
        <time>2026-08-09T23:07:54Z</time>
      </trkpt>
      <trkpt lat="29.602422690215427" lon="106.31748135177963">
        <ele>254.6844482421875</ele>
        <time>2026-08-09T23:08:06Z</time>
      </trkpt>
      <trkpt lat="29.602306632803185" lon="106.31753023853739">
        <ele>253.56622314453125</ele>
        <time>2026-08-09T23:08:18Z</time>
      </trkpt>
      <trkpt lat="29.60211765465609" lon="106.31754920330036">
        <ele>253.26837158203125</ele>
        <time>2026-08-09T23:08:36Z</time>
      </trkpt>
      <trkpt lat="29.60199171033929" lon="106.31754023297778">
        <ele>254.54254150390625</ele>
        <time>2026-08-09T23:08:48Z</time>
      </trkpt>
      <trkpt lat="29.601933692086543" lon="106.3175591898465">
        <ele>253.3094482421875</ele>
        <time>2026-08-09T23:08:54Z</time>
      </trkpt>
      <trkpt lat="29.601885610072685" lon="106.31761006757289">
        <ele>252.525634765625</ele>
        <time>2026-08-09T23:09:00Z</time>
      </trkpt>
      <trkpt lat="29.60185647099659" lon="106.31768787785637">
        <ele>251.65838623046875</ele>
        <time>2026-08-09T23:09:06Z</time>
      </trkpt>
      <trkpt lat="29.60188476737144" lon="106.31805297716429">
        <ele>252.80401611328125</ele>
        <time>2026-08-09T23:09:36Z</time>
      </trkpt>
      <trkpt lat="29.60188462492715" lon="106.31812779284752">
        <ele>254.30352783203125</ele>
        <time>2026-08-09T23:09:42Z</time>
      </trkpt>
      <trkpt lat="29.601913348166374" lon="106.31826844448845">
        <ele>258.6522216796875</ele>
        <time>2026-08-09T23:09:54Z</time>
      </trkpt>
      <trkpt lat="29.601908906543315" lon="106.31850087169236">
        <ele>260.3299560546875</ele>
        <time>2026-08-09T23:10:12Z</time>
      </trkpt>
      <trkpt lat="29.601882241225265" lon="106.31885400201976">
        <ele>255.1114501953125</ele>
        <time>2026-08-09T23:10:42Z</time>
      </trkpt>
      <trkpt lat="29.601892584977513" lon="106.3191961565121">
        <ele>252.38299560546875</ele>
        <time>2026-08-09T23:11:12Z</time>
      </trkpt>
      <trkpt lat="29.601936304870907" lon="106.3193358088414">
        <ele>253.442138671875</ele>
        <time>2026-08-09T23:11:24Z</time>
      </trkpt>
      <trkpt lat="29.60190559765127" lon="106.31971088353059">
        <ele>256.9801025390625</ele>
        <time>2026-08-09T23:11:54Z</time>
      </trkpt>
      <trkpt lat="29.601948195558954" lon="106.3199143776326">
        <ele>257.55224609375</ele>
        <time>2026-08-09T23:12:12Z</time>
      </trkpt>
      <trkpt lat="29.601946051248433" lon="106.31999019019693">
        <ele>256.5911865234375</ele>
        <time>2026-08-09T23:12:18Z</time>
      </trkpt>
      <trkpt lat="29.60197093869298" lon="106.32004505294073">
        <ele>255.8543701171875</ele>
        <time>2026-08-09T23:12:24Z</time>
      </trkpt>
      <trkpt lat="29.60215092930321" lon="106.32002110132142">
        <ele>252.82147216796875</ele>
        <time>2026-08-09T23:12:42Z</time>
      </trkpt>
      <trkpt lat="29.60220886767255" lon="106.3200440410539">
        <ele>248.306640625</ele>
        <time>2026-08-09T23:12:48Z</time>
      </trkpt>
      <trkpt lat="29.60220950684805" lon="106.32023257440748">
        <ele>256.3115234375</ele>
        <time>2026-08-09T23:13:06Z</time>
      </trkpt>
      <trkpt lat="29.60224448849795" lon="106.32023656241968">
        <ele>255.56451416015625</ele>
        <time>2026-08-09T23:13:09Z</time>
      </trkpt>
    </trkseg>
  </trk>
</gpx>