<?xml version="1.0" encoding="UTF-8"?>
<gpx xmlns="http://www.topografix.com/GPX/1/1" xmlns:gpxtpx="http://www.garmin.com/xmlschemas/TrackPointExtension/v1" xmlns:xsi="http://www.w3.org/2001/XMLSchema-instance" xsi:schemaLocation="http://www.topografix.com/GPX/1/1 http://www.topografix.com/GPX/1/1/gpx.xsd" version="1.1" creator="gpx.py -- https://github.com/tkrajina/gpxpy">
  <trk>
    <name>gpx from keep</name>
    <type>Walk</type>
    <trkseg>
      <trkpt lat="29.60243468336337" lon="106.31958117225723">
        <ele>262.33319091796875</ele>
        <time>2026-07-30T23:17:06Z</time>
      </trkpt>
      <trkpt lat="29.602474781641995" lon="106.31952331286782">
        <ele>262.4195556640625</ele>
        <time>2026-07-30T23:17:12Z</time>
      </trkpt>
      <trkpt lat="29.602543787208774" lon="106.31950934322711">
        <ele>258.278564453125</ele>
        <time>2026-07-30T23:17:18Z</time>
      </trkpt>
      <trkpt lat="29.60267970179786" lon="106.31953227831349">
        <ele>260.66766357421875</ele>
        <time>2026-07-30T23:17:30Z</time>
      </trkpt>
      <trkpt lat="29.60281071892085" lon="106.31950234438591">
        <ele>263.87139892578125</ele>
        <time>2026-07-30T23:17:42Z</time>
      </trkpt>
      <trkpt lat="29.602875760030113" lon="106.31947041936492">
        <ele>259.64581298828125</ele>
        <time>2026-07-30T23:17:48Z</time>
      </trkpt>
      <trkpt lat="29.602909881092927" lon="106.31940158742225">
        <ele>262.98077392578125</ele>
        <time>2026-07-30T23:17:54Z</time>
      </trkpt>
      <trkpt lat="29.602932182919776" lon="106.3192399853815">
        <ele>263.9945068359375</ele>
        <time>2026-07-30T23:18:06Z</time>
      </trkpt>
      <trkpt lat="29.60293485807957" lon="106.318885859746">
        <ele>262.155029296875</ele>
        <time>2026-07-30T23:18:33Z</time>
      </trkpt>
      <trkpt lat="29.60292552877022" lon="106.31853572428281">
        <ele>262.1317138671875</ele>
        <time>2026-07-30T23:19:03Z</time>
      </trkpt>
      <trkpt lat="29.60291778024921" lon="106.3184050470163">
        <ele>269.0914306640625</ele>
        <time>2026-07-30T23:19:18Z</time>
      </trkpt>
      <trkpt lat="29.60289788138912" lon="106.31835517119114">
        <ele>270.86553955078125</ele>
        <time>2026-07-30T23:19:24Z</time>
      </trkpt>
      <trkpt lat="29.60289417713395" lon="106.31820055253968">
        <ele>265.468994140625</ele>
        <time>2026-07-30T23:19:42Z</time>
      </trkpt>
      <trkpt lat="29.602930318106058" lon="106.31812074701217">
        <ele>259.4229736328125</ele>
        <time>2026-07-30T23:19:48Z</time>
      </trkpt>
      <trkpt lat="29.60293559004322" lon="106.31797710056476">
        <ele>261.934326171875</ele>
        <time>2026-07-30T23:20:00Z</time>
      </trkpt>
      <trkpt lat="29.602966684997728" lon="106.31792223381403">
        <ele>263.2535400390625</ele>
        <time>2026-07-30T23:20:06Z</time>
      </trkpt>
      <trkpt lat="29.60296031144856" lon="106.31759404206925">
        <ele>267.730712890625</ele>
        <time>2026-07-30T23:20:42Z</time>
      </trkpt>
      <trkpt lat="29.60294943429374" lon="106.31753119734081">
        <ele>267.5997314453125</ele>
        <time>2026-07-30T23:20:51Z</time>
      </trkpt>
      <trkpt lat="29.602925356278362" lon="106.31757608835485">
        <ele>268.41888427734375</ele>
        <time>2026-07-30T23:21:48Z</time>
      </trkpt>
      <trkpt lat="29.602952262676983" lon="106.31762097628214">
        <ele>268.1539306640625</ele>
        <time>2026-07-30T23:21:54Z</time>
      </trkpt>
      <trkpt lat="29.60294201908944" lon="106.31775065774247">
        <ele>268.0079345703125</ele>
        <time>2026-07-30T23:22:06Z</time>
      </trkpt>
      <trkpt lat="29.60295792121605" lon="106.317799536457">
        <ele>266.74774169921875</ele>
        <time>2026-07-30T23:22:12Z</time>
      </trkpt>
      <trkpt lat="29.602932794092833" lon="106.31787036359236">
        <ele>264.1240234375</ele>
        <time>2026-07-30T23:22:18Z</time>
      </trkpt>
      <trkpt lat="29.602944064967637" lon="106.31825142414583">
        <ele>262.453125</ele>
        <time>2026-07-30T23:22:54Z</time>
      </trkpt>
      <trkpt lat="29.602942611034802" lon="106.31848983642674">
        <ele>264.3023681640625</ele>
        <time>2026-07-30T23:23:12Z</time>
      </trkpt>
      <trkpt lat="29.6029243522327" lon="106.31862849550726">
        <ele>263.69677734375</ele>
        <time>2026-07-30T23:23:25Z</time>
      </trkpt>
      <trkpt lat="29.602960821596273" lon="106.31890082124252">
        <ele>259.2178955078125</ele>
        <time>2026-07-30T23:23:49Z</time>
      </trkpt>
      <trkpt lat="29.602940572676268" lon="106.319034492431">
        <ele>256.922607421875</ele>
        <time>2026-07-30T23:24:01Z</time>
      </trkpt>
      <trkpt lat="29.602961156924753" lon="106.31924896145395">
        <ele>256.504638671875</ele>
        <time>2026-07-30T23:24:19Z</time>
      </trkpt>
      <trkpt lat="29.602957875958115" lon="106.31939659685348">
        <ele>256.427978515625</ele>
        <time>2026-07-30T23:24:31Z</time>
      </trkpt>
      <trkpt lat="29.602930743230925" lon="106.31947041604826">
        <ele>256.718017578125</ele>
        <time>2026-07-30T23:24:37Z</time>
      </trkpt>
      <trkpt lat="29.602874663166766" lon="106.31952129367788">
        <ele>256.97784423828125</ele>
        <time>2026-07-30T23:24:43Z</time>
      </trkpt>
      <trkpt lat="29.602804640728518" lon="106.3195442411853">
        <ele>258.6129150390625</ele>
        <time>2026-07-30T23:24:49Z</time>
      </trkpt>
      <trkpt lat="29.602662777492583" lon="106.3194953705703">
        <ele>253.38848876953125</ele>
        <time>2026-07-30T23:25:01Z</time>
      </trkpt>
      <trkpt lat="29.602517819930725" lon="106.31949637684859">
        <ele>252.85369873046875</ele>
        <time>2026-07-30T23:25:13Z</time>
      </trkpt>
      <trkpt lat="29.602448783881115" lon="106.31952630703839">
        <ele>255.4603271484375</ele>
        <time>2026-07-30T23:25:19Z</time>
      </trkpt>
      <trkpt lat="29.602409666240916" lon="106.3195941417057">
        <ele>255.0611572265625</ele>
        <time>2026-07-30T23:25:25Z</time>
      </trkpt>
      <trkpt lat="29.60241621617593" lon="106.31982856160927">
        <ele>256.0853271484375</ele>
        <time>2026-07-30T23:25:43Z</time>
      </trkpt>
      <trkpt lat="29.60240611628194" lon="106.3198824289728">
        <ele>255.5142822265625</ele>
        <time>2026-07-30T23:26:10Z</time>
      </trkpt>
      <trkpt lat="29.602358041356652" lon="106.31992931588881">
        <ele>254.12890625</ele>
        <time>2026-07-30T23:26:16Z</time>
      </trkpt>
      <trkpt lat="29.602040157823954" lon="106.31991935974548">
        <ele>250.94500732421875</ele>
        <time>2026-07-30T23:26:46Z</time>
      </trkpt>
      <trkpt lat="29.60203801923302" lon="106.31999217971197">
        <ele>250.346435546875</ele>
        <time>2026-07-30T23:26:55Z</time>
      </trkpt>
      <trkpt lat="29.60216699687006" lon="106.31998319414359">
        <ele>251.22515869140625</ele>
        <time>2026-07-30T23:27:07Z</time>
      </trkpt>
      <trkpt lat="29.602189875399198" lon="106.32004304466818">
        <ele>250.38720703125</ele>
        <time>2026-07-30T23:27:13Z</time>
      </trkpt>
      <trkpt lat="29.602202600563036" lon="106.32018469334302">
        <ele>250.60809326171875</ele>
        <time>2026-07-30T23:27:25Z</time>
      </trkpt>
      <trkpt lat="29.60224850825884" lon="106.32022558933882">
        <ele>247.83074951171875</ele>
        <time>2026-07-30T23:27:31Z</time>
      </trkpt>
      <trkpt lat="29.60227648251477" lon="106.32023456542771">
        <ele>247.43853759765625</ele>
        <time>2026-07-30T23:27:34Z</time>
      </trkpt>
    </trkseg>
  </trk>
</gpx>