<?xml version="1.0" encoding="UTF-8"?>
<gpx xmlns="http://www.topografix.com/GPX/1/1" xmlns:gpxtpx="http://www.garmin.com/xmlschemas/TrackPointExtension/v1" xmlns:xsi="http://www.w3.org/2001/XMLSchema-instance" xsi:schemaLocation="http://www.topografix.com/GPX/1/1 http://www.topografix.com/GPX/1/1/gpx.xsd" version="1.1" creator="gpx.py -- https://github.com/tkrajina/gpxpy">
  <trk>
    <name>gpx from keep</name>
    <type>Walk</type>
    <trkseg>
      <trkpt lat="29.602410545872782" lon="106.31965698626999">
        <ele>272.4754638671875</ele>
        <time>2026-09-06T23:12:12Z</time>
      </trkpt>
      <trkpt lat="29.60243670371259" lon="106.31957019926291">
        <ele>262.4991455078125</ele>
        <time>2026-09-06T23:12:18Z</time>
      </trkpt>
      <trkpt lat="29.60247577180913" lon="106.31952830047864">
        <ele>257.54541015625</ele>
        <time>2026-09-06T23:12:21Z</time>
      </trkpt>
      <trkpt lat="29.60254179925238" lon="106.3195033581418">
        <ele>255.614501953125</ele>
        <time>2026-09-06T23:12:24Z</time>
      </trkpt>
      <trkpt lat="29.602801691185665" lon="106.31951830547735">
        <ele>259.24237060546875</ele>
        <time>2026-09-06T23:12:33Z</time>
      </trkpt>
      <trkpt lat="29.602876712094073" lon="106.3194953576654">
        <ele>258.54791259765625</ele>
        <time>2026-09-06T23:12:36Z</time>
      </trkpt>
      <trkpt lat="29.602920803438646" lon="106.31944049061414">
        <ele>256.10211181640625</ele>
        <time>2026-09-06T23:12:39Z</time>
      </trkpt>
      <trkpt lat="29.602936461586218" lon="106.31909334733461">
        <ele>254.23095703125</ele>
        <time>2026-09-06T23:12:54Z</time>
      </trkpt>
      <trkpt lat="29.6029596049425" lon="106.3190145405481">
        <ele>254.5650634765625</ele>
        <time>2026-09-06T23:13:00Z</time>
      </trkpt>
      <trkpt lat="29.60294024844967" lon="106.31868036656935">
        <ele>253.9805908203125</ele>
        <time>2026-09-06T23:13:24Z</time>
      </trkpt>
      <trkpt lat="29.602955411225267" lon="106.31859258222622">
        <ele>251.500732421875</ele>
        <time>2026-09-06T23:13:30Z</time>
      </trkpt>
      <trkpt lat="29.602929875416404" lon="106.31835317418081">
        <ele>250.354248046875</ele>
        <time>2026-09-06T23:13:48Z</time>
      </trkpt>
      <trkpt lat="29.602946001653464" lon="106.31828434288825">
        <ele>250.099853515625</ele>
        <time>2026-09-06T23:13:54Z</time>
      </trkpt>
      <trkpt lat="29.602927292430156" lon="106.31813471278348">
        <ele>250.1243896484375</ele>
        <time>2026-09-06T23:14:06Z</time>
      </trkpt>
      <trkpt lat="29.602946034945827" lon="106.31774167959952">
        <ele>249.6279296875</ele>
        <time>2026-09-06T23:14:36Z</time>
      </trkpt>
      <trkpt lat="29.602932194801575" lon="106.3176598817565">
        <ele>248.68585205078125</ele>
        <time>2026-09-06T23:14:42Z</time>
      </trkpt>
      <trkpt lat="29.602941806441635" lon="106.31733667620084">
        <ele>248.552734375</ele>
        <time>2026-09-06T23:15:06Z</time>
      </trkpt>
      <trkpt lat="29.602927538451212" lon="106.31695361835622">
        <ele>251.60382080078125</ele>
        <time>2026-09-06T23:15:36Z</time>
      </trkpt>
      <trkpt lat="29.6029391482082" lon="106.31663041103457">
        <ele>254.884033203125</ele>
        <time>2026-09-06T23:16:00Z</time>
      </trkpt>
      <trkpt lat="29.602898459494863" lon="106.31647280009143">
        <ele>252.345458984375</ele>
        <time>2026-09-06T23:16:12Z</time>
      </trkpt>
      <trkpt lat="29.60285357909628" lon="106.31641693977355">
        <ele>252.68402099609375</ele>
        <time>2026-09-06T23:16:18Z</time>
      </trkpt>
      <trkpt lat="29.602733727270504" lon="106.31635809128356">
        <ele>254.30853271484375</ele>
        <time>2026-09-06T23:16:30Z</time>
      </trkpt>
      <trkpt lat="29.602665725380177" lon="106.3163700660353">
        <ele>253.5125732421875</ele>
        <time>2026-09-06T23:16:36Z</time>
      </trkpt>
      <trkpt lat="29.60256956383412" lon="106.31647082479823">
        <ele>257.4202880859375</ele>
        <time>2026-09-06T23:16:45Z</time>
      </trkpt>
      <trkpt lat="29.602520293299253" lon="106.31662145829702">
        <ele>253.13970947265625</ele>
        <time>2026-09-06T23:16:57Z</time>
      </trkpt>
      <trkpt lat="29.6025299629515" lon="106.31679403420108">
        <ele>251.97515869140625</ele>
        <time>2026-09-06T23:17:09Z</time>
      </trkpt>
      <trkpt lat="29.602577622700455" lon="106.3169656100419">
        <ele>252.175537109375</ele>
        <time>2026-09-06T23:17:21Z</time>
      </trkpt>
      <trkpt lat="29.602586460887544" lon="106.3170494036851">
        <ele>252.11859130859375</ele>
        <time>2026-09-06T23:17:27Z</time>
      </trkpt>
      <trkpt lat="29.60257727423069" lon="106.31714915914313">
        <ele>250.497802734375</ele>
        <time>2026-09-06T23:17:33Z</time>
      </trkpt>
      <trkpt lat="29.60248292968683" lon="106.31734568178176">
        <ele>249.26959228515625</ele>
        <time>2026-09-06T23:17:51Z</time>
      </trkpt>
      <trkpt lat="29.60244384115345" lon="106.31739855413416">
        <ele>247.3382568359375</ele>
        <time>2026-09-06T23:17:57Z</time>
      </trkpt>
      <trkpt lat="29.602333744002074" lon="106.3174673914908">
        <ele>251.32177734375</ele>
        <time>2026-09-06T23:18:06Z</time>
      </trkpt>
      <trkpt lat="29.60212277828385" lon="106.31748336494785">
        <ele>257.9833984375</ele>
        <time>2026-09-06T23:18:24Z</time>
      </trkpt>
      <trkpt lat="29.60198372985981" lon="106.31753125554488">
        <ele>255.32550048828125</ele>
        <time>2026-09-06T23:18:36Z</time>
      </trkpt>
      <trkpt lat="29.60187144742339" lon="106.31769785240292">
        <ele>250.9642333984375</ele>
        <time>2026-09-06T23:18:51Z</time>
      </trkpt>
      <trkpt lat="29.601850958189175" lon="106.31795821262959">
        <ele>249.2967529296875</ele>
        <time>2026-09-06T23:19:09Z</time>
      </trkpt>
      <trkpt lat="29.601859621197548" lon="106.3181337796073">
        <ele>249.03326416015625</ele>
        <time>2026-09-06T23:19:21Z</time>
      </trkpt>
      <trkpt lat="29.601846296506245" lon="106.3183063550925">
        <ele>249.44818115234375</ele>
        <time>2026-09-06T23:19:33Z</time>
      </trkpt>
      <trkpt lat="29.60189112876731" lon="106.31838715318862">
        <ele>250.2442626953125</ele>
        <time>2026-09-06T23:19:39Z</time>
      </trkpt>
      <trkpt lat="29.60186360088346" lon="106.31866846102608">
        <ele>247.92132568359375</ele>
        <time>2026-09-06T23:19:57Z</time>
      </trkpt>
      <trkpt lat="29.601885133746595" lon="106.31890986394966">
        <ele>248.86859130859375</ele>
        <time>2026-09-06T23:20:15Z</time>
      </trkpt>
      <trkpt lat="29.601870008936487" lon="106.3189776973934">
        <ele>247.73974609375</ele>
        <time>2026-09-06T23:20:21Z</time>
      </trkpt>
      <trkpt lat="29.60187251494306" lon="106.31923605915215">
        <ele>247.56884765625</ele>
        <time>2026-09-06T23:20:39Z</time>
      </trkpt>
      <trkpt lat="29.601910063299442" lon="106.31946648747821">
        <ele>252.08892822265625</ele>
        <time>2026-09-06T23:20:54Z</time>
      </trkpt>
      <trkpt lat="29.601894423746113" lon="106.31980365477114">
        <ele>254.92376708984375</ele>
        <time>2026-09-06T23:21:18Z</time>
      </trkpt>
      <trkpt lat="29.60190397258566" lon="106.32003807425967">
        <ele>253.58172607421875</ele>
        <time>2026-09-06T23:21:36Z</time>
      </trkpt>
      <trkpt lat="29.601945919656277" lon="106.32005901989227">
        <ele>253.5579833984375</ele>
        <time>2026-09-06T23:21:39Z</time>
      </trkpt>
      <trkpt lat="29.602171981989397" lon="106.31999017656594">
        <ele>251.870849609375</ele>
        <time>2026-09-06T23:21:54Z</time>
      </trkpt>
      <trkpt lat="29.602229950875664" lon="106.31999715579137">
        <ele>255.92779541015625</ele>
        <time>2026-09-06T23:22:09Z</time>
      </trkpt>
      <trkpt lat="29.602215846456517" lon="106.32005401594867">
        <ele>254.3331298828125</ele>
        <time>2026-09-06T23:22:15Z</time>
      </trkpt>
      <trkpt lat="29.602176759221447" lon="106.3201058899419">
        <ele>254.14471435546875</ele>
        <time>2026-09-06T23:22:21Z</time>
      </trkpt>
    </trkseg>
  </trk>
</gpx>