<?xml version="1.0" encoding="UTF-8"?>
<gpx xmlns="http://www.topografix.com/GPX/1/1" xmlns:gpxtpx="http://www.garmin.com/xmlschemas/TrackPointExtension/v1" xmlns:xsi="http://www.w3.org/2001/XMLSchema-instance" xsi:schemaLocation="http://www.topografix.com/GPX/1/1 http://www.topografix.com/GPX/1/1/gpx.xsd" version="1.1" creator="gpx.py -- https://github.com/tkrajina/gpxpy">
  <trk>
    <name>gpx from keep</name>
    <type>Walk</type>
    <trkseg>
      <trkpt lat="29.602467263481742" lon="106.31979563995077">
        <ele>250.7056884765625</ele>
        <time>2026-08-30T23:07:38Z</time>
      </trkpt>
      <trkpt lat="29.60244857617248" lon="106.31963503823869">
        <ele>252.34674072265625</ele>
        <time>2026-08-30T23:07:50Z</time>
      </trkpt>
      <trkpt lat="29.60246272243424" lon="106.31955623221852">
        <ele>253.03515625</ele>
        <time>2026-08-30T23:07:56Z</time>
      </trkpt>
      <trkpt lat="29.60251180271326" lon="106.31950635255386">
        <ele>253.00830078125</ele>
        <time>2026-08-30T23:08:02Z</time>
      </trkpt>
      <trkpt lat="29.60257882032537" lon="106.31948639782615">
        <ele>251.48565673828125</ele>
        <time>2026-08-30T23:08:08Z</time>
      </trkpt>
      <trkpt lat="29.602788729453852" lon="106.31950035064389">
        <ele>254.63714599609375</ele>
        <time>2026-08-30T23:08:26Z</time>
      </trkpt>
      <trkpt lat="29.6028597325293" lon="106.31948737841546">
        <ele>253.6922607421875</ele>
        <time>2026-08-30T23:08:32Z</time>
      </trkpt>
      <trkpt lat="29.602915801155618" lon="106.31944248598494">
        <ele>252.43817138671875</ele>
        <time>2026-08-30T23:08:38Z</time>
      </trkpt>
      <trkpt lat="29.602946938367282" lon="106.31936567393316">
        <ele>251.361328125</ele>
        <time>2026-08-30T23:08:44Z</time>
      </trkpt>
      <trkpt lat="29.602938236310166" lon="106.3192110564822">
        <ele>252.2139892578125</ele>
        <time>2026-08-30T23:08:56Z</time>
      </trkpt>
      <trkpt lat="29.602932935023677" lon="106.31936966491747">
        <ele>252.08160400390625</ele>
        <time>2026-08-30T23:09:08Z</time>
      </trkpt>
      <trkpt lat="29.602914788125453" lon="106.31944946878758">
        <ele>250.83447265625</ele>
        <time>2026-08-30T23:09:14Z</time>
      </trkpt>
      <trkpt lat="29.602862693507298" lon="106.31950732892173">
        <ele>252.81005859375</ele>
        <time>2026-08-30T23:09:20Z</time>
      </trkpt>
      <trkpt lat="29.6027986768594" lon="106.31952628593211">
        <ele>253.51898193359375</ele>
        <time>2026-08-30T23:09:26Z</time>
      </trkpt>
      <trkpt lat="29.60250174289519" lon="106.31953927178675">
        <ele>256.22601318359375</ele>
        <time>2026-08-30T23:09:50Z</time>
      </trkpt>
      <trkpt lat="29.602448679079433" lon="106.31958117141296">
        <ele>255.82025146484375</ele>
        <time>2026-08-30T23:09:56Z</time>
      </trkpt>
      <trkpt lat="29.60242654669398" lon="106.31965399270437">
        <ele>255.93414306640625</ele>
        <time>2026-08-30T23:10:02Z</time>
      </trkpt>
      <trkpt lat="29.602435265647774" lon="106.3197996320122">
        <ele>255.358154296875</ele>
        <time>2026-08-30T23:10:14Z</time>
      </trkpt>
      <trkpt lat="29.6023951387148" lon="106.31987245431128">
        <ele>254.7353515625</ele>
        <time>2026-08-30T23:10:20Z</time>
      </trkpt>
      <trkpt lat="29.60233907005421" lon="106.3199173466474">
        <ele>254.55718994140625</ele>
        <time>2026-08-30T23:10:26Z</time>
      </trkpt>
      <trkpt lat="29.60207016197751" lon="106.31991237520985">
        <ele>255.07373046875</ele>
        <time>2026-08-30T23:10:50Z</time>
      </trkpt>
      <trkpt lat="29.602036073241376" lon="106.31996424893576">
        <ele>253.48089599609375</ele>
        <time>2026-08-30T23:10:56Z</time>
      </trkpt>
      <trkpt lat="29.602088963555786" lon="106.32001312480617">
        <ele>254.41485595703125</ele>
        <time>2026-08-30T23:11:02Z</time>
      </trkpt>
      <trkpt lat="29.602170959411257" lon="106.32000214700956">
        <ele>252.0341796875</ele>
        <time>2026-08-30T23:11:08Z</time>
      </trkpt>
      <trkpt lat="29.6022118381454" lon="106.32005900384824">
        <ele>251.8970947265625</ele>
        <time>2026-08-30T23:11:14Z</time>
      </trkpt>
      <trkpt lat="29.602237545967007" lon="106.32020763444548">
        <ele>251.23638916015625</ele>
        <time>2026-08-30T23:11:26Z</time>
      </trkpt>
      <trkpt lat="29.602299446855106" lon="106.32024952700267">
        <ele>249.73187255859375</ele>
        <time>2026-08-30T23:11:32Z</time>
      </trkpt>
      <trkpt lat="29.602342422243883" lon="106.3202555095935">
        <ele>249.2581787109375</ele>
        <time>2026-08-30T23:11:35Z</time>
      </trkpt>
    </trkseg>
  </trk>
</gpx>