<?xml version="1.0" encoding="UTF-8"?>
<gpx xmlns="http://www.topografix.com/GPX/1/1" xmlns:gpxtpx="http://www.garmin.com/xmlschemas/TrackPointExtension/v1" xmlns:xsi="http://www.w3.org/2001/XMLSchema-instance" xsi:schemaLocation="http://www.topografix.com/GPX/1/1 http://www.topografix.com/GPX/1/1/gpx.xsd" version="1.1" creator="gpx.py -- https://github.com/tkrajina/gpxpy">
  <trk>
    <name>gpx from keep</name>
    <type>Walk</type>
    <trkseg>
      <trkpt lat="29.6023816932824" lon="106.31748634198217">
        <ele>249.0814208984375</ele>
        <time>2026-09-04T23:24:39Z</time>
      </trkpt>
      <trkpt lat="29.602086713462807" lon="106.31752326896971">
        <ele>253.50274658203125</ele>
        <time>2026-09-04T23:25:09Z</time>
      </trkpt>
      <trkpt lat="29.601909684272712" lon="106.31756717165987">
        <ele>253.69378662109375</ele>
        <time>2026-09-04T23:25:27Z</time>
      </trkpt>
      <trkpt lat="29.60186561051573" lon="106.3176130614147">
        <ele>252.03790283203125</ele>
        <time>2026-09-04T23:25:33Z</time>
      </trkpt>
      <trkpt lat="29.60183850307848" lon="106.31767391330926">
        <ele>252.9188232421875</ele>
        <time>2026-09-04T23:25:39Z</time>
      </trkpt>
      <trkpt lat="29.60187397012104" lon="106.31794823581033">
        <ele>256.5245361328125</ele>
        <time>2026-09-04T23:26:03Z</time>
      </trkpt>
      <trkpt lat="29.60185336086627" lon="106.3182714407286">
        <ele>255.8626708984375</ele>
        <time>2026-09-04T23:26:33Z</time>
      </trkpt>
      <trkpt lat="29.601840247037266" lon="106.31833328906139">
        <ele>255.5208740234375</ele>
        <time>2026-09-04T23:26:39Z</time>
      </trkpt>
      <trkpt lat="29.601864961861324" lon="106.31847892846503">
        <ele>254.01678466796875</ele>
        <time>2026-09-04T23:26:51Z</time>
      </trkpt>
      <trkpt lat="29.601867295294635" lon="106.31882806693801">
        <ele>254.15032958984375</ele>
        <time>2026-09-04T23:27:21Z</time>
      </trkpt>
      <trkpt lat="29.60188167212815" lon="106.31915226558787">
        <ele>253.26739501953125</ele>
        <time>2026-09-04T23:27:51Z</time>
      </trkpt>
      <trkpt lat="29.601888437671036" lon="106.31927396454198">
        <ele>253.2197265625</ele>
        <time>2026-09-04T23:28:03Z</time>
      </trkpt>
      <trkpt lat="29.60191133539209" lon="106.31932383992583">
        <ele>253.13397216796875</ele>
        <time>2026-09-04T23:28:09Z</time>
      </trkpt>
      <trkpt lat="29.601923710300422" lon="106.31964903537016">
        <ele>253.542724609375</ele>
        <time>2026-09-04T23:28:39Z</time>
      </trkpt>
      <trkpt lat="29.601898090757192" lon="106.31997722517588">
        <ele>255.3221435546875</ele>
        <time>2026-09-04T23:29:09Z</time>
      </trkpt>
      <trkpt lat="29.601942023869164" lon="106.3200051534173">
        <ele>255.42791748046875</ele>
        <time>2026-09-04T23:29:15Z</time>
      </trkpt>
      <trkpt lat="29.602146281688444" lon="106.31983755568753">
        <ele>258.1553955078125</ele>
        <time>2026-09-04T23:29:39Z</time>
      </trkpt>
      <trkpt lat="29.60237621888554" lon="106.31983355168529">
        <ele>256.9058837890625</ele>
        <time>2026-09-04T23:30:03Z</time>
      </trkpt>
      <trkpt lat="29.602429250326367" lon="106.31980861016967">
        <ele>256.23052978515625</ele>
        <time>2026-09-04T23:30:09Z</time>
      </trkpt>
      <trkpt lat="29.60245535293577" lon="106.31975075168967">
        <ele>256.22247314453125</ele>
        <time>2026-09-04T23:30:15Z</time>
      </trkpt>
      <trkpt lat="29.60245171246143" lon="106.31956321562024">
        <ele>258.0540771484375</ele>
        <time>2026-09-04T23:30:33Z</time>
      </trkpt>
      <trkpt lat="29.602497780321432" lon="106.31952031887812">
        <ele>258.5360107421875</ele>
        <time>2026-09-04T23:30:39Z</time>
      </trkpt>
      <trkpt lat="29.602553810824237" lon="106.3194953771433">
        <ele>259.91766357421875</ele>
        <time>2026-09-04T23:30:45Z</time>
      </trkpt>
      <trkpt lat="29.602816684697014" lon="106.31951930210704">
        <ele>258.2896728515625</ele>
        <time>2026-09-04T23:31:09Z</time>
      </trkpt>
      <trkpt lat="29.60293080228958" lon="106.31943949247648">
        <ele>257.10931396484375</ele>
        <time>2026-09-04T23:31:21Z</time>
      </trkpt>
      <trkpt lat="29.602966917021423" lon="106.31937365300729">
        <ele>257.71527099609375</ele>
        <time>2026-09-04T23:31:27Z</time>
      </trkpt>
      <trkpt lat="29.60292118056642" lon="106.31924297865184">
        <ele>256.093505859375</ele>
        <time>2026-09-04T23:31:39Z</time>
      </trkpt>
      <trkpt lat="29.602902808862687" lon="106.31891678533947">
        <ele>252.52496337890625</ele>
        <time>2026-09-04T23:32:09Z</time>
      </trkpt>
      <trkpt lat="29.60294231440516" lon="106.31864545258647">
        <ele>252.96685791015625</ele>
        <time>2026-09-04T23:32:33Z</time>
      </trkpt>
      <trkpt lat="29.602905850437423" lon="106.31837013381974">
        <ele>250.1866455078125</ele>
        <time>2026-09-04T23:32:57Z</time>
      </trkpt>
      <trkpt lat="29.602940328347735" lon="106.31811376361375">
        <ele>247.53912353515625</ele>
        <time>2026-09-04T23:33:21Z</time>
      </trkpt>
      <trkpt lat="29.602999545816274" lon="106.31799006476805">
        <ele>247.02569580078125</ele>
        <time>2026-09-04T23:33:33Z</time>
      </trkpt>
      <trkpt lat="29.603042954093432" lon="106.3177686074584">
        <ele>241.12261962890625</ele>
        <time>2026-09-04T23:33:51Z</time>
      </trkpt>
      <trkpt lat="29.603000661421405" lon="106.31740350830998">
        <ele>248.156494140625</ele>
        <time>2026-09-04T23:34:21Z</time>
      </trkpt>
      <trkpt lat="29.60297991802701" lon="106.3172718333119">
        <ele>249.6572265625</ele>
        <time>2026-09-04T23:34:33Z</time>
      </trkpt>
      <trkpt lat="29.602947045586717" lon="106.31720998731579">
        <ele>249.9073486328125</ele>
        <time>2026-09-04T23:34:39Z</time>
      </trkpt>
      <trkpt lat="29.602931698136924" lon="106.31686882632063">
        <ele>251.27490234375</ele>
        <time>2026-09-04T23:35:09Z</time>
      </trkpt>
      <trkpt lat="29.602933354275432" lon="106.31652267566646">
        <ele>252.1927490234375</ele>
        <time>2026-09-04T23:35:39Z</time>
      </trkpt>
      <trkpt lat="29.60286759182995" lon="106.31640796094146">
        <ele>250.278564453125</ele>
        <time>2026-09-04T23:35:51Z</time>
      </trkpt>
      <trkpt lat="29.60282068367573" lon="106.31636706403657">
        <ele>250.31524658203125</ele>
        <time>2026-09-04T23:35:57Z</time>
      </trkpt>
      <trkpt lat="29.602749748835947" lon="106.31634412455261">
        <ele>250.03070068359375</ele>
        <time>2026-09-04T23:36:03Z</time>
      </trkpt>
      <trkpt lat="29.602681731827374" lon="106.31636407974361">
        <ele>249.4317626953125</ele>
        <time>2026-09-04T23:36:09Z</time>
      </trkpt>
      <trkpt lat="29.602582590104227" lon="106.31645486315226">
        <ele>250.25860595703125</ele>
        <time>2026-09-04T23:36:21Z</time>
      </trkpt>
      <trkpt lat="29.602544484514734" lon="106.31651671377409">
        <ele>250.5426025390625</ele>
        <time>2026-09-04T23:36:27Z</time>
      </trkpt>
      <trkpt lat="29.60252535607157" lon="106.31658754119911">
        <ele>250.2755126953125</ele>
        <time>2026-09-04T23:36:33Z</time>
      </trkpt>
      <trkpt lat="29.602580652075645" lon="106.31694964905812">
        <ele>253.33038330078125</ele>
        <time>2026-09-04T23:37:03Z</time>
      </trkpt>
      <trkpt lat="29.602589031826163" lon="106.31727484951216">
        <ele>256.502685546875</ele>
        <time>2026-09-04T23:37:33Z</time>
      </trkpt>
      <trkpt lat="29.602483764456526" lon="106.3174324683194">
        <ele>255.0888671875</ele>
        <time>2026-09-04T23:37:51Z</time>
      </trkpt>
      <trkpt lat="29.602380659455996" lon="106.31750429787706">
        <ele>252.13519287109375</ele>
        <time>2026-09-04T23:38:03Z</time>
      </trkpt>
      <trkpt lat="29.60218168435771" lon="106.31752326324579">
        <ele>255.03228759765625</ele>
        <time>2026-09-04T23:38:21Z</time>
      </trkpt>
      <trkpt lat="29.60193663047335" lon="106.3175911111324">
        <ele>257.91815185546875</ele>
        <time>2026-09-04T23:38:45Z</time>
      </trkpt>
      <trkpt lat="29.601900563740838" lon="106.31763201267059">
        <ele>258.4129638671875</ele>
        <time>2026-09-04T23:38:51Z</time>
      </trkpt>
      <trkpt lat="29.60188246112544" lon="106.3176888738348">
        <ele>258.770751953125</ele>
        <time>2026-09-04T23:38:57Z</time>
      </trkpt>
      <trkpt lat="29.601904820107332" lon="106.31802205213282">
        <ele>257.82666015625</ele>
        <time>2026-09-04T23:39:28Z</time>
      </trkpt>
      <trkpt lat="29.601903429133117" lon="106.31822754589163">
        <ele>258.953125</ele>
        <time>2026-09-04T23:39:46Z</time>
      </trkpt>
      <trkpt lat="29.60187474584609" lon="106.31859065230954">
        <ele>258.74365234375</ele>
        <time>2026-09-04T23:40:16Z</time>
      </trkpt>
      <trkpt lat="29.601871071434235" lon="106.31894477860395">
        <ele>255.14422607421875</ele>
        <time>2026-09-04T23:40:46Z</time>
      </trkpt>
      <trkpt lat="29.601888532887322" lon="106.31922408775809">
        <ele>256.66357421875</ele>
        <time>2026-09-04T23:41:10Z</time>
      </trkpt>
      <trkpt lat="29.60193028194961" lon="106.31934877716058">
        <ele>257.146240234375</ele>
        <time>2026-09-04T23:41:22Z</time>
      </trkpt>
      <trkpt lat="29.601892034525598" lon="106.31948444418452">
        <ele>255.94464111328125</ele>
        <time>2026-09-04T23:41:34Z</time>
      </trkpt>
      <trkpt lat="29.60190636096686" lon="106.31983457756385">
        <ele>257.15203857421875</ele>
        <time>2026-09-04T23:42:04Z</time>
      </trkpt>
      <trkpt lat="29.601899099985378" lon="106.31997223745532">
        <ele>257.435302734375</ele>
        <time>2026-09-04T23:42:16Z</time>
      </trkpt>
      <trkpt lat="29.601935979938172" lon="106.32002909454363">
        <ele>258.701416015625</ele>
        <time>2026-09-04T23:42:22Z</time>
      </trkpt>
      <trkpt lat="29.602004046817168" lon="106.31998320397477">
        <ele>257.32086181640625</ele>
        <time>2026-09-04T23:42:28Z</time>
      </trkpt>
      <trkpt lat="29.60204614835796" lon="106.31992334951279">
        <ele>256.92626953125</ele>
        <time>2026-09-04T23:42:34Z</time>
      </trkpt>
      <trkpt lat="29.6023300842499" lon="106.31991136199629">
        <ele>258.1519775390625</ele>
        <time>2026-09-04T23:43:04Z</time>
      </trkpt>
      <trkpt lat="29.602386069015292" lon="106.31991036108643">
        <ele>257.9105224609375</ele>
        <time>2026-09-04T23:43:10Z</time>
      </trkpt>
      <trkpt lat="29.602438125555715" lon="106.31987245171787">
        <ele>256.54638671875</ele>
        <time>2026-09-04T23:43:16Z</time>
      </trkpt>
      <trkpt lat="29.60247724135845" lon="106.3198056146763">
        <ele>257.0823974609375</ele>
        <time>2026-09-04T23:43:22Z</time>
      </trkpt>
      <trkpt lat="29.6024966110356" lon="106.31960909946679">
        <ele>256.45745849609375</ele>
        <time>2026-09-04T23:43:40Z</time>
      </trkpt>
      <trkpt lat="29.602530705442028" lon="106.31955423304969">
        <ele>257.25360107421875</ele>
        <time>2026-09-04T23:43:46Z</time>
      </trkpt>
      <trkpt lat="29.602702725252904" lon="106.31951631637888">
        <ele>258.14288330078125</ele>
        <time>2026-09-04T23:44:04Z</time>
      </trkpt>
      <trkpt lat="29.602816658021638" lon="106.31953326758601">
        <ele>257.2020263671875</ele>
        <time>2026-09-04T23:44:16Z</time>
      </trkpt>
      <trkpt lat="29.602886663311885" lon="106.31951929788575">
        <ele>256.3299560546875</ele>
        <time>2026-09-04T23:44:22Z</time>
      </trkpt>
      <trkpt lat="29.602934768681408" lon="106.31945645032363">
        <ele>253.779296875</ele>
        <time>2026-09-04T23:44:28Z</time>
      </trkpt>
      <trkpt lat="29.6029650547685" lon="106.3193018305948">
        <ele>252.6732177734375</ele>
        <time>2026-09-04T23:44:40Z</time>
      </trkpt>
      <trkpt lat="29.602969603792218" lon="106.31901354240826">
        <ele>253.4779052734375</ele>
        <time>2026-09-04T23:45:04Z</time>
      </trkpt>
      <trkpt lat="29.602936859371614" lon="106.31888486208778">
        <ele>253.73797607421875</ele>
        <time>2026-09-04T23:45:16Z</time>
      </trkpt>
      <trkpt lat="29.602924234316255" lon="106.31869034292183">
        <ele>253.526611328125</ele>
        <time>2026-09-04T23:45:34Z</time>
      </trkpt>
      <trkpt lat="29.602936348567802" lon="106.31862849478387">
        <ele>252.59686279296875</ele>
        <time>2026-09-04T23:45:40Z</time>
      </trkpt>
      <trkpt lat="29.60294094427262" lon="106.31831526696385">
        <ele>255.11871337890625</ele>
        <time>2026-09-04T23:46:10Z</time>
      </trkpt>
      <trkpt lat="29.602932414358623" lon="106.31806987223">
        <ele>251.852783203125</ele>
        <time>2026-09-04T23:46:34Z</time>
      </trkpt>
      <trkpt lat="29.60297592520851" lon="106.31779454765073">
        <ele>251.266357421875</ele>
        <time>2026-09-04T23:46:58Z</time>
      </trkpt>
      <trkpt lat="29.602940275826146" lon="106.31761598927766">
        <ele>251.5545654296875</ele>
        <time>2026-09-04T23:47:16Z</time>
      </trkpt>
      <trkpt lat="29.602946905363282" lon="106.31728380587454">
        <ele>251.0633544921875</ele>
        <time>2026-09-04T23:47:46Z</time>
      </trkpt>
      <trkpt lat="29.60301012676131" lon="106.31715711344765">
        <ele>249.21453857421875</ele>
        <time>2026-09-04T23:47:58Z</time>
      </trkpt>
      <trkpt lat="29.60295750467631" lon="106.31696658470116">
        <ele>251.4901123046875</ele>
        <time>2026-09-04T23:48:16Z</time>
      </trkpt>
      <trkpt lat="29.60295616193011" lon="106.31662043448388">
        <ele>252.724853515625</ele>
        <time>2026-09-04T23:48:46Z</time>
      </trkpt>
      <trkpt lat="29.602945261739237" lon="106.3165695599481">
        <ele>252.737548828125</ele>
        <time>2026-09-04T23:48:52Z</time>
      </trkpt>
      <trkpt lat="29.60288947925765" lon="106.31646382264849">
        <ele>252.93389892578125</ele>
        <time>2026-09-04T23:49:04Z</time>
      </trkpt>
      <trkpt lat="29.60279662486275" lon="106.31640197989113">
        <ele>252.6693115234375</ele>
        <time>2026-09-04T23:49:16Z</time>
      </trkpt>
      <trkpt lat="29.602739659292176" lon="106.31639300533391">
        <ele>253.24859619140625</ele>
        <time>2026-09-04T23:49:22Z</time>
      </trkpt>
      <trkpt lat="29.60262660878351" lon="106.31643790208318">
        <ele>252.3773193359375</ele>
        <time>2026-09-04T23:49:34Z</time>
      </trkpt>
      <trkpt lat="29.602554445531588" lon="106.31653566668734">
        <ele>253.302490234375</ele>
        <time>2026-09-04T23:49:46Z</time>
      </trkpt>
      <trkpt lat="29.602530214582238" lon="106.31666135979727">
        <ele>253.99493408203125</ele>
        <time>2026-09-04T23:49:58Z</time>
      </trkpt>
      <trkpt lat="29.602566800227738" lon="106.31687383606113">
        <ele>254.03216552734375</ele>
        <time>2026-09-04T23:50:16Z</time>
      </trkpt>
      <trkpt lat="29.602592652192225" lon="106.31694765323475">
        <ele>255.39404296875</ele>
        <time>2026-09-04T23:50:22Z</time>
      </trkpt>
      <trkpt lat="29.60258023163567" lon="106.31717110503422">
        <ele>255.05426025390625</ele>
        <time>2026-09-04T23:50:40Z</time>
      </trkpt>
      <trkpt lat="29.602539993748955" lon="106.31730278380276">
        <ele>254.576171875</ele>
        <time>2026-09-04T23:50:52Z</time>
      </trkpt>
      <trkpt lat="29.602405750404813" lon="106.31745242395357">
        <ele>254.0137939453125</ele>
        <time>2026-09-04T23:51:10Z</time>
      </trkpt>
      <trkpt lat="29.602356704726947" lon="106.31748434839558">
        <ele>254.093017578125</ele>
        <time>2026-09-04T23:51:16Z</time>
      </trkpt>
      <trkpt lat="29.602046742788186" lon="106.31751429346383">
        <ele>253.287841796875</ele>
        <time>2026-09-04T23:51:46Z</time>
      </trkpt>
      <trkpt lat="29.601925694539474" lon="106.31755919032852">
        <ele>253.95355224609375</ele>
        <time>2026-09-04T23:51:58Z</time>
      </trkpt>
      <trkpt lat="29.601855503555836" lon="106.31767091964942">
        <ele>255.95526123046875</ele>
        <time>2026-09-04T23:52:10Z</time>
      </trkpt>
      <trkpt lat="29.601878907831097" lon="106.31798015689309">
        <ele>253.80828857421875</ele>
        <time>2026-09-04T23:52:40Z</time>
      </trkpt>
      <trkpt lat="29.601915776855797" lon="106.31804299986895">
        <ele>256.297607421875</ele>
        <time>2026-09-04T23:52:46Z</time>
      </trkpt>
      <trkpt lat="29.601920408720858" lon="106.31823552519948">
        <ele>258.9793701171875</ele>
        <time>2026-09-04T23:53:04Z</time>
      </trkpt>
      <trkpt lat="29.60190628190606" lon="106.31830435639405">
        <ele>258.3984375</ele>
        <time>2026-09-04T23:53:10Z</time>
      </trkpt>
      <trkpt lat="29.601927889310268" lon="106.31850685578647">
        <ele>259.895751953125</ele>
        <time>2026-09-04T23:53:28Z</time>
      </trkpt>
      <trkpt lat="29.60186732383324" lon="106.3188131038674">
        <ele>255.08544921875</ele>
        <time>2026-09-04T23:53:58Z</time>
      </trkpt>
      <trkpt lat="29.601879053755894" lon="106.3189527584202">
        <ele>255.63250732421875</ele>
        <time>2026-09-04T23:54:10Z</time>
      </trkpt>
      <trkpt lat="29.601870587916036" lon="106.31919815291049">
        <ele>257.42333984375</ele>
        <time>2026-09-04T23:54:34Z</time>
      </trkpt>
      <trkpt lat="29.601928253991705" lon="106.31936374030785">
        <ele>257.552001953125</ele>
        <time>2026-09-04T23:54:52Z</time>
      </trkpt>
      <trkpt lat="29.601912652684835" lon="106.3196809571068">
        <ele>254.66015625</ele>
        <time>2026-09-04T23:55:22Z</time>
      </trkpt>
      <trkpt lat="29.60192204716482" lon="106.31999617683624">
        <ele>258.9609375</ele>
        <time>2026-09-04T23:55:52Z</time>
      </trkpt>
      <trkpt lat="29.60196796059168" lon="106.32003408027246">
        <ele>259.66485595703125</ele>
        <time>2026-09-04T23:55:58Z</time>
      </trkpt>
      <trkpt lat="29.60208297874391" lon="106.32000614244487">
        <ele>258.041259765625</ele>
        <time>2026-09-04T23:56:10Z</time>
      </trkpt>
      <trkpt lat="29.602203947396262" lon="106.32000314255109">
        <ele>256.626708984375</ele>
        <time>2026-09-04T23:56:22Z</time>
      </trkpt>
      <trkpt lat="29.602253665062836" lon="106.32014279395746">
        <ele>253.50274658203125</ele>
        <time>2026-09-04T23:56:37Z</time>
      </trkpt>
    </trkseg>
  </trk>
</gpx>