<?xml version="1.0" encoding="UTF-8"?>
<gpx xmlns="http://www.topografix.com/GPX/1/1" xmlns:gpxtpx="http://www.garmin.com/xmlschemas/TrackPointExtension/v1" xmlns:xsi="http://www.w3.org/2001/XMLSchema-instance" xsi:schemaLocation="http://www.topografix.com/GPX/1/1 http://www.topografix.com/GPX/1/1/gpx.xsd" version="1.1" creator="gpx.py -- https://github.com/tkrajina/gpxpy">
  <trk>
    <name>gpx from keep</name>
    <type>Walk</type>
    <trkseg>
      <trkpt lat="29.60192903739032" lon="106.32000016654179">
        <ele>278.3294677734375</ele>
        <time>2026-09-19T11:05:24Z</time>
        <extensions>
          <gpxtpx:TrackPointExtension>
            <gpxtpx:hr>86</gpxtpx:hr>
          </gpxtpx:TrackPointExtension>
        </extensions>
      </trkpt>
      <trkpt lat="29.602060513920676" lon="106.31972982731503">
        <ele>255.32806396484375</ele>
        <time>2026-09-19T11:05:30Z</time>
        <extensions>
          <gpxtpx:TrackPointExtension>
            <gpxtpx:hr>86</gpxtpx:hr>
          </gpxtpx:TrackPointExtension>
        </extensions>
      </trkpt>
      <trkpt lat="29.602139537366465" lon="106.31970488421884">
        <ele>252.013671875</ele>
        <time>2026-09-19T11:05:36Z</time>
        <extensions>
          <gpxtpx:TrackPointExtension>
            <gpxtpx:hr>86</gpxtpx:hr>
          </gpxtpx:TrackPointExtension>
        </extensions>
      </trkpt>
      <trkpt lat="29.60219051030744" lon="106.3197108663431">
        <ele>252.83831787109375</ele>
        <time>2026-09-19T11:05:39Z</time>
        <extensions>
          <gpxtpx:TrackPointExtension>
            <gpxtpx:hr>86</gpxtpx:hr>
          </gpxtpx:TrackPointExtension>
        </extensions>
      </trkpt>
      <trkpt lat="29.602356272668313" lon="106.31980861457232">
        <ele>251.101806640625</ele>
        <time>2026-09-19T11:05:45Z</time>
        <extensions>
          <gpxtpx:TrackPointExtension>
            <gpxtpx:hr>86</gpxtpx:hr>
          </gpxtpx:TrackPointExtension>
        </extensions>
      </trkpt>
      <trkpt lat="29.602426298903286" lon="106.31978367202848">
        <ele>254.58953857421875</ele>
        <time>2026-09-19T11:05:51Z</time>
      </trkpt>
      <trkpt lat="29.60246244228728" lon="106.31970286967285">
        <ele>262.63714599609375</ele>
        <time>2026-09-19T11:05:57Z</time>
      </trkpt>
      <trkpt lat="29.602455617862635" lon="106.3196120945407">
        <ele>262.533203125</ele>
        <time>2026-09-19T11:06:03Z</time>
      </trkpt>
      <trkpt lat="29.60249077674686" lon="106.31952331190297">
        <ele>258.24993896484375</ele>
        <time>2026-09-19T11:06:09Z</time>
      </trkpt>
      <trkpt lat="29.60256479412287" lon="106.3195023592205">
        <ele>252.30499267578125</ele>
        <time>2026-09-19T11:06:15Z</time>
      </trkpt>
      <trkpt lat="29.602876710188802" lon="106.31949635519979">
        <ele>253.8115234375</ele>
        <time>2026-09-19T11:06:39Z</time>
      </trkpt>
      <trkpt lat="29.602945790088345" lon="106.31944348171051">
        <ele>254.328125</ele>
        <time>2026-09-19T11:06:45Z</time>
      </trkpt>
      <trkpt lat="29.60298291975497" lon="106.31936966190246">
        <ele>252.006103515625</ele>
        <time>2026-09-19T11:06:51Z</time>
      </trkpt>
      <trkpt lat="29.603007624546276" lon="106.31899658198863">
        <ele>253.073974609375</ele>
        <time>2026-09-19T11:07:15Z</time>
      </trkpt>
      <trkpt lat="29.603000801770694" lon="106.31890480898115">
        <ele>254.17822265625</ele>
        <time>2026-09-19T11:07:21Z</time>
      </trkpt>
      <trkpt lat="29.60301942020677" lon="106.31857761527756">
        <ele>251.437255859375</ele>
        <time>2026-09-19T11:07:42Z</time>
      </trkpt>
      <trkpt lat="29.603021609725594" lon="106.31847786118497">
        <ele>255.08636474609375</ele>
        <time>2026-09-19T11:07:48Z</time>
      </trkpt>
      <trkpt lat="29.602981274040133" lon="106.31813570707108">
        <ele>254.22845458984375</ele>
        <time>2026-09-19T11:08:12Z</time>
      </trkpt>
      <trkpt lat="29.6029929333021" lon="106.3177875638158">
        <ele>255.01568603515625</ele>
        <time>2026-09-19T11:08:36Z</time>
      </trkpt>
      <trkpt lat="29.60300411210521" lon="106.31769179886197">
        <ele>257.88751220703125</ele>
        <time>2026-09-19T11:08:42Z</time>
      </trkpt>
      <trkpt lat="29.60297271736334" lon="106.3173785713201">
        <ele>252.9564208984375</ele>
        <time>2026-09-19T11:09:06Z</time>
      </trkpt>
      <trkpt lat="29.602975018088888" lon="106.31721996111209">
        <ele>251.8309326171875</ele>
        <time>2026-09-19T11:09:18Z</time>
      </trkpt>
      <trkpt lat="29.603005469192386" lon="106.31697755486049">
        <ele>257.17132568359375</ele>
        <time>2026-09-19T11:09:36Z</time>
      </trkpt>
      <trkpt lat="29.602999637622105" lon="106.31688977079045">
        <ele>259.71337890625</ele>
        <time>2026-09-19T11:09:42Z</time>
      </trkpt>
      <trkpt lat="29.603059672303672" lon="106.31686183575422">
        <ele>261.68994140625</ele>
        <time>2026-09-19T11:09:48Z</time>
      </trkpt>
      <trkpt lat="29.603131629507846" lon="106.31687280447645">
        <ele>259.159912109375</ele>
        <time>2026-09-19T11:09:54Z</time>
      </trkpt>
      <trkpt lat="29.603144489243764" lon="106.3169446273321">
        <ele>258.18780517578125</ele>
        <time>2026-09-19T11:10:00Z</time>
      </trkpt>
      <trkpt lat="29.60309548337197" lon="106.31695560333641">
        <ele>263.5069580078125</ele>
        <time>2026-09-19T11:10:06Z</time>
      </trkpt>
      <trkpt lat="29.60306064549944" lon="106.3168758014057">
        <ele>263.91259765625</ele>
        <time>2026-09-19T11:10:15Z</time>
      </trkpt>
      <trkpt lat="29.602981635546538" lon="106.3168937620774">
        <ele>261.3077392578125</ele>
        <time>2026-09-19T11:10:21Z</time>
      </trkpt>
      <trkpt lat="29.60293476157202" lon="106.31683490940709">
        <ele>256.76123046875</ele>
        <time>2026-09-19T11:10:27Z</time>
      </trkpt>
      <trkpt lat="29.602922308473747" lon="106.3165486127165">
        <ele>254.8243408203125</ele>
        <time>2026-09-19T11:10:48Z</time>
      </trkpt>
      <trkpt lat="29.602894451264415" lon="106.31647778810152">
        <ele>258.71795654296875</ele>
        <time>2026-09-19T11:10:54Z</time>
      </trkpt>
      <trkpt lat="29.60285056678198" lon="106.31642392283406">
        <ele>261.293701171875</ele>
        <time>2026-09-19T11:11:00Z</time>
      </trkpt>
      <trkpt lat="29.602791633950602" lon="106.31639798997453">
        <ele>261.6617431640625</ele>
        <time>2026-09-19T11:11:06Z</time>
      </trkpt>
      <trkpt lat="29.60272665570578" lon="106.3163969963347">
        <ele>262.406982421875</ele>
        <time>2026-09-19T11:11:12Z</time>
      </trkpt>
      <trkpt lat="29.602658634912384" lon="106.31641894662604">
        <ele>264.1893310546875</ele>
        <time>2026-09-19T11:11:18Z</time>
      </trkpt>
      <trkpt lat="29.602599543316604" lon="106.31647680831458">
        <ele>264.6422119140625</ele>
        <time>2026-09-19T11:11:24Z</time>
      </trkpt>
      <trkpt lat="29.602525255833367" lon="106.3166404114961">
        <ele>263.69134521484375</ele>
        <time>2026-09-19T11:11:36Z</time>
      </trkpt>
      <trkpt lat="29.60250810213163" lon="106.31672420690924">
        <ele>263.5494384765625</ele>
        <time>2026-09-19T11:11:42Z</time>
      </trkpt>
      <trkpt lat="29.60252279475786" lon="106.31688381421928">
        <ele>261.155029296875</ele>
        <time>2026-09-19T11:11:54Z</time>
      </trkpt>
      <trkpt lat="29.60256152534543" lon="106.31701947870224">
        <ele>260.14697265625</ele>
        <time>2026-09-19T11:12:06Z</time>
      </trkpt>
      <trkpt lat="29.602564951987542" lon="106.31732073815414">
        <ele>258.984619140625</ele>
        <time>2026-09-19T11:12:30Z</time>
      </trkpt>
      <trkpt lat="29.602490747147428" lon="106.31744044827181">
        <ele>259.9222412109375</ele>
        <time>2026-09-19T11:12:42Z</time>
      </trkpt>
      <trkpt lat="29.602382620916877" lon="106.31752424868131">
        <ele>260.4853515625</ele>
        <time>2026-09-19T11:12:54Z</time>
      </trkpt>
      <trkpt lat="29.602244585409174" lon="106.31756515638347">
        <ele>261.2901611328125</ele>
        <time>2026-09-19T11:13:06Z</time>
      </trkpt>
      <trkpt lat="29.601958688214804" lon="106.3175571932483">
        <ele>258.26220703125</ele>
        <time>2026-09-19T11:13:31Z</time>
      </trkpt>
      <trkpt lat="29.60189566011581" lon="106.31758213569098">
        <ele>261.56048583984375</ele>
        <time>2026-09-19T11:13:37Z</time>
      </trkpt>
      <trkpt lat="29.60187851357621" lon="106.31766194035659">
        <ele>259.70263671875</ele>
        <time>2026-09-19T11:13:43Z</time>
      </trkpt>
      <trkpt lat="29.601917880681714" lon="106.31798813488781">
        <ele>253.756591796875</ele>
        <time>2026-09-19T11:14:07Z</time>
      </trkpt>
      <trkpt lat="29.601888192406424" lon="106.31835423452644">
        <ele>249.86712646484375</ele>
        <time>2026-09-19T11:14:37Z</time>
      </trkpt>
      <trkpt lat="29.60189260149938" lon="106.31866347158328">
        <ele>248.2918701171875</ele>
        <time>2026-09-19T11:15:01Z</time>
      </trkpt>
      <trkpt lat="29.601916504746033" lon="106.31871035446065">
        <ele>249.8912353515625</ele>
        <time>2026-09-19T11:15:04Z</time>
      </trkpt>
      <trkpt lat="29.601925167150476" lon="106.3188859206358">
        <ele>253.5255126953125</ele>
        <time>2026-09-19T11:15:16Z</time>
      </trkpt>
      <trkpt lat="29.601897027301273" lon="106.31896373024492">
        <ele>256.66162109375</ele>
        <time>2026-09-19T11:15:22Z</time>
      </trkpt>
      <trkpt lat="29.601889528772194" lon="106.31922608276939">
        <ele>264.1783447265625</ele>
        <time>2026-09-19T11:15:40Z</time>
      </trkpt>
      <trkpt lat="29.601953088217655" lon="106.31944653419347">
        <ele>262.7137451171875</ele>
        <time>2026-09-19T11:15:58Z</time>
      </trkpt>
      <trkpt lat="29.601964337464278" lon="106.31983756666399">
        <ele>260.9737548828125</ele>
        <time>2026-09-19T11:16:25Z</time>
      </trkpt>
      <trkpt lat="29.601971009257138" lon="106.3200081442639">
        <ele>254.9923095703125</ele>
        <time>2026-09-19T11:16:37Z</time>
      </trkpt>
      <trkpt lat="29.602029939679763" lon="106.3200350740647">
        <ele>253.72235107421875</ele>
        <time>2026-09-19T11:16:43Z</time>
      </trkpt>
      <trkpt lat="29.602135098205004" lon="106.31993531453207">
        <ele>255.31915283203125</ele>
        <time>2026-09-19T11:16:55Z</time>
      </trkpt>
      <trkpt lat="29.602319181044187" lon="106.31986248356952">
        <ele>250.8785400390625</ele>
        <time>2026-09-19T11:17:13Z</time>
      </trkpt>
      <trkpt lat="29.602371165126396" lon="106.31986248043333">
        <ele>251.7584228515625</ele>
        <time>2026-09-19T11:17:19Z</time>
      </trkpt>
      <trkpt lat="29.60243420876119" lon="106.3198295580564">
        <ele>252.02227783203125</ele>
        <time>2026-09-19T11:17:25Z</time>
      </trkpt>
      <trkpt lat="29.60246232982558" lon="106.31976172413137">
        <ele>251.7628173828125</ele>
        <time>2026-09-19T11:17:31Z</time>
      </trkpt>
      <trkpt lat="29.602470670442422" lon="106.3195821676202">
        <ele>254.52691650390625</ele>
        <time>2026-09-19T11:17:43Z</time>
      </trkpt>
      <trkpt lat="29.60251877389721" lon="106.31952031761175">
        <ele>252.13250732421875</ele>
        <time>2026-09-19T11:17:49Z</time>
      </trkpt>
      <trkpt lat="29.602591783960133" lon="106.31950335512664">
        <ele>249.85247802734375</ele>
        <time>2026-09-19T11:17:55Z</time>
      </trkpt>
      <trkpt lat="29.60272673315956" lon="106.31950833465731">
        <ele>250.43414306640625</ele>
        <time>2026-09-19T11:18:07Z</time>
      </trkpt>
      <trkpt lat="29.60287275904136" lon="106.31947141708032">
        <ele>248.424072265625</ele>
        <time>2026-09-19T11:18:19Z</time>
      </trkpt>
      <trkpt lat="29.602934822023393" lon="106.31942851935376">
        <ele>247.79730224609375</ele>
        <time>2026-09-19T11:18:25Z</time>
      </trkpt>
      <trkpt lat="29.602978926690724" lon="106.3193666695386">
        <ele>249.37158203125</ele>
        <time>2026-09-19T11:18:31Z</time>
      </trkpt>
      <trkpt lat="29.602994580931398" lon="106.31902152119622">
        <ele>254.891357421875</ele>
        <time>2026-09-19T11:18:55Z</time>
      </trkpt>
      <trkpt lat="29.60298190651876" lon="106.31885293816721">
        <ele>253.4952392578125</ele>
        <time>2026-09-19T11:19:07Z</time>
      </trkpt>
      <trkpt lat="29.603014545322512" lon="106.3185127755039">
        <ele>251.3173828125</ele>
        <time>2026-09-19T11:19:31Z</time>
      </trkpt>
      <trkpt lat="29.60299125769026" lon="106.31814268926314">
        <ele>253.93060302734375</ele>
        <time>2026-09-19T11:20:01Z</time>
      </trkpt>
      <trkpt lat="29.60295371934193" lon="106.31790627390068">
        <ele>254.17132568359375</ele>
        <time>2026-09-19T11:20:19Z</time>
      </trkpt>
      <trkpt lat="29.602952344239206" lon="106.31757808181956">
        <ele>263.98248291015625</ele>
        <time>2026-09-19T11:20:43Z</time>
      </trkpt>
      <trkpt lat="29.602952776546207" lon="106.3173506412018">
        <ele>264.156005859375</ele>
        <time>2026-09-19T11:21:01Z</time>
      </trkpt>
      <trkpt lat="29.602981245482752" lon="106.31709925735626">
        <ele>262.5645751953125</ele>
        <time>2026-09-19T11:21:19Z</time>
      </trkpt>
      <trkpt lat="29.602953871206577" lon="106.31677405763213">
        <ele>267.43798828125</ele>
        <time>2026-09-19T11:21:43Z</time>
      </trkpt>
      <trkpt lat="29.602949309682202" lon="106.3165436233239">
        <ele>263.98687744140625</ele>
        <time>2026-09-19T11:22:01Z</time>
      </trkpt>
      <trkpt lat="29.602917459362803" lon="106.31646980628554">
        <ele>263.5946044921875</ele>
        <time>2026-09-19T11:22:07Z</time>
      </trkpt>
      <trkpt lat="29.602870572012776" lon="106.31641793630399">
        <ele>263.95672607421875</ele>
        <time>2026-09-19T11:22:13Z</time>
      </trkpt>
      <trkpt lat="29.60281462881257" lon="106.31639699103492">
        <ele>263.55938720703125</ele>
        <time>2026-09-19T11:22:19Z</time>
      </trkpt>
      <trkpt lat="29.60274265270538" lon="106.31639599781664">
        <ele>263.9842529296875</ele>
        <time>2026-09-19T11:22:25Z</time>
      </trkpt>
      <trkpt lat="29.60267263063215" lon="106.31641894578289">
        <ele>264.47125244140625</ele>
        <time>2026-09-19T11:22:31Z</time>
      </trkpt>
      <trkpt lat="29.60261155098962" lon="106.31647082226874">
        <ele>265.4234619140625</ele>
        <time>2026-09-19T11:22:37Z</time>
      </trkpt>
      <trkpt lat="29.602548313103668" lon="106.31660649331899">
        <ele>263.619140625</ele>
        <time>2026-09-19T11:22:49Z</time>
      </trkpt>
      <trkpt lat="29.6025388352908" lon="106.31685987203565">
        <ele>259.8834228515625</ele>
        <time>2026-09-19T11:23:07Z</time>
      </trkpt>
      <trkpt lat="29.602582293539278" lon="106.3171381858047">
        <ele>255.23699951171875</ele>
        <time>2026-09-19T11:23:31Z</time>
      </trkpt>
      <trkpt lat="29.602573027244077" lon="106.31727983821553">
        <ele>257.94134521484375</ele>
        <time>2026-09-19T11:23:43Z</time>
      </trkpt>
      <trkpt lat="29.602549899713598" lon="106.31735066548205">
        <ele>258.25750732421875</ele>
        <time>2026-09-19T11:23:49Z</time>
      </trkpt>
      <trkpt lat="29.602461699139088" lon="106.31747037641833">
        <ele>258.07720947265625</ele>
        <time>2026-09-19T11:24:01Z</time>
      </trkpt>
      <trkpt lat="29.602346611075454" lon="106.31753522385785">
        <ele>261.6995849609375</ele>
        <time>2026-09-19T11:24:13Z</time>
      </trkpt>
      <trkpt lat="29.60219760928663" lon="106.3175601714858">
        <ele>262.5565185546875</ele>
        <time>2026-09-19T11:24:25Z</time>
      </trkpt>
      <trkpt lat="29.601912715594686" lon="106.31755021319803">
        <ele>258.8101806640625</ele>
        <time>2026-09-19T11:24:49Z</time>
      </trkpt>
      <trkpt lat="29.60187163712799" lon="106.31759809786877">
        <ele>254.007568359375</ele>
        <time>2026-09-19T11:24:55Z</time>
      </trkpt>
      <trkpt lat="29.601855349868703" lon="106.31775172078763">
        <ele>251.7913818359375</ele>
        <time>2026-09-19T11:25:07Z</time>
      </trkpt>
      <trkpt lat="29.601896799773076" lon="106.31803402312902">
        <ele>253.84063720703125</ele>
        <time>2026-09-19T11:25:31Z</time>
      </trkpt>
      <trkpt lat="29.601903107981386" lon="106.31839613033047">
        <ele>258.1971435546875</ele>
        <time>2026-09-19T11:26:01Z</time>
      </trkpt>
      <trkpt lat="29.60189266806303" lon="106.31862855771655">
        <ele>257.13623046875</ele>
        <time>2026-09-19T11:26:19Z</time>
      </trkpt>
      <trkpt lat="29.60193118624188" lon="106.31887494735939">
        <ele>263.3944091796875</ele>
        <time>2026-09-19T11:26:37Z</time>
      </trkpt>
      <trkpt lat="29.60189405867151" lon="106.31894776982935">
        <ele>265.773681640625</ele>
        <time>2026-09-19T11:26:43Z</time>
      </trkpt>
      <trkpt lat="29.601881479809737" lon="106.31925301671642">
        <ele>270.05010986328125</ele>
        <time>2026-09-19T11:27:07Z</time>
      </trkpt>
      <trkpt lat="29.601942925526995" lon="106.31953332029104">
        <ele>261.4273681640625</ele>
        <time>2026-09-19T11:27:31Z</time>
      </trkpt>
      <trkpt lat="29.601972195828175" lon="106.31991038605574">
        <ele>250.02508544921875</ele>
        <time>2026-09-19T11:28:01Z</time>
      </trkpt>
      <trkpt lat="29.601962063506146" lon="106.31998121144393">
        <ele>250.0489501953125</ele>
        <time>2026-09-19T11:28:07Z</time>
      </trkpt>
      <trkpt lat="29.60198393089337" lon="106.32004704722007">
        <ele>251.14642333984375</ele>
        <time>2026-09-19T11:28:13Z</time>
      </trkpt>
      <trkpt lat="29.602035989333157" lon="106.32000814034345">
        <ele>250.6732177734375</ele>
        <time>2026-09-19T11:28:19Z</time>
      </trkpt>
      <trkpt lat="29.60207208318479" lon="106.31995327391115">
        <ele>252.6705322265625</ele>
        <time>2026-09-19T11:28:25Z</time>
      </trkpt>
      <trkpt lat="29.602295091151653" lon="106.31991335917189">
        <ele>251.93145751953125</ele>
        <time>2026-09-19T11:28:49Z</time>
      </trkpt>
      <trkpt lat="29.60233713740142" lon="106.31988243313434">
        <ele>252.40142822265625</ele>
        <time>2026-09-19T11:28:55Z</time>
      </trkpt>
      <trkpt lat="29.602398120636934" lon="106.31988143192282">
        <ele>249.37298583984375</ele>
        <time>2026-09-19T11:29:01Z</time>
      </trkpt>
      <trkpt lat="29.602435212268123" lon="106.31982756293063">
        <ele>252.83978271484375</ele>
        <time>2026-09-19T11:29:07Z</time>
      </trkpt>
      <trkpt lat="29.60248749372349" lon="106.3196719446293">
        <ele>253.0186767578125</ele>
        <time>2026-09-19T11:29:19Z</time>
      </trkpt>
      <trkpt lat="29.60252360087026" lon="106.31961009537234">
        <ele>250.042724609375</ele>
        <time>2026-09-19T11:29:25Z</time>
      </trkpt>
      <trkpt lat="29.60257667803394" lon="106.31956121301411">
        <ele>246.633544921875</ele>
        <time>2026-09-19T11:29:31Z</time>
      </trkpt>
      <trkpt lat="29.602817648188996" lon="106.31953825519652">
        <ele>245.47406005859375</ele>
        <time>2026-09-19T11:29:55Z</time>
      </trkpt>
      <trkpt lat="29.602893775488504" lon="106.3194594453997">
        <ele>241.21893310546875</ele>
        <time>2026-09-19T11:30:07Z</time>
      </trkpt>
      <trkpt lat="29.602984443120963" lon="106.3190953395135">
        <ele>247.21343994140625</ele>
        <time>2026-09-19T11:30:37Z</time>
      </trkpt>
      <trkpt lat="29.602977728866694" lon="106.31894670693931">
        <ele>250.616455078125</ele>
        <time>2026-09-19T11:30:49Z</time>
      </trkpt>
      <trkpt lat="29.60291997682421" lon="106.31882600838156">
        <ele>251.5284423828125</ele>
        <time>2026-09-19T11:31:01Z</time>
      </trkpt>
      <trkpt lat="29.60291250612165" lon="106.31854969062131">
        <ele>255.952392578125</ele>
        <time>2026-09-19T11:31:25Z</time>
      </trkpt>
      <trkpt lat="29.602938923979575" lon="106.31832624003513">
        <ele>262.3525390625</ele>
        <time>2026-09-19T11:31:43Z</time>
      </trkpt>
      <trkpt lat="29.602971191612415" lon="106.31818059706316">
        <ele>261.9315185546875</ele>
        <time>2026-09-19T11:31:55Z</time>
      </trkpt>
      <trkpt lat="29.60297232807243" lon="106.31810877397375">
        <ele>261.6103515625</ele>
        <time>2026-09-19T11:32:01Z</time>
      </trkpt>
      <trkpt lat="29.60286870923405" lon="106.31792523235033">
        <ele>250.1727294921875</ele>
        <time>2026-09-19T11:32:16Z</time>
      </trkpt>
      <trkpt lat="29.602903829524138" lon="106.31785639972563">
        <ele>252.3436279296875</ele>
        <time>2026-09-19T11:32:22Z</time>
      </trkpt>
      <trkpt lat="29.60292621939898" lon="106.31764791157474">
        <ele>256.80340576171875</ele>
        <time>2026-09-19T11:32:37Z</time>
      </trkpt>
      <trkpt lat="29.60295529400751" lon="106.31760401782697">
        <ele>256.4429931640625</ele>
        <time>2026-09-19T11:32:40Z</time>
      </trkpt>
      <trkpt lat="29.60297645070198" lon="106.31751822761399">
        <ele>258.61285400390625</ele>
        <time>2026-09-19T11:32:46Z</time>
      </trkpt>
      <trkpt lat="29.602947742058127" lon="106.3173695949016">
        <ele>246.51104736328125</ele>
        <time>2026-09-19T11:32:55Z</time>
      </trkpt>
      <trkpt lat="29.60292339008679" lon="106.31703242504109">
        <ele>252.78173828125</ele>
        <time>2026-09-19T11:33:16Z</time>
      </trkpt>
      <trkpt lat="29.602934517380348" lon="106.3169635934363">
        <ele>255.17144775390625</ele>
        <time>2026-09-19T11:33:22Z</time>
      </trkpt>
      <trkpt lat="29.60292282579682" lon="106.31680298849115">
        <ele>259.114013671875</ele>
        <time>2026-09-19T11:33:34Z</time>
      </trkpt>
      <trkpt lat="29.602943173465416" lon="106.31661644505598">
        <ele>259.4764404296875</ele>
        <time>2026-09-19T11:33:52Z</time>
      </trkpt>
      <trkpt lat="29.602918477961257" lon="106.31645983068614">
        <ele>262.09283447265625</ele>
        <time>2026-09-19T11:34:04Z</time>
      </trkpt>
      <trkpt lat="29.602863589271816" lon="106.31640995629105">
        <ele>261.0869140625</ele>
        <time>2026-09-19T11:34:10Z</time>
      </trkpt>
      <trkpt lat="29.602689614094277" lon="106.31642493008461">
        <ele>264.33746337890625</ele>
        <time>2026-09-19T11:34:22Z</time>
      </trkpt>
      <trkpt lat="29.60261854695865" lon="106.31647181940102">
        <ele>263.019775390625</ele>
        <time>2026-09-19T11:34:28Z</time>
      </trkpt>
      <trkpt lat="29.602546330736356" lon="106.31659751546366">
        <ele>261.2158203125</ele>
        <time>2026-09-19T11:34:40Z</time>
      </trkpt>
      <trkpt lat="29.60252818871148" lon="106.31667532565073">
        <ele>258.5775146484375</ele>
        <time>2026-09-19T11:34:46Z</time>
      </trkpt>
      <trkpt lat="29.602537027038938" lon="106.31675911947558">
        <ele>256.4097900390625</ele>
        <time>2026-09-19T11:34:52Z</time>
      </trkpt>
      <trkpt lat="29.602593600766955" lon="106.31697458702897">
        <ele>257.224365234375</ele>
        <time>2026-09-19T11:35:10Z</time>
      </trkpt>
      <trkpt lat="29.60258613506913" lon="106.31722098209589">
        <ele>256.0487060546875</ele>
        <time>2026-09-19T11:35:28Z</time>
      </trkpt>
      <trkpt lat="29.602569990258694" lon="106.31729978935219">
        <ele>256.93585205078125</ele>
        <time>2026-09-19T11:35:34Z</time>
      </trkpt>
      <trkpt lat="29.60248176317251" lon="106.31743346598668">
        <ele>259.4053955078125</ele>
        <time>2026-09-19T11:35:46Z</time>
      </trkpt>
      <trkpt lat="29.602429695657957" lon="106.31747736117197">
        <ele>258.66607666015625</ele>
        <time>2026-09-19T11:35:52Z</time>
      </trkpt>
      <trkpt lat="29.60227969606433" lon="106.31750131132351">
        <ele>257.0697021484375</ele>
        <time>2026-09-19T11:36:04Z</time>
      </trkpt>
      <trkpt lat="29.60201577883785" lon="106.31750032968348">
        <ele>250.1734619140625</ele>
        <time>2026-09-19T11:36:25Z</time>
      </trkpt>
      <trkpt lat="29.60194173704667" lon="106.3175342507138">
        <ele>248.24798583984375</ele>
        <time>2026-09-19T11:36:31Z</time>
      </trkpt>
      <trkpt lat="29.601892630687853" lon="106.31759809660346">
        <ele>240.47039794921875</ele>
        <time>2026-09-19T11:36:37Z</time>
      </trkpt>
      <trkpt lat="29.601868459727182" lon="106.31769186731353">
        <ele>240.54180908203125</ele>
        <time>2026-09-19T11:36:43Z</time>
      </trkpt>
      <trkpt lat="29.601887123698017" lon="106.3178654389061">
        <ele>246.52764892578125</ele>
        <time>2026-09-19T11:36:55Z</time>
      </trkpt>
      <trkpt lat="29.60191396165183" lon="106.31794623831314">
        <ele>248.0240478515625</ele>
        <time>2026-09-19T11:37:01Z</time>
      </trkpt>
      <trkpt lat="29.60189735497278" lon="106.31826744791145">
        <ele>251.5557861328125</ele>
        <time>2026-09-19T11:37:25Z</time>
      </trkpt>
      <trkpt lat="29.601878193572624" lon="106.31835523266996">
        <ele>251.8076171875</ele>
        <time>2026-09-19T11:37:31Z</time>
      </trkpt>
      <trkpt lat="29.601897037591524" lon="106.3184340372283">
        <ele>250.91650390625</ele>
        <time>2026-09-19T11:37:37Z</time>
      </trkpt>
      <trkpt lat="29.601888752962047" lon="106.3185846662293">
        <ele>251.069580078125</ele>
        <time>2026-09-19T11:37:49Z</time>
      </trkpt>
      <trkpt lat="29.601927442406012" lon="106.31874127749364">
        <ele>256.85516357421875</ele>
        <time>2026-09-19T11:38:01Z</time>
      </trkpt>
      <trkpt lat="29.601928297517254" lon="106.31881709034236">
        <ele>259.556640625</ele>
        <time>2026-09-19T11:38:07Z</time>
      </trkpt>
      <trkpt lat="29.60187903662756" lon="106.31896173625562">
        <ele>263.2635498046875</ele>
        <time>2026-09-19T11:38:19Z</time>
      </trkpt>
      <trkpt lat="29.60189741777115" lon="106.31928294181903">
        <ele>251.16534423828125</ele>
        <time>2026-09-19T11:38:43Z</time>
      </trkpt>
      <trkpt lat="29.601949114209795" lon="106.31943356648388">
        <ele>248.71331787109375</ele>
        <time>2026-09-19T11:38:55Z</time>
      </trkpt>
      <trkpt lat="29.601995953102506" lon="106.31951037380713">
        <ele>248.59490966796875</ele>
        <time>2026-09-19T11:39:01Z</time>
      </trkpt>
      <trkpt lat="29.602000766736065" lon="106.31960713431036">
        <ele>252.6370849609375</ele>
        <time>2026-09-19T11:39:07Z</time>
      </trkpt>
      <trkpt lat="29.601951467271167" lon="106.3197717302795">
        <ele>251.314453125</ele>
        <time>2026-09-19T11:39:19Z</time>
      </trkpt>
      <trkpt lat="29.601956998292394" lon="106.32001612536328">
        <ele>250.00836181640625</ele>
        <time>2026-09-19T11:39:37Z</time>
      </trkpt>
      <trkpt lat="29.60208195616524" lon="106.32001811288765">
        <ele>250.375732421875</ele>
        <time>2026-09-19T11:39:49Z</time>
      </trkpt>
      <trkpt lat="29.602082085841115" lon="106.31995028071157">
        <ele>247.01531982421875</ele>
        <time>2026-09-19T11:39:55Z</time>
      </trkpt>
      <trkpt lat="29.60213115282049" lon="106.31990738386907">
        <ele>253.43426513671875</ele>
        <time>2026-09-19T11:40:01Z</time>
      </trkpt>
      <trkpt lat="29.602272100100677" lon="106.31991236302676">
        <ele>260.986083984375</ele>
        <time>2026-09-19T11:40:13Z</time>
      </trkpt>
      <trkpt lat="29.602424135559666" lon="106.31986945996465">
        <ele>252.5145263671875</ele>
        <time>2026-09-19T11:40:25Z</time>
      </trkpt>
      <trkpt lat="29.602450213397596" lon="106.31982456942774">
        <ele>254.07171630859375</ele>
        <time>2026-09-19T11:40:28Z</time>
      </trkpt>
      <trkpt lat="29.60245566550397" lon="106.3195871561944">
        <ele>253.3916015625</ele>
        <time>2026-09-19T11:40:46Z</time>
      </trkpt>
      <trkpt lat="29.60269473531975" lon="106.31951232672421">
        <ele>250.76055908203125</ele>
        <time>2026-09-19T11:41:07Z</time>
      </trkpt>
      <trkpt lat="29.602795679681485" lon="106.31952528857882">
        <ele>245.7218017578125</ele>
        <time>2026-09-19T11:41:13Z</time>
      </trkpt>
      <trkpt lat="29.602865736412074" lon="106.31948438545038">
        <ele>245.2760009765625</ele>
        <time>2026-09-19T11:41:19Z</time>
      </trkpt>
      <trkpt lat="29.60292018658473" lon="106.31923998610506">
        <ele>244.03985595703125</ele>
        <time>2026-09-19T11:41:37Z</time>
      </trkpt>
      <trkpt lat="29.6029815220859" lon="106.31905444069417">
        <ele>248.3153076171875</ele>
        <time>2026-09-19T11:41:49Z</time>
      </trkpt>
      <trkpt lat="29.602939246853097" lon="106.31868136416846">
        <ele>254.8345947265625</ele>
        <time>2026-09-19T11:42:13Z</time>
      </trkpt>
      <trkpt lat="29.602919407006862" lon="106.31860056471083">
        <ele>255.57977294921875</ele>
        <time>2026-09-19T11:42:19Z</time>
      </trkpt>
      <trkpt lat="29.602966075349325" lon="106.31824244494696">
        <ele>257.77099609375</ele>
        <time>2026-09-19T11:42:49Z</time>
      </trkpt>
      <trkpt lat="29.602978349032117" lon="106.3180968031041">
        <ele>257.97515869140625</ele>
        <time>2026-09-19T11:43:01Z</time>
      </trkpt>
      <trkpt lat="29.602940660663528" lon="106.3179391936194">
        <ele>251.4251708984375</ele>
        <time>2026-09-19T11:43:13Z</time>
      </trkpt>
      <trkpt lat="29.602962809607057" lon="106.31785739371409">
        <ele>253.2347412109375</ele>
        <time>2026-09-19T11:43:19Z</time>
      </trkpt>
      <trkpt lat="29.602931147677662" lon="106.3176848204455">
        <ele>256.831298828125</ele>
        <time>2026-09-19T11:43:31Z</time>
      </trkpt>
      <trkpt lat="29.602984379986452" lon="106.31755413879057">
        <ele>255.0220947265625</ele>
        <time>2026-09-19T11:43:40Z</time>
      </trkpt>
      <trkpt lat="29.60297566905493" lon="106.31740350981624">
        <ele>251.2596435546875</ele>
        <time>2026-09-19T11:43:52Z</time>
      </trkpt>
      <trkpt lat="29.602984789519866" lon="106.31733866870503">
        <ele>247.4892578125</ele>
        <time>2026-09-19T11:43:58Z</time>
      </trkpt>
      <trkpt lat="29.602951137199277" lon="106.31716110719694">
        <ele>252.48553466796875</ele>
        <time>2026-09-19T11:44:07Z</time>
      </trkpt>
      <trkpt lat="29.602935772622036" lon="106.31682892404018">
        <ele>257.2218017578125</ele>
        <time>2026-09-19T11:44:28Z</time>
      </trkpt>
      <trkpt lat="29.602951114280543" lon="106.316646371153">
        <ele>252.491943359375</ele>
        <time>2026-09-19T11:44:46Z</time>
      </trkpt>
      <trkpt lat="29.60292437214987" lon="106.31651469578055">
        <ele>251.71710205078125</ele>
        <time>2026-09-19T11:44:58Z</time>
      </trkpt>
      <trkpt lat="29.602865567869877" lon="106.31642092926795">
        <ele>253.984619140625</ele>
        <time>2026-09-19T11:45:10Z</time>
      </trkpt>
      <trkpt lat="29.602818638930106" lon="106.31639100546718">
        <ele>254.54296875</ele>
        <time>2026-09-19T11:45:16Z</time>
      </trkpt>
      <trkpt lat="29.60275866860459" lon="106.31638502375353">
        <ele>254.87396240234375</ele>
        <time>2026-09-19T11:45:22Z</time>
      </trkpt>
      <trkpt lat="29.602699650729008" lon="106.31640398084173">
        <ele>253.13134765625</ele>
        <time>2026-09-19T11:45:28Z</time>
      </trkpt>
      <trkpt lat="29.602592494412658" lon="106.31650374268676">
        <ele>252.04339599609375</ele>
        <time>2026-09-19T11:45:40Z</time>
      </trkpt>
      <trkpt lat="29.6025413209185" lon="106.31660350108207">
        <ele>253.7958984375</ele>
        <time>2026-09-19T11:45:46Z</time>
      </trkpt>
      <trkpt lat="29.602535862706134" lon="106.3168459065028">
        <ele>246.27001953125</ele>
        <time>2026-09-19T11:46:04Z</time>
      </trkpt>
      <trkpt lat="29.602573229987527" lon="106.3171731005532">
        <ele>245.12994384765625</ele>
        <time>2026-09-19T11:46:28Z</time>
      </trkpt>
      <trkpt lat="29.602527936769928" lon="106.31733470604873">
        <ele>251.083984375</ele>
        <time>2026-09-19T11:46:40Z</time>
      </trkpt>
      <trkpt lat="29.602482817846003" lon="106.31740453706652">
        <ele>254.4539794921875</ele>
        <time>2026-09-19T11:46:47Z</time>
      </trkpt>
      <trkpt lat="29.602415730280043" lon="106.31746140127075">
        <ele>255.2320556640625</ele>
        <time>2026-09-19T11:46:53Z</time>
      </trkpt>
      <trkpt lat="29.602276664745393" lon="106.31751826979088">
        <ele>250.69952392578125</ele>
        <time>2026-09-19T11:47:05Z</time>
      </trkpt>
      <trkpt lat="29.602015708672084" lon="106.3175372388935">
        <ele>257.0888671875</ele>
        <time>2026-09-19T11:47:26Z</time>
      </trkpt>
      <trkpt lat="29.60191060240634" lon="106.31761006606655">
        <ele>254.8955078125</ele>
        <time>2026-09-19T11:47:35Z</time>
      </trkpt>
      <trkpt lat="29.60188251045239" lon="106.31766293766081">
        <ele>252.34295654296875</ele>
        <time>2026-09-19T11:47:41Z</time>
      </trkpt>
      <trkpt lat="29.601870276952155" lon="106.31778763148674">
        <ele>249.546630859375</ele>
        <time>2026-09-19T11:47:53Z</time>
      </trkpt>
      <trkpt lat="29.601901089033728" lon="106.31788139876393">
        <ele>249.56536865234375</ele>
        <time>2026-09-19T11:47:59Z</time>
      </trkpt>
      <trkpt lat="29.601893515791204" lon="106.31818365465878">
        <ele>241.77410888671875</ele>
        <time>2026-09-19T11:48:23Z</time>
      </trkpt>
      <trkpt lat="29.601857070767927" lon="106.31842306669546">
        <ele>243.61273193359375</ele>
        <time>2026-09-19T11:48:38Z</time>
      </trkpt>
      <trkpt lat="29.60186272670713" lon="106.31860262350497">
        <ele>245.14874267578125</ele>
        <time>2026-09-19T11:48:50Z</time>
      </trkpt>
      <trkpt lat="29.601914389323184" lon="106.31877120442955">
        <ele>251.87841796875</ele>
        <time>2026-09-19T11:49:02Z</time>
      </trkpt>
      <trkpt lat="29.601867821109728" lon="106.3190764536653">
        <ele>250.865478515625</ele>
        <time>2026-09-19T11:49:23Z</time>
      </trkpt>
      <trkpt lat="29.60186654534686" lon="106.31922109647711">
        <ele>247.612548828125</ele>
        <time>2026-09-19T11:49:35Z</time>
      </trkpt>
      <trkpt lat="29.60192129232799" lon="106.31934478756263">
        <ele>246.5980224609375</ele>
        <time>2026-09-19T11:49:47Z</time>
      </trkpt>
      <trkpt lat="29.60193100351439" lon="106.31949441717703">
        <ele>245.87255859375</ele>
        <time>2026-09-19T11:49:59Z</time>
      </trkpt>
      <trkpt lat="29.601898845648932" lon="106.3195822021141">
        <ele>245.5289306640625</ele>
        <time>2026-09-19T11:50:05Z</time>
      </trkpt>
      <trkpt lat="29.601923494918562" lon="106.31976175663772">
        <ele>249.499267578125</ele>
        <time>2026-09-19T11:50:17Z</time>
      </trkpt>
      <trkpt lat="29.601921022679665" lon="106.3200091448115">
        <ele>244.892822265625</ele>
        <time>2026-09-19T11:50:35Z</time>
      </trkpt>
      <trkpt lat="29.601985955073694" lon="106.32003407918678">
        <ele>244.98272705078125</ele>
        <time>2026-09-19T11:50:41Z</time>
      </trkpt>
      <trkpt lat="29.602134953275936" lon="106.32001112696794">
        <ele>250.12646484375</ele>
        <time>2026-09-19T11:50:53Z</time>
      </trkpt>
      <trkpt lat="29.602183882958574" lon="106.32004005243488">
        <ele>248.77325439453125</ele>
        <time>2026-09-19T11:50:59Z</time>
      </trkpt>
      <trkpt lat="29.602170652332305" lon="106.32016274958836">
        <ele>253.0377197265625</ele>
        <time>2026-09-19T11:51:08Z</time>
      </trkpt>
      <trkpt lat="29.602235397767235" lon="106.32028544196882">
        <ele>253.9390869140625</ele>
        <time>2026-09-19T11:51:17Z</time>
      </trkpt>
      <trkpt lat="29.60237557239341" lon="106.32017171500337">
        <ele>256.7105712890625</ele>
        <time>2026-09-19T11:51:38Z</time>
      </trkpt>
      <trkpt lat="29.6022935211885" lon="106.32021162119142">
        <ele>258.6485595703125</ele>
        <time>2026-09-19T11:51:50Z</time>
      </trkpt>
      <trkpt lat="29.602408718707036" lon="106.32008991544473">
        <ele>256.99530029296875</ele>
        <time>2026-09-19T11:52:20Z</time>
      </trkpt>
    </trkseg>
  </trk>
</gpx>