<?xml version="1.0" encoding="UTF-8"?>
<gpx xmlns="http://www.topografix.com/GPX/1/1" xmlns:gpxtpx="http://www.garmin.com/xmlschemas/TrackPointExtension/v1" xmlns:xsi="http://www.w3.org/2001/XMLSchema-instance" xsi:schemaLocation="http://www.topografix.com/GPX/1/1 http://www.topografix.com/GPX/1/1/gpx.xsd" version="1.1" creator="gpx.py -- https://github.com/tkrajina/gpxpy">
  <trk>
    <name>gpx from keep</name>
    <type>Walk</type>
    <trkseg>
      <trkpt lat="29.60296895092444" lon="106.31830728494793">
        <ele>246.0140380859375</ele>
        <time>2026-09-24T23:16:56Z</time>
      </trkpt>
      <trkpt lat="29.60297542971408" lon="106.3180549064996">
        <ele>246.0714111328125</ele>
        <time>2026-09-24T23:17:14Z</time>
      </trkpt>
      <trkpt lat="29.602959753577544" lon="106.31788732020952">
        <ele>247.05047607421875</ele>
        <time>2026-09-24T23:17:26Z</time>
      </trkpt>
      <trkpt lat="29.602976928698737" lon="106.31779255250179">
        <ele>242.20166015625</ele>
        <time>2026-09-24T23:17:32Z</time>
      </trkpt>
      <trkpt lat="29.60297259603229" lon="106.31744241432429">
        <ele>239.43280029296875</ele>
        <time>2026-09-24T23:17:56Z</time>
      </trkpt>
      <trkpt lat="29.602967075477615" lon="106.31719103269089">
        <ele>242.14129638671875</ele>
        <time>2026-09-24T23:18:14Z</time>
      </trkpt>
      <trkpt lat="29.602985229108434" lon="106.31710723750824">
        <ele>244.06243896484375</ele>
        <time>2026-09-24T23:18:20Z</time>
      </trkpt>
      <trkpt lat="29.60295357973395" lon="106.31692768048201">
        <ele>244.58197021484375</ele>
        <time>2026-09-24T23:18:32Z</time>
      </trkpt>
      <trkpt lat="29.6029521404553" lon="106.31663240535683">
        <ele>252.3828125</ele>
        <time>2026-09-24T23:18:56Z</time>
      </trkpt>
      <trkpt lat="29.602926318597333" lon="106.31654262715585">
        <ele>253.8861083984375</ele>
        <time>2026-09-24T23:19:02Z</time>
      </trkpt>
      <trkpt lat="29.602879472860337" lon="106.31646881102026">
        <ele>253.4698486328125</ele>
        <time>2026-09-24T23:19:08Z</time>
      </trkpt>
      <trkpt lat="29.602732653871854" lon="106.31639699597335">
        <ele>247.826171875</ele>
        <time>2026-09-24T23:19:20Z</time>
      </trkpt>
      <trkpt lat="29.60264671985033" lon="106.31637605250741">
        <ele>250.8758544921875</ele>
        <time>2026-09-24T23:19:26Z</time>
      </trkpt>
      <trkpt lat="29.602604685445023" lon="106.31640099389983">
        <ele>251.1632080078125</ele>
        <time>2026-09-24T23:19:29Z</time>
      </trkpt>
      <trkpt lat="29.602553561166076" lon="106.31647481597729">
        <ele>248.121337890625</ele>
        <time>2026-09-24T23:19:35Z</time>
      </trkpt>
      <trkpt lat="29.602543276807005" lon="106.31662644467521">
        <ele>245.79132080078125</ele>
        <time>2026-09-24T23:19:44Z</time>
      </trkpt>
      <trkpt lat="29.602602565826203" lon="106.3169915448369">
        <ele>248.412353515625</ele>
        <time>2026-09-24T23:20:08Z</time>
      </trkpt>
      <trkpt lat="29.60258109301714" lon="106.31724392600577">
        <ele>248.15447998046875</ele>
        <time>2026-09-24T23:20:26Z</time>
      </trkpt>
      <trkpt lat="29.60251182793135" lon="106.317394559849">
        <ele>248.9439697265625</ele>
        <time>2026-09-24T23:20:38Z</time>
      </trkpt>
      <trkpt lat="29.602461748436326" lon="106.317444440206">
        <ele>246.2716064453125</ele>
        <time>2026-09-24T23:20:44Z</time>
      </trkpt>
      <trkpt lat="29.60238872147847" lon="106.31747038081666">
        <ele>245.72784423828125</ele>
        <time>2026-09-24T23:20:50Z</time>
      </trkpt>
      <trkpt lat="29.60209870220015" lon="106.31752725843137">
        <ele>245.85638427734375</ele>
        <time>2026-09-24T23:21:14Z</time>
      </trkpt>
      <trkpt lat="29.60196767976588" lon="106.31756018534386">
        <ele>247.8123779296875</ele>
        <time>2026-09-24T23:21:23Z</time>
      </trkpt>
      <trkpt lat="29.6019075843575" lon="106.31762004170292">
        <ele>248.399658203125</ele>
        <time>2026-09-24T23:21:29Z</time>
      </trkpt>
      <trkpt lat="29.60188443015533" lon="106.31770483443448">
        <ele>249.2628173828125</ele>
        <time>2026-09-24T23:21:35Z</time>
      </trkpt>
      <trkpt lat="29.601909115053484" lon="106.31786643512427">
        <ele>251.64959716796875</ele>
        <time>2026-09-24T23:21:47Z</time>
      </trkpt>
      <trkpt lat="29.60187548331622" lon="106.31820360657943">
        <ele>252.3004150390625</ele>
        <time>2026-09-24T23:22:11Z</time>
      </trkpt>
      <trkpt lat="29.60187685551656" lon="106.31853279489526">
        <ele>253.2027587890625</ele>
        <time>2026-09-24T23:22:35Z</time>
      </trkpt>
      <trkpt lat="29.6019051827973" lon="106.31888093415309">
        <ele>246.4407958984375</ele>
        <time>2026-09-24T23:22:59Z</time>
      </trkpt>
      <trkpt lat="29.601897524414706" lon="106.31922707982285">
        <ele>248.67987060546875</ele>
        <time>2026-09-24T23:23:23Z</time>
      </trkpt>
      <trkpt lat="29.601935230892725" lon="106.31937471277124">
        <ele>250.40081787109375</ele>
        <time>2026-09-24T23:23:35Z</time>
      </trkpt>
      <trkpt lat="29.6019207760165" lon="106.31961511940516">
        <ele>249.47607421875</ele>
        <time>2026-09-24T23:23:53Z</time>
      </trkpt>
      <trkpt lat="29.6019454748295" lon="106.31976873804227">
        <ele>247.01263427734375</ele>
        <time>2026-09-24T23:24:05Z</time>
      </trkpt>
      <trkpt lat="29.60191312429641" lon="106.3199572736295">
        <ele>252.2259521484375</ele>
        <time>2026-09-24T23:24:17Z</time>
      </trkpt>
      <trkpt lat="29.601914963491115" lon="106.32004106619146">
        <ele>251.7197265625</ele>
        <time>2026-09-24T23:24:23Z</time>
      </trkpt>
      <trkpt lat="29.60197695020395" lon="106.32003806985668">
        <ele>251.77081298828125</ele>
        <time>2026-09-24T23:24:26Z</time>
      </trkpt>
      <trkpt lat="29.60209313204833" lon="106.31992434421039">
        <ele>252.8590087890625</ele>
        <time>2026-09-24T23:24:38Z</time>
      </trkpt>
      <trkpt lat="29.60215114669335" lon="106.31990738266282">
        <ele>252.5042724609375</ele>
        <time>2026-09-24T23:24:44Z</time>
      </trkpt>
      <trkpt lat="29.602372088554162" lon="106.31990238167194">
        <ele>250.1275634765625</ele>
        <time>2026-09-24T23:25:02Z</time>
      </trkpt>
      <trkpt lat="29.602454139725904" lon="106.31986247542746">
        <ele>247.293212890625</ele>
        <time>2026-09-24T23:25:08Z</time>
      </trkpt>
      <trkpt lat="29.602489289158324" lon="106.31977868056418">
        <ele>246.3621826171875</ele>
        <time>2026-09-24T23:25:14Z</time>
      </trkpt>
      <trkpt lat="29.60246161793248" lon="106.31961109664508">
        <ele>250.79833984375</ele>
        <time>2026-09-24T23:25:26Z</time>
      </trkpt>
      <trkpt lat="29.602493733909956" lon="106.31954525747402">
        <ele>253.326171875</ele>
        <time>2026-09-24T23:25:32Z</time>
      </trkpt>
      <trkpt lat="29.602568764319642" lon="106.31951732199381">
        <ele>253.4908447265625</ele>
        <time>2026-09-24T23:25:38Z</time>
      </trkpt>
      <trkpt lat="29.602821637439646" lon="106.319543242626">
        <ele>251.3779296875</ele>
        <time>2026-09-24T23:25:59Z</time>
      </trkpt>
      <trkpt lat="29.602905653697647" lon="106.31952129180846">
        <ele>252.2154541015625</ele>
        <time>2026-09-24T23:26:05Z</time>
      </trkpt>
      <trkpt lat="29.602942712893302" lon="106.31948438080703">
        <ele>251.97113037109375</ele>
        <time>2026-09-24T23:26:08Z</time>
      </trkpt>
      <trkpt lat="29.602975891415213" lon="106.31938562288413">
        <ele>253.34661865234375</ele>
        <time>2026-09-24T23:26:14Z</time>
      </trkpt>
      <trkpt lat="29.602955242543565" lon="106.31920507024195">
        <ele>249.7879638671875</ele>
        <time>2026-09-24T23:26:26Z</time>
      </trkpt>
      <trkpt lat="29.602981577287103" lon="106.3190255121275">
        <ele>250.3236083984375</ele>
        <time>2026-09-24T23:26:38Z</time>
      </trkpt>
      <trkpt lat="29.602948010129023" lon="106.31880406085655">
        <ele>246.64410400390625</ele>
        <time>2026-09-24T23:26:53Z</time>
      </trkpt>
      <trkpt lat="29.60295131736209" lon="106.31864245942683">
        <ele>242.26214599609375</ele>
        <time>2026-09-24T23:27:05Z</time>
      </trkpt>
      <trkpt lat="29.602916742538955" lon="106.31842499788459">
        <ele>240.7777099609375</ele>
        <time>2026-09-24T23:27:20Z</time>
      </trkpt>
      <trkpt lat="29.602956084102978" lon="106.31823945292527">
        <ele>243.25732421875</ele>
        <time>2026-09-24T23:27:32Z</time>
      </trkpt>
      <trkpt lat="29.602961257353275" lon="106.31814767878154">
        <ele>242.96258544921875</ele>
        <time>2026-09-24T23:27:38Z</time>
      </trkpt>
      <trkpt lat="29.60295389966334" lon="106.3178115072292">
        <ele>242.44976806640625</ele>
        <time>2026-09-24T23:28:03Z</time>
      </trkpt>
      <trkpt lat="29.602965070888004" lon="106.31771973246993">
        <ele>241.36279296875</ele>
        <time>2026-09-24T23:28:09Z</time>
      </trkpt>
      <trkpt lat="29.602953586666423" lon="106.3174503958426">
        <ele>242.5230712890625</ele>
        <time>2026-09-24T23:28:27Z</time>
      </trkpt>
      <trkpt lat="29.602988890642813" lon="106.31728480089195">
        <ele>245.88616943359375</ele>
        <time>2026-09-24T23:28:39Z</time>
      </trkpt>
      <trkpt lat="29.602964538511213" lon="106.31694763082596">
        <ele>246.27215576171875</ele>
        <time>2026-09-24T23:29:03Z</time>
      </trkpt>
      <trkpt lat="29.60296417272624" lon="106.31661345113287">
        <ele>247.5789794921875</ele>
        <time>2026-09-24T23:29:27Z</time>
      </trkpt>
      <trkpt lat="29.602882437915518" lon="106.31648676680828">
        <ele>248.377685546875</ele>
        <time>2026-09-24T23:29:36Z</time>
      </trkpt>
      <trkpt lat="29.602774612685312" lon="106.31641195675978">
        <ele>250.10296630859375</ele>
        <time>2026-09-24T23:29:45Z</time>
      </trkpt>
      <trkpt lat="29.60268867110157" lon="106.3163950035143">
        <ele>251.7962646484375</ele>
        <time>2026-09-24T23:29:51Z</time>
      </trkpt>
      <trkpt lat="29.60260765617696" lon="106.31641595703462">
        <ele>249.65179443359375</ele>
        <time>2026-09-24T23:29:57Z</time>
      </trkpt>
      <trkpt lat="29.602544586603862" lon="106.3164628458726">
        <ele>248.5091552734375</ele>
        <time>2026-09-24T23:30:03Z</time>
      </trkpt>
      <trkpt lat="29.60252845348448" lon="106.31653566825327">
        <ele>245.02532958984375</ele>
        <time>2026-09-24T23:30:09Z</time>
      </trkpt>
      <trkpt lat="29.60253431171224" lon="106.31660948682065">
        <ele>242.63763427734375</ele>
        <time>2026-09-24T23:30:15Z</time>
      </trkpt>
      <trkpt lat="29.602515993726453" lon="106.31678006932391">
        <ele>248.8505859375</ele>
        <time>2026-09-24T23:30:24Z</time>
      </trkpt>
      <trkpt lat="29.602578455758884" lon="106.31705339436506">
        <ele>249.01470947265625</ele>
        <time>2026-09-24T23:30:42Z</time>
      </trkpt>
      <trkpt lat="29.60257227954862" lon="106.31714716434674">
        <ele>247.20074462890625</ele>
        <time>2026-09-24T23:30:48Z</time>
      </trkpt>
      <trkpt lat="29.602521970826157" lon="106.31731774810201">
        <ele>248.648193359375</ele>
        <time>2026-09-24T23:31:00Z</time>
      </trkpt>
      <trkpt lat="29.60248684505809" lon="106.31738957361983">
        <ele>248.747802734375</ele>
        <time>2026-09-24T23:31:06Z</time>
      </trkpt>
      <trkpt lat="29.60237773811792" lon="106.31746339865347">
        <ele>244.203857421875</ele>
        <time>2026-09-24T23:31:18Z</time>
      </trkpt>
      <trkpt lat="29.60222376441073" lon="106.31747438094416">
        <ele>256.2392578125</ele>
        <time>2026-09-24T23:31:30Z</time>
      </trkpt>
      <trkpt lat="29.60198867522476" lon="106.31755918653263">
        <ele>251.4267578125</ele>
        <time>2026-09-24T23:31:48Z</time>
      </trkpt>
      <trkpt lat="29.601878466146644" lon="106.31768687898567">
        <ele>249.3955078125</ele>
        <time>2026-09-24T23:32:00Z</time>
      </trkpt>
      <trkpt lat="29.601857931359852" lon="106.31797118026999">
        <ele>248.05767822265625</ele>
        <time>2026-09-24T23:32:18Z</time>
      </trkpt>
      <trkpt lat="29.601867761190444" lon="106.31805896344476">
        <ele>247.319580078125</ele>
        <time>2026-09-24T23:32:24Z</time>
      </trkpt>
      <trkpt lat="29.6018484479004" lon="106.31822655166482">
        <ele>250.06243896484375</ele>
        <time>2026-09-24T23:32:36Z</time>
      </trkpt>
      <trkpt lat="29.601852262360524" lon="106.31832331292856">
        <ele>255.9959716796875</ele>
        <time>2026-09-24T23:32:42Z</time>
      </trkpt>
      <trkpt lat="29.601836122827294" lon="106.31839912699036">
        <ele>253.8592529296875</ele>
        <time>2026-09-24T23:32:48Z</time>
      </trkpt>
      <trkpt lat="29.601841624748083" lon="106.31865948450174">
        <ele>252.59112548828125</ele>
        <time>2026-09-24T23:33:06Z</time>
      </trkpt>
      <trkpt lat="29.601875180580087" lon="106.31888692118774">
        <ele>247.63201904296875</ele>
        <time>2026-09-24T23:33:21Z</time>
      </trkpt>
      <trkpt lat="29.601836537409973" lon="106.31923007610816">
        <ele>245.01409912109375</ele>
        <time>2026-09-24T23:33:45Z</time>
      </trkpt>
      <trkpt lat="29.601845932407354" lon="106.3195452965504">
        <ele>252.05291748046875</ele>
        <time>2026-09-24T23:34:09Z</time>
      </trkpt>
      <trkpt lat="29.60188528351774" lon="106.31987847026517">
        <ele>252.292236328125</ele>
        <time>2026-09-24T23:34:33Z</time>
      </trkpt>
      <trkpt lat="29.601882110919437" lon="106.31996924588444">
        <ele>250.6754150390625</ele>
        <time>2026-09-24T23:34:39Z</time>
      </trkpt>
      <trkpt lat="29.60193002182719" lon="106.32000814673677">
        <ele>251.5875244140625</ele>
        <time>2026-09-24T23:34:45Z</time>
      </trkpt>
      <trkpt lat="29.601968046410715" lon="106.31998919133802">
        <ele>250.92034912109375</ele>
        <time>2026-09-24T23:34:48Z</time>
      </trkpt>
    </trkseg>
  </trk>
</gpx>