<?xml version="1.0" encoding="UTF-8"?>
<gpx xmlns="http://www.topografix.com/GPX/1/1" xmlns:gpxtpx="http://www.garmin.com/xmlschemas/TrackPointExtension/v1" xmlns:xsi="http://www.w3.org/2001/XMLSchema-instance" xsi:schemaLocation="http://www.topografix.com/GPX/1/1 http://www.topografix.com/GPX/1/1/gpx.xsd" version="1.1" creator="gpx.py -- https://github.com/tkrajina/gpxpy">
  <trk>
    <name>gpx from keep</name>
    <type>Walk</type>
    <trkseg>
      <trkpt lat="29.601875154580974" lon="106.31837618120605">
        <ele>258.00469970703125</ele>
        <time>2026-09-20T22:50:45Z</time>
        <extensions>
          <gpxtpx:TrackPointExtension>
            <gpxtpx:hr>117</gpxtpx:hr>
          </gpxtpx:TrackPointExtension>
        </extensions>
      </trkpt>
      <trkpt lat="29.601895874406633" lon="106.31851982573316">
        <ele>254.37158203125</ele>
        <time>2026-09-20T22:50:57Z</time>
        <extensions>
          <gpxtpx:TrackPointExtension>
            <gpxtpx:hr>117</gpxtpx:hr>
          </gpxtpx:TrackPointExtension>
        </extensions>
      </trkpt>
      <trkpt lat="29.60188127197484" lon="106.31883804147371">
        <ele>255.93951416015625</ele>
        <time>2026-09-20T22:51:21Z</time>
      </trkpt>
      <trkpt lat="29.601887868276467" lon="106.31904852143228">
        <ele>255.3662109375</ele>
        <time>2026-09-20T22:51:39Z</time>
      </trkpt>
      <trkpt lat="29.601865608490527" lon="106.31918817785218">
        <ele>256.36669921875</ele>
        <time>2026-09-20T22:51:51Z</time>
      </trkpt>
      <trkpt lat="29.6019253291947" lon="106.31932483661696">
        <ele>257.0660400390625</ele>
        <time>2026-09-20T22:52:03Z</time>
      </trkpt>
      <trkpt lat="29.601941882008198" lon="106.31955626363658">
        <ele>256.75225830078125</ele>
        <time>2026-09-20T22:52:21Z</time>
      </trkpt>
      <trkpt lat="29.601951429145082" lon="106.31979168093883">
        <ele>257.2313232421875</ele>
        <time>2026-09-20T22:52:39Z</time>
      </trkpt>
      <trkpt lat="29.601929111762797" lon="106.31996126279296">
        <ele>259.279541015625</ele>
        <time>2026-09-20T22:52:51Z</time>
      </trkpt>
      <trkpt lat="29.6019669856911" lon="106.32002111241935">
        <ele>259.96533203125</ele>
        <time>2026-09-20T22:52:57Z</time>
      </trkpt>
      <trkpt lat="29.602060178389202" lon="106.31990539308649">
        <ele>257.38818359375</ele>
        <time>2026-09-20T22:53:09Z</time>
      </trkpt>
      <trkpt lat="29.6021970963741" lon="106.31992633300243">
        <ele>254.88507080078125</ele>
        <time>2026-09-20T22:53:21Z</time>
      </trkpt>
      <trkpt lat="29.602395064354035" lon="106.31991135807596">
        <ele>256.3751220703125</ele>
        <time>2026-09-20T22:53:39Z</time>
      </trkpt>
      <trkpt lat="29.60245012188381" lon="106.31987245099413">
        <ele>255.07275390625</ele>
        <time>2026-09-20T22:53:45Z</time>
      </trkpt>
      <trkpt lat="29.602486238604925" lon="106.3198056141335">
        <ele>255.5589599609375</ele>
        <time>2026-09-20T22:53:51Z</time>
      </trkpt>
      <trkpt lat="29.60250050308769" lon="106.31966496111076">
        <ele>249.68243408203125</ele>
        <time>2026-09-20T22:54:03Z</time>
      </trkpt>
      <trkpt lat="29.60252662472626" lon="106.31959712725164">
        <ele>253.2164306640625</ele>
        <time>2026-09-20T22:54:09Z</time>
      </trkpt>
      <trkpt lat="29.602575676434256" lon="106.31956221060845">
        <ele>252.81640625</ele>
        <time>2026-09-20T22:54:15Z</time>
      </trkpt>
      <trkpt lat="29.602834688724165" lon="106.31951431335027">
        <ele>252.70196533203125</ele>
        <time>2026-09-20T22:54:39Z</time>
      </trkpt>
      <trkpt lat="29.602895721532366" lon="106.31948737624454">
        <ele>250.10382080078125</ele>
        <time>2026-09-20T22:54:45Z</time>
      </trkpt>
      <trkpt lat="29.602936834747624" lon="106.31942153649005">
        <ele>249.37841796875</ele>
        <time>2026-09-20T22:54:51Z</time>
      </trkpt>
      <trkpt lat="29.602965532682223" lon="106.31905144904871">
        <ele>250.34967041015625</ele>
        <time>2026-09-20T22:55:21Z</time>
      </trkpt>
      <trkpt lat="29.602954815816837" lon="106.31890481175442">
        <ele>248.55218505859375</ele>
        <time>2026-09-20T22:55:33Z</time>
      </trkpt>
      <trkpt lat="29.602933961132777" lon="106.31883199276534">
        <ele>247.94488525390625</ele>
        <time>2026-09-20T22:55:39Z</time>
      </trkpt>
      <trkpt lat="29.602948455196714" lon="106.31857063678135">
        <ele>253.4263916015625</ele>
        <time>2026-09-20T22:56:03Z</time>
      </trkpt>
      <trkpt lat="29.602922613340667" lon="106.3184918327122">
        <ele>256.015625</ele>
        <time>2026-09-20T22:56:12Z</time>
      </trkpt>
      <trkpt lat="29.60293521210455" lon="106.31817561152359">
        <ele>254.6573486328125</ele>
        <time>2026-09-20T22:56:36Z</time>
      </trkpt>
      <trkpt lat="29.602936365656515" lon="106.3180948105506">
        <ele>254.248046875</ele>
        <time>2026-09-20T22:56:42Z</time>
      </trkpt>
      <trkpt lat="29.60298064085448" lon="106.31794318138232">
        <ele>251.586669921875</ele>
        <time>2026-09-20T22:56:54Z</time>
      </trkpt>
      <trkpt lat="29.603028724916488" lon="106.31789130622623">
        <ele>245.31005859375</ele>
        <time>2026-09-20T22:57:00Z</time>
      </trkpt>
      <trkpt lat="29.60305983503493" lon="106.3178284590923">
        <ele>241.239990234375</ele>
        <time>2026-09-20T22:57:06Z</time>
      </trkpt>
      <trkpt lat="29.60307698546221" lon="106.31774665942889">
        <ele>241.0777587890625</ele>
        <time>2026-09-20T22:57:12Z</time>
      </trkpt>
      <trkpt lat="29.60301361384837" lon="106.3174264511056">
        <ele>243.81427001953125</ele>
        <time>2026-09-20T22:57:36Z</time>
      </trkpt>
      <trkpt lat="29.602968892959613" lon="106.31728679719254">
        <ele>248.025390625</ele>
        <time>2026-09-20T22:57:48Z</time>
      </trkpt>
      <trkpt lat="29.60296229105936" lon="106.31707830996716">
        <ele>249.2938232421875</ele>
        <time>2026-09-20T22:58:06Z</time>
      </trkpt>
      <trkpt lat="29.602977424724223" lon="106.31700548794531">
        <ele>247.80615234375</ele>
        <time>2026-09-20T22:58:12Z</time>
      </trkpt>
      <trkpt lat="29.602960145577796" lon="106.31662841466442">
        <ele>248.4144287109375</ele>
        <time>2026-09-20T22:58:42Z</time>
      </trkpt>
      <trkpt lat="29.60291640295295" lon="106.31649973295858">
        <ele>249.36981201171875</ele>
        <time>2026-09-20T22:58:54Z</time>
      </trkpt>
      <trkpt lat="29.602873523841872" lon="106.31644287497797">
        <ele>252.5479736328125</ele>
        <time>2026-09-20T22:59:00Z</time>
      </trkpt>
      <trkpt lat="29.602771681640494" lon="106.3163760449794">
        <ele>256.550048828125</ele>
        <time>2026-09-20T22:59:13Z</time>
      </trkpt>
      <trkpt lat="29.602686705731287" lon="106.31637704765306">
        <ele>256.3629150390625</ele>
        <time>2026-09-20T22:59:19Z</time>
      </trkpt>
      <trkpt lat="29.602575565779894" lon="106.3164688293291">
        <ele>255.570556640625</ele>
        <time>2026-09-20T22:59:31Z</time>
      </trkpt>
      <trkpt lat="29.602537441277303" lon="106.316540655478">
        <ele>255.28985595703125</ele>
        <time>2026-09-20T22:59:37Z</time>
      </trkpt>
      <trkpt lat="29.602573758336487" lon="106.31689478420488">
        <ele>252.2479248046875</ele>
        <time>2026-09-20T23:00:04Z</time>
      </trkpt>
      <trkpt lat="29.602602480613594" lon="106.31703643457689">
        <ele>253.965087890625</ele>
        <time>2026-09-20T23:00:16Z</time>
      </trkpt>
      <trkpt lat="29.602536937807685" lon="106.3173327104115">
        <ele>255.892822265625</ele>
        <time>2026-09-20T23:00:40Z</time>
      </trkpt>
      <trkpt lat="29.6024427428741" lon="106.31745042663094">
        <ele>254.884765625</ele>
        <time>2026-09-20T23:00:52Z</time>
      </trkpt>
      <trkpt lat="29.60232167182746" lon="106.3175072940708">
        <ele>252.541748046875</ele>
        <time>2026-09-20T23:01:04Z</time>
      </trkpt>
      <trkpt lat="29.602248673319405" lon="106.31751827147794">
        <ele>253.26068115234375</ele>
        <time>2026-09-20T23:01:10Z</time>
      </trkpt>
      <trkpt lat="29.602187623729066" lon="106.31755418681263">
        <ele>253.2005615234375</ele>
        <time>2026-09-20T23:01:16Z</time>
      </trkpt>
      <trkpt lat="29.602126663277737" lon="106.31754321748194">
        <ele>255.4033203125</ele>
        <time>2026-09-20T23:01:22Z</time>
      </trkpt>
      <trkpt lat="29.602004649457456" lon="106.31757015857353">
        <ele>257.0213623046875</ele>
        <time>2026-09-20T23:01:34Z</time>
      </trkpt>
      <trkpt lat="29.601945589777866" lon="106.31761106150327">
        <ele>259.76123046875</ele>
        <time>2026-09-20T23:01:40Z</time>
      </trkpt>
      <trkpt lat="29.601897492572448" lon="106.3176699195735">
        <ele>258.651123046875</ele>
        <time>2026-09-20T23:01:46Z</time>
      </trkpt>
      <trkpt lat="29.60187835799527" lon="106.31774373904433">
        <ele>257.211181640625</ele>
        <time>2026-09-20T23:01:52Z</time>
      </trkpt>
      <trkpt lat="29.6018970883621" lon="106.31788239654875">
        <ele>255.6044921875</ele>
        <time>2026-09-20T23:02:04Z</time>
      </trkpt>
      <trkpt lat="29.601871951748528" lon="106.31795821136409">
        <ele>252.9193115234375</ele>
        <time>2026-09-20T23:02:10Z</time>
      </trkpt>
      <trkpt lat="29.601913481162182" lon="106.31819861658052">
        <ele>261.1961669921875</ele>
        <time>2026-09-20T23:02:28Z</time>
      </trkpt>
      <trkpt lat="29.60186881613999" lon="106.31855474124986">
        <ele>253.10357666015625</ele>
        <time>2026-09-20T23:02:58Z</time>
      </trkpt>
      <trkpt lat="29.6018721320245" lon="106.31891285734596">
        <ele>250.55914306640625</ele>
        <time>2026-09-20T23:03:22Z</time>
      </trkpt>
      <trkpt lat="29.60188898027059" lon="106.31898966669338">
        <ele>251.82763671875</ele>
        <time>2026-09-20T23:03:28Z</time>
      </trkpt>
      <trkpt lat="29.601902560965463" lon="106.31920712880441">
        <ele>252.4981689453125</ele>
        <time>2026-09-20T23:03:46Z</time>
      </trkpt>
      <trkpt lat="29.60193642104819" lon="106.31927495918333">
        <ele>254.36627197265625</ele>
        <time>2026-09-20T23:03:52Z</time>
      </trkpt>
      <trkpt lat="29.6019482973824" lon="106.31933780318826">
        <ele>251.901611328125</ele>
        <time>2026-09-20T23:03:58Z</time>
      </trkpt>
      <trkpt lat="29.601937043589672" lon="106.31947247105725">
        <ele>253.28857421875</ele>
        <time>2026-09-20T23:04:10Z</time>
      </trkpt>
      <trkpt lat="29.60190390318721" lon="106.3195512782576">
        <ele>254.47760009765625</ele>
        <time>2026-09-20T23:04:16Z</time>
      </trkpt>
      <trkpt lat="29.601891760134546" lon="106.31962808909282">
        <ele>256.281494140625</ele>
        <time>2026-09-20T23:04:22Z</time>
      </trkpt>
      <trkpt lat="29.601943147514945" lon="106.31994031377322">
        <ele>254.64453125</ele>
        <time>2026-09-20T23:04:46Z</time>
      </trkpt>
      <trkpt lat="29.601987013887655" lon="106.32000315563934">
        <ele>255.8951416015625</ele>
        <time>2026-09-20T23:04:52Z</time>
      </trkpt>
      <trkpt lat="29.60204399641668" lon="106.32000315220142">
        <ele>254.52996826171875</ele>
        <time>2026-09-20T23:04:58Z</time>
      </trkpt>
      <trkpt lat="29.602092073242428" lon="106.31995526776917">
        <ele>253.18133544921875</ele>
        <time>2026-09-20T23:05:07Z</time>
      </trkpt>
      <trkpt lat="29.60215106660732" lon="106.31994927901779">
        <ele>254.19805908203125</ele>
        <time>2026-09-20T23:05:13Z</time>
      </trkpt>
      <trkpt lat="29.6021819083643" lon="106.32002708464252">
        <ele>254.1033935546875</ele>
        <time>2026-09-20T23:05:19Z</time>
      </trkpt>
    </trkseg>
  </trk>
</gpx>