<?xml version="1.0" encoding="UTF-8"?>
<gpx xmlns="http://www.topografix.com/GPX/1/1" xmlns:gpxtpx="http://www.garmin.com/xmlschemas/TrackPointExtension/v1" xmlns:xsi="http://www.w3.org/2001/XMLSchema-instance" xsi:schemaLocation="http://www.topografix.com/GPX/1/1 http://www.topografix.com/GPX/1/1/gpx.xsd" version="1.1" creator="gpx.py -- https://github.com/tkrajina/gpxpy">
  <trk>
    <name>gpx from keep</name>
    <type>Walk</type>
    <trkseg>
      <trkpt lat="29.602536680740613" lon="106.31956620309644">
        <ele>266.8443603515625</ele>
        <time>2026-10-06T22:31:22Z</time>
        <extensions>
          <gpxtpx:TrackPointExtension>
            <gpxtpx:hr>106</gpxtpx:hr>
          </gpxtpx:TrackPointExtension>
        </extensions>
      </trkpt>
      <trkpt lat="29.602582737173492" lon="106.31952929156036">
        <ele>259.799072265625</ele>
        <time>2026-10-06T22:31:34Z</time>
        <extensions>
          <gpxtpx:TrackPointExtension>
            <gpxtpx:hr>106</gpxtpx:hr>
          </gpxtpx:TrackPointExtension>
        </extensions>
      </trkpt>
      <trkpt lat="29.602713786670137" lon="106.31948239954757">
        <ele>261.125244140625</ele>
        <time>2026-10-06T22:31:46Z</time>
        <extensions>
          <gpxtpx:TrackPointExtension>
            <gpxtpx:hr>106</gpxtpx:hr>
          </gpxtpx:TrackPointExtension>
        </extensions>
      </trkpt>
      <trkpt lat="29.60283874656583" lon="106.31948338954415">
        <ele>261.7830810546875</ele>
        <time>2026-10-06T22:32:01Z</time>
      </trkpt>
      <trkpt lat="29.60294481325436" lon="106.31943151135485">
        <ele>258.72381591796875</ele>
        <time>2026-10-06T22:32:13Z</time>
      </trkpt>
      <trkpt lat="29.60297091008553" lon="106.31937664537104">
        <ele>256.382568359375</ele>
        <time>2026-10-06T22:32:19Z</time>
      </trkpt>
      <trkpt lat="29.602955484338974" lon="106.31907838314108">
        <ele>254.387451171875</ele>
        <time>2026-10-06T22:32:49Z</time>
      </trkpt>
      <trkpt lat="29.602913854978986" lon="106.3188908487002">
        <ele>251.028076171875</ele>
        <time>2026-10-06T22:33:07Z</time>
      </trkpt>
      <trkpt lat="29.60293330574277" lon="106.31865143836305">
        <ele>249.11236572265625</ele>
        <time>2026-10-06T22:33:32Z</time>
      </trkpt>
      <trkpt lat="29.60292557630208" lon="106.31851078578907">
        <ele>249.05853271484375</ele>
        <time>2026-10-06T22:33:44Z</time>
      </trkpt>
      <trkpt lat="29.602940714299695" lon="106.31843596938133">
        <ele>249.191650390625</ele>
        <time>2026-10-06T22:33:50Z</time>
      </trkpt>
      <trkpt lat="29.60291522581149" lon="106.31817162256144">
        <ele>248.488525390625</ele>
        <time>2026-10-06T22:34:14Z</time>
      </trkpt>
      <trkpt lat="29.602924604794882" lon="106.3179711159687">
        <ele>248.03826904296875</ele>
        <time>2026-10-06T22:34:32Z</time>
      </trkpt>
      <trkpt lat="29.602951723749403" lon="106.317904278934">
        <ele>247.10888671875</ele>
        <time>2026-10-06T22:34:38Z</time>
      </trkpt>
      <trkpt lat="29.602938359894708" lon="106.31757209738828">
        <ele>250.05169677734375</ele>
        <time>2026-10-06T22:35:08Z</time>
      </trkpt>
      <trkpt lat="29.602954586361044" lon="106.31745039578234">
        <ele>249.5538330078125</ele>
        <time>2026-10-06T22:35:20Z</time>
      </trkpt>
      <trkpt lat="29.602912938488235" lon="106.31727183734847">
        <ele>248.980224609375</ele>
        <time>2026-10-06T22:35:38Z</time>
      </trkpt>
      <trkpt lat="29.602884047776133" lon="106.31721896904618">
        <ele>249.4815673828125</ele>
        <time>2026-10-06T22:35:44Z</time>
      </trkpt>
      <trkpt lat="29.60293140658037" lon="106.31702244906245">
        <ele>250.38250732421875</ele>
        <time>2026-10-06T22:36:02Z</time>
      </trkpt>
      <trkpt lat="29.60291699792193" lon="106.31671320920238">
        <ele>249.2857666015625</ele>
        <time>2026-10-06T22:36:32Z</time>
      </trkpt>
      <trkpt lat="29.602904276152422" lon="106.3165685648644">
        <ele>252.5849609375</ele>
        <time>2026-10-06T22:36:44Z</time>
      </trkpt>
      <trkpt lat="29.602849525502965" lon="106.31644586908561">
        <ele>249.07989501953125</ele>
        <time>2026-10-06T22:36:59Z</time>
      </trkpt>
      <trkpt lat="29.60275465659763" lon="106.31639200687606">
        <ele>247.0579833984375</ele>
        <time>2026-10-06T22:37:11Z</time>
      </trkpt>
      <trkpt lat="29.602704688889563" lon="106.31638303189654">
        <ele>245.96044921875</ele>
        <time>2026-10-06T22:37:17Z</time>
      </trkpt>
      <trkpt lat="29.602608633189647" lon="106.3164279276255">
        <ele>247.856689453125</ele>
        <time>2026-10-06T22:37:29Z</time>
      </trkpt>
      <trkpt lat="29.602537448840643" lon="106.31653666526458">
        <ele>247.93994140625</ele>
        <time>2026-10-06T22:37:44Z</time>
      </trkpt>
      <trkpt lat="29.602517184509757" lon="106.31667931652244">
        <ele>250.06036376953125</ele>
        <time>2026-10-06T22:37:56Z</time>
      </trkpt>
      <trkpt lat="29.602601522580326" lon="106.31701448854386">
        <ele>250.1103515625</ele>
        <time>2026-10-06T22:38:26Z</time>
      </trkpt>
      <trkpt lat="29.60256413042887" lon="106.31722696871086">
        <ele>247.19830322265625</ele>
        <time>2026-10-06T22:38:44Z</time>
      </trkpt>
      <trkpt lat="29.602468791796483" lon="106.31742049866104">
        <ele>247.67205810546875</ele>
        <time>2026-10-06T22:39:02Z</time>
      </trkpt>
      <trkpt lat="29.602364702278177" lon="106.31748434791356">
        <ele>248.0511474609375</ele>
        <time>2026-10-06T22:39:14Z</time>
      </trkpt>
      <trkpt lat="29.602120638564504" lon="106.31755718348742">
        <ele>248.74139404296875</ele>
        <time>2026-10-06T22:39:38Z</time>
      </trkpt>
      <trkpt lat="29.6020596724287" lon="106.317549206795">
        <ele>249.28826904296875</ele>
        <time>2026-10-06T22:39:44Z</time>
      </trkpt>
      <trkpt lat="29.60192962123903" lon="106.31759709682841">
        <ele>249.822265625</ele>
        <time>2026-10-06T22:39:56Z</time>
      </trkpt>
      <trkpt lat="29.601875423428652" lon="106.31770982270149">
        <ele>248.52618408203125</ele>
        <time>2026-10-06T22:40:08Z</time>
      </trkpt>
      <trkpt lat="29.601871157076555" lon="106.31785047671109">
        <ele>246.8863525390625</ele>
        <time>2026-10-06T22:40:20Z</time>
      </trkpt>
      <trkpt lat="29.601865499681555" lon="106.31819662438986">
        <ele>250.1279296875</ele>
        <time>2026-10-06T22:40:50Z</time>
      </trkpt>
      <trkpt lat="29.60187982607629" lon="106.31854775780955">
        <ele>253.95379638671875</ele>
        <time>2026-10-06T22:41:20Z</time>
      </trkpt>
      <trkpt lat="29.601883157195036" lon="106.31889789361942">
        <ele>246.9530029296875</ele>
        <time>2026-10-06T22:41:56Z</time>
      </trkpt>
      <trkpt lat="29.601878507390147" lon="106.3192390513976">
        <ele>249.20050048828125</ele>
        <time>2026-10-06T22:42:32Z</time>
      </trkpt>
      <trkpt lat="29.601911428713684" lon="106.31927496069072">
        <ele>250.1953125</ele>
        <time>2026-10-06T22:42:38Z</time>
      </trkpt>
      <trkpt lat="29.601932949552303" lon="106.31952234801756">
        <ele>252.14483642578125</ele>
        <time>2026-10-06T22:43:02Z</time>
      </trkpt>
      <trkpt lat="29.601913442702553" lon="106.31979068569764">
        <ele>253.69189453125</ele>
        <time>2026-10-06T22:43:26Z</time>
      </trkpt>
      <trkpt lat="29.601945040112856" lon="106.31999617544902">
        <ele>253.93450927734375</ele>
        <time>2026-10-06T22:43:44Z</time>
      </trkpt>
      <trkpt lat="29.60200403918916" lon="106.31998719410277">
        <ele>253.516845703125</ele>
        <time>2026-10-06T22:43:50Z</time>
      </trkpt>
      <trkpt lat="29.60210017185216" lon="106.31990239807688">
        <ele>255.5225830078125</ele>
        <time>2026-10-06T22:44:02Z</time>
      </trkpt>
      <trkpt lat="29.602391084645603" lon="106.31990138299362">
        <ele>256.865234375</ele>
        <time>2026-10-06T22:44:32Z</time>
      </trkpt>
      <trkpt lat="29.602447132334824" lon="106.31986746351241">
        <ele>254.939453125</ele>
        <time>2026-10-06T22:44:38Z</time>
      </trkpt>
      <trkpt lat="29.602484246842337" lon="106.31980162412273">
        <ele>255.4549560546875</ele>
        <time>2026-10-06T22:44:44Z</time>
      </trkpt>
      <trkpt lat="29.602493373714267" lon="106.31973379133446">
        <ele>255.3289794921875</ele>
        <time>2026-10-06T22:44:50Z</time>
      </trkpt>
      <trkpt lat="29.602485639174535" lon="106.31959613219027">
        <ele>246.91522216796875</ele>
        <time>2026-10-06T22:45:02Z</time>
      </trkpt>
      <trkpt lat="29.602519752632105" lon="106.31953129042789">
        <ele>248.9747314453125</ele>
        <time>2026-10-06T22:45:08Z</time>
      </trkpt>
      <trkpt lat="29.602580785418866" lon="106.3195043533243">
        <ele>249.73590087890625</ele>
        <time>2026-10-06T22:45:14Z</time>
      </trkpt>
      <trkpt lat="29.60283672050336" lon="106.31949735514628">
        <ele>247.91693115234375</ele>
        <time>2026-10-06T22:45:38Z</time>
      </trkpt>
      <trkpt lat="29.602890753542976" lon="106.31947141599487">
        <ele>246.6591796875</ele>
        <time>2026-10-06T22:45:44Z</time>
      </trkpt>
      <trkpt lat="29.60293585791265" lon="106.31940956613303">
        <ele>245.1695556640625</ele>
        <time>2026-10-06T22:45:50Z</time>
      </trkpt>
      <trkpt lat="29.602948977756025" lon="106.31934472557568">
        <ele>248.1234130859375</ele>
        <time>2026-10-06T22:45:56Z</time>
      </trkpt>
      <trkpt lat="29.602938628485894" lon="106.31900556398168">
        <ele>250.86285400390625</ele>
        <time>2026-10-06T22:46:26Z</time>
      </trkpt>
      <trkpt lat="29.602911023331668" lon="106.31880306554902">
        <ele>250.6094970703125</ele>
        <time>2026-10-06T22:46:44Z</time>
      </trkpt>
      <trkpt lat="29.602920267871525" lon="106.31867338500312">
        <ele>248.25372314453125</ele>
        <time>2026-10-06T22:46:56Z</time>
      </trkpt>
      <trkpt lat="29.602957640673527" lon="106.31847187980253">
        <ele>247.05950927734375</ele>
        <time>2026-10-06T22:47:14Z</time>
      </trkpt>
      <trkpt lat="29.60292527214651" lon="106.31814568586712">
        <ele>247.7548828125</ele>
        <time>2026-10-06T22:47:44Z</time>
      </trkpt>
      <trkpt lat="29.602939922917372" lon="106.31780153263028">
        <ele>243.81646728515625</ele>
        <time>2026-10-06T22:48:14Z</time>
      </trkpt>
      <trkpt lat="29.602920185186672" lon="106.31766686529606">
        <ele>245.00555419921875</ele>
        <time>2026-10-06T22:48:26Z</time>
      </trkpt>
      <trkpt lat="29.60293886421741" lon="106.31730674995472">
        <ele>245.46832275390625</ele>
        <time>2026-10-06T22:48:56Z</time>
      </trkpt>
      <trkpt lat="29.602939561291553" lon="106.31693965192966">
        <ele>242.19635009765625</ele>
        <time>2026-10-06T22:49:26Z</time>
      </trkpt>
      <trkpt lat="29.60293120549912" lon="106.31660148248672">
        <ele>245.8765869140625</ele>
        <time>2026-10-06T22:49:56Z</time>
      </trkpt>
      <trkpt lat="29.602873444445827" lon="106.3164847722428">
        <ele>249.6622314453125</ele>
        <time>2026-10-06T22:50:08Z</time>
      </trkpt>
      <trkpt lat="29.60277158903075" lon="106.31642492514612">
        <ele>250.1956787109375</ele>
        <time>2026-10-06T22:50:20Z</time>
      </trkpt>
      <trkpt lat="29.602657620097062" lon="106.31642692712026">
        <ele>247.51446533203125</ele>
        <time>2026-10-06T22:50:32Z</time>
      </trkpt>
      <trkpt lat="29.602567488823997" lon="106.31651072706761">
        <ele>247.86346435546875</ele>
        <time>2026-10-06T22:50:47Z</time>
      </trkpt>
      <trkpt lat="29.60254140034466" lon="106.31656160385548">
        <ele>248.03076171875</ele>
        <time>2026-10-06T22:50:53Z</time>
      </trkpt>
      <trkpt lat="29.602522160279698" lon="106.31669128684804">
        <ele>249.34808349609375</ele>
        <time>2026-10-06T22:51:05Z</time>
      </trkpt>
      <trkpt lat="29.602594534189016" lon="106.31700950121659">
        <ele>251.9407958984375</ele>
        <time>2026-10-06T22:51:35Z</time>
      </trkpt>
      <trkpt lat="29.602546007075247" lon="106.31729480305941">
        <ele>249.277099609375</ele>
        <time>2026-10-06T22:51:59Z</time>
      </trkpt>
      <trkpt lat="29.602519901308263" lon="106.31735465747893">
        <ele>250.08526611328125</ele>
        <time>2026-10-06T22:52:05Z</time>
      </trkpt>
      <trkpt lat="29.602419742328284" lon="106.31745441820337">
        <ele>247.4044189453125</ele>
        <time>2026-10-06T22:52:17Z</time>
      </trkpt>
      <trkpt lat="29.602113716568002" lon="106.3175172820657">
        <ele>246.707763671875</ele>
        <time>2026-10-06T22:52:47Z</time>
      </trkpt>
      <trkpt lat="29.601984699209588" lon="106.31754721622185">
        <ele>250.3302001953125</ele>
        <time>2026-10-06T22:52:59Z</time>
      </trkpt>
      <trkpt lat="29.60192664681661" lon="106.3175841289147">
        <ele>251.40216064453125</ele>
        <time>2026-10-06T22:53:05Z</time>
      </trkpt>
      <trkpt lat="29.601862450183614" lon="106.31769785294522">
        <ele>252.77056884765625</ele>
        <time>2026-10-06T22:53:17Z</time>
      </trkpt>
      <trkpt lat="29.601828826325306" lon="106.31803103459852">
        <ele>251.81793212890625</ele>
        <time>2026-10-06T22:53:47Z</time>
      </trkpt>
      <trkpt lat="29.60184229583283" lon="106.31830735287467">
        <ele>252.0</ele>
        <time>2026-10-06T22:54:11Z</time>
      </trkpt>
      <trkpt lat="29.60189184711389" lon="106.31853478907053">
        <ele>250.57415771484375</ele>
        <time>2026-10-06T22:54:29Z</time>
      </trkpt>
      <trkpt lat="29.601845581678848" lon="106.31868143011657">
        <ele>251.0560302734375</ele>
        <time>2026-10-06T22:54:41Z</time>
      </trkpt>
      <trkpt lat="29.601843904612828" lon="106.31903655364347">
        <ele>251.47918701171875</ele>
        <time>2026-10-06T22:55:11Z</time>
      </trkpt>
      <trkpt lat="29.601848491834875" lon="106.3192520211705">
        <ele>254.32568359375</ele>
        <time>2026-10-06T22:55:29Z</time>
      </trkpt>
      <trkpt lat="29.60188435890849" lon="106.31931586127142">
        <ele>257.36572265625</ele>
        <time>2026-10-06T22:55:35Z</time>
      </trkpt>
      <trkpt lat="29.601886687340606" lon="106.31966699320581">
        <ele>257.9423828125</ele>
        <time>2026-10-06T22:56:05Z</time>
      </trkpt>
      <trkpt lat="29.601904035520715" lon="106.32000515570924">
        <ele>257.89007568359375</ele>
        <time>2026-10-06T22:56:35Z</time>
      </trkpt>
      <trkpt lat="29.601972976223212" lon="106.32002510218476">
        <ele>257.42132568359375</ele>
        <time>2026-10-06T22:56:41Z</time>
      </trkpt>
      <trkpt lat="29.602107009530776" lon="106.31998619035843">
        <ele>256.9449462890625</ele>
        <time>2026-10-06T22:56:53Z</time>
      </trkpt>
      <trkpt lat="29.60218099067462" lon="106.3199841908312">
        <ele>255.6192626953125</ele>
        <time>2026-10-06T22:56:59Z</time>
      </trkpt>
      <trkpt lat="29.602234586947297" lon="106.32018668647495">
        <ele>250.540771484375</ele>
        <time>2026-10-06T22:57:17Z</time>
      </trkpt>
      <trkpt lat="29.602305610989934" lon="106.32016274144532">
        <ele>249.5555419921875</ele>
        <time>2026-10-06T22:57:23Z</time>
      </trkpt>
      <trkpt lat="29.60231765881971" lon="106.32013580737811">
        <ele>249.10125732421875</ele>
        <time>2026-10-06T22:57:38Z</time>
      </trkpt>
    </trkseg>
  </trk>
</gpx>