<?xml version="1.0" encoding="UTF-8"?>
<gpx xmlns="http://www.topografix.com/GPX/1/1" xmlns:gpxtpx="http://www.garmin.com/xmlschemas/TrackPointExtension/v1" xmlns:xsi="http://www.w3.org/2001/XMLSchema-instance" xsi:schemaLocation="http://www.topografix.com/GPX/1/1 http://www.topografix.com/GPX/1/1/gpx.xsd" version="1.1" creator="gpx.py -- https://github.com/tkrajina/gpxpy">
  <trk>
    <name>gpx from keep</name>
    <type>Walk</type>
    <trkseg>
      <trkpt lat="29.60249670822095" lon="106.3195582252363">
        <ele>255.661865234375</ele>
        <time>2026-07-25T23:10:40Z</time>
      </trkpt>
      <trkpt lat="29.60254575230065" lon="106.31952729872319">
        <ele>256.725830078125</ele>
        <time>2026-07-25T23:10:46Z</time>
      </trkpt>
      <trkpt lat="29.60279672891456" lon="106.31949935262712">
        <ele>262.511962890625</ele>
        <time>2026-07-25T23:11:07Z</time>
      </trkpt>
      <trkpt lat="29.602861754780925" lon="106.31947540788157">
        <ele>261.71356201171875</ele>
        <time>2026-07-25T23:11:13Z</time>
      </trkpt>
      <trkpt lat="29.602910865548047" lon="106.31940956764058">
        <ele>260.3114013671875</ele>
        <time>2026-07-25T23:11:19Z</time>
      </trkpt>
      <trkpt lat="29.602934532631398" lon="106.31905643860131">
        <ele>259.78851318359375</ele>
        <time>2026-07-25T23:11:43Z</time>
      </trkpt>
      <trkpt lat="29.602951997492383" lon="106.31881004584395">
        <ele>255.807373046875</ele>
        <time>2026-07-25T23:12:01Z</time>
      </trkpt>
      <trkpt lat="29.602898421027422" lon="106.31859657581951">
        <ele>253.20208740234375</ele>
        <time>2026-07-25T23:12:19Z</time>
      </trkpt>
      <trkpt lat="29.602926003961144" lon="106.3182863391761">
        <ele>253.56591796875</ele>
        <time>2026-07-25T23:12:43Z</time>
      </trkpt>
      <trkpt lat="29.602948418967998" lon="106.3180648835529">
        <ele>251.8480224609375</ele>
        <time>2026-07-25T23:13:01Z</time>
      </trkpt>
      <trkpt lat="29.60293356217288" lon="106.3179920638317">
        <ele>251.63629150390625</ele>
        <time>2026-07-25T23:13:07Z</time>
      </trkpt>
      <trkpt lat="29.602950834150533" lon="106.31784642145372">
        <ele>250.593017578125</ele>
        <time>2026-07-25T23:13:19Z</time>
      </trkpt>
      <trkpt lat="29.602919454834442" lon="106.31752521387165">
        <ele>250.92889404296875</ele>
        <time>2026-07-25T23:13:43Z</time>
      </trkpt>
      <trkpt lat="29.60293205016772" lon="106.31720998821947">
        <ele>251.4080810546875</ele>
        <time>2026-07-25T23:14:07Z</time>
      </trkpt>
      <trkpt lat="29.602939771400425" lon="106.31682892379924">
        <ele>248.991455078125</ele>
        <time>2026-07-25T23:14:37Z</time>
      </trkpt>
      <trkpt lat="29.60293118091285" lon="106.31661445067324">
        <ele>253.0987548828125</ele>
        <time>2026-07-25T23:14:55Z</time>
      </trkpt>
      <trkpt lat="29.60290831842243" lon="106.31654562089986">
        <ele>254.31903076171875</ele>
        <time>2026-07-25T23:15:01Z</time>
      </trkpt>
      <trkpt lat="29.60282852246749" lon="106.3164508581206">
        <ele>256.36529541015625</ele>
        <time>2026-07-25T23:15:13Z</time>
      </trkpt>
      <trkpt lat="29.602707614262243" lon="106.3164219363378">
        <ele>256.820556640625</ele>
        <time>2026-07-25T23:15:25Z</time>
      </trkpt>
      <trkpt lat="29.60264260200099" lon="106.3164388986737">
        <ele>257.79150390625</ele>
        <time>2026-07-25T23:15:31Z</time>
      </trkpt>
      <trkpt lat="29.60258854668059" lon="106.31647680897706">
        <ele>256.549560546875</ele>
        <time>2026-07-25T23:15:37Z</time>
      </trkpt>
      <trkpt lat="29.60254846060237" lon="106.3165286841749">
        <ele>256.8812255859375</ele>
        <time>2026-07-25T23:15:43Z</time>
      </trkpt>
      <trkpt lat="29.602537903731285" lon="106.31682396025809">
        <ele>255.998046875</ele>
        <time>2026-07-25T23:16:07Z</time>
      </trkpt>
      <trkpt lat="29.602586494975277" lon="106.31703144779257">
        <ele>255.57672119140625</ele>
        <time>2026-07-25T23:16:25Z</time>
      </trkpt>
      <trkpt lat="29.602560052065787" lon="106.31726886597177">
        <ele>255.86431884765625</ele>
        <time>2026-07-25T23:16:43Z</time>
      </trkpt>
      <trkpt lat="29.602532921972603" lon="106.31734168857967">
        <ele>255.255126953125</ele>
        <time>2026-07-25T23:16:49Z</time>
      </trkpt>
      <trkpt lat="29.602489817600148" lon="106.31740353909778">
        <ele>255.529052734375</ele>
        <time>2026-07-25T23:16:55Z</time>
      </trkpt>
      <trkpt lat="29.602357712005567" lon="106.3174803581495">
        <ele>254.85931396484375</ele>
        <time>2026-07-25T23:17:07Z</time>
      </trkpt>
      <trkpt lat="29.6020677553157" lon="106.31750431673575">
        <ele>255.4359130859375</ele>
        <time>2026-07-25T23:17:31Z</time>
      </trkpt>
      <trkpt lat="29.601999774260758" lon="106.31750531837912">
        <ele>255.572998046875</ele>
        <time>2026-07-25T23:17:37Z</time>
      </trkpt>
      <trkpt lat="29.601900624441026" lon="106.31760009121277">
        <ele>258.87890625</ele>
        <time>2026-07-25T23:17:52Z</time>
      </trkpt>
      <trkpt lat="29.60186336259557" lon="106.31774373994818">
        <ele>255.75262451171875</ele>
        <time>2026-07-25T23:18:04Z</time>
      </trkpt>
      <trkpt lat="29.601876072022915" lon="106.31789436833915">
        <ele>256.1964111328125</ele>
        <time>2026-07-25T23:18:16Z</time>
      </trkpt>
      <trkpt lat="29.60183640218186" lon="106.31825248846722">
        <ele>257.8836669921875</ele>
        <time>2026-07-25T23:18:46Z</time>
      </trkpt>
      <trkpt lat="29.601859723823956" lon="106.31860461876441">
        <ele>253.6431884765625</ele>
        <time>2026-07-25T23:19:13Z</time>
      </trkpt>
      <trkpt lat="29.601855325611048" lon="106.31881410212887">
        <ele>252.845947265625</ele>
        <time>2026-07-25T23:19:31Z</time>
      </trkpt>
      <trkpt lat="29.601873887797936" lon="106.31904054198205">
        <ele>253.47906494140625</ele>
        <time>2026-07-25T23:19:49Z</time>
      </trkpt>
      <trkpt lat="29.601863635760722" lon="106.31917421246818">
        <ele>252.8941650390625</ele>
        <time>2026-07-25T23:20:01Z</time>
      </trkpt>
      <trkpt lat="29.601878482634092" lon="106.31925201936166">
        <ele>250.576416015625</ele>
        <time>2026-07-25T23:20:07Z</time>
      </trkpt>
      <trkpt lat="29.601910350935537" lon="106.3193158597037">
        <ele>250.980712890625</ele>
        <time>2026-07-25T23:20:13Z</time>
      </trkpt>
      <trkpt lat="29.60191405826258" lon="106.31946848230609">
        <ele>250.7142333984375</ele>
        <time>2026-07-25T23:20:25Z</time>
      </trkpt>
      <trkpt lat="29.601935923862374" lon="106.31953531578155">
        <ele>252.41741943359375</ele>
        <time>2026-07-25T23:20:31Z</time>
      </trkpt>
      <trkpt lat="29.60193265798804" lon="106.31967497069982">
        <ele>253.6630859375</ele>
        <time>2026-07-25T23:20:43Z</time>
      </trkpt>
      <trkpt lat="29.601951513020623" lon="106.3197477894857">
        <ele>252.65728759765625</ele>
        <time>2026-07-25T23:20:49Z</time>
      </trkpt>
      <trkpt lat="29.601989379368202" lon="106.31981162930451">
        <ele>254.393310546875</ele>
        <time>2026-07-25T23:20:55Z</time>
      </trkpt>
      <trkpt lat="29.60199712714683" lon="106.31994230558072">
        <ele>253.6982421875</ele>
        <time>2026-07-25T23:21:07Z</time>
      </trkpt>
      <trkpt lat="29.60202401589575" lon="106.3199961706842">
        <ele>252.7933349609375</ele>
        <time>2026-07-25T23:21:13Z</time>
      </trkpt>
      <trkpt lat="29.602075956096716" lon="106.32001911078137">
        <ele>254.747314453125</ele>
        <time>2026-07-25T23:21:19Z</time>
      </trkpt>
      <trkpt lat="29.602187906526474" lon="106.32002708428062">
        <ele>256.85009765625</ele>
        <time>2026-07-25T23:21:31Z</time>
      </trkpt>
      <trkpt lat="29.60219171266329" lon="106.32012783472764">
        <ele>259.98809814453125</ele>
        <time>2026-07-25T23:21:40Z</time>
      </trkpt>
    </trkseg>
  </trk>
</gpx>