<?xml version="1.0" encoding="UTF-8"?>
<gpx xmlns="http://www.topografix.com/GPX/1/1" xmlns:gpxtpx="http://www.garmin.com/xmlschemas/TrackPointExtension/v1" xmlns:xsi="http://www.w3.org/2001/XMLSchema-instance" xsi:schemaLocation="http://www.topografix.com/GPX/1/1 http://www.topografix.com/GPX/1/1/gpx.xsd" version="1.1" creator="gpx.py -- https://github.com/tkrajina/gpxpy">
  <trk>
    <name>gpx from keep</name>
    <type>Walk</type>
    <trkseg>
      <trkpt lat="29.602943126937493" lon="106.31769379762774">
        <ele>253.34173583984375</ele>
        <time>2026-09-22T22:42:09Z</time>
        <extensions>
          <gpxtpx:TrackPointExtension>
            <gpxtpx:hr>125</gpxtpx:hr>
          </gpxtpx:TrackPointExtension>
        </extensions>
      </trkpt>
      <trkpt lat="29.602919240507127" lon="106.31763793654306">
        <ele>253.984619140625</ele>
        <time>2026-09-22T22:42:15Z</time>
        <extensions>
          <gpxtpx:TrackPointExtension>
            <gpxtpx:hr>125</gpxtpx:hr>
          </gpxtpx:TrackPointExtension>
        </extensions>
      </trkpt>
      <trkpt lat="29.60295186403777" lon="106.31730475407615">
        <ele>251.72027587890625</ele>
        <time>2026-09-22T22:42:39Z</time>
      </trkpt>
      <trkpt lat="29.602946570512824" lon="106.31693366620597">
        <ele>253.4210205078125</ele>
        <time>2026-09-22T22:43:09Z</time>
      </trkpt>
      <trkpt lat="29.602949111108348" lon="106.31664836637847">
        <ele>254.20660400390625</ele>
        <time>2026-09-22T22:43:33Z</time>
      </trkpt>
      <trkpt lat="29.602926371539038" lon="106.31651469566009">
        <ele>252.223876953125</ele>
        <time>2026-09-22T22:43:45Z</time>
      </trkpt>
      <trkpt lat="29.60288450157881" lon="106.31645284985598">
        <ele>253.37872314453125</ele>
        <time>2026-09-22T22:43:51Z</time>
      </trkpt>
      <trkpt lat="29.60283160282829" lon="106.31640796310955">
        <ele>252.116455078125</ele>
        <time>2026-09-22T22:43:57Z</time>
      </trkpt>
      <trkpt lat="29.602753670132703" lon="106.31638502405465">
        <ele>253.317626953125</ele>
        <time>2026-09-22T22:44:03Z</time>
      </trkpt>
      <trkpt lat="29.602613612758727" lon="106.31643790286611">
        <ele>255.0675048828125</ele>
        <time>2026-09-22T22:44:16Z</time>
      </trkpt>
      <trkpt lat="29.602528425121548" lon="106.31655063155304">
        <ele>252.2823486328125</ele>
        <time>2026-09-22T22:44:28Z</time>
      </trkpt>
      <trkpt lat="29.602517135324202" lon="106.31670525287903">
        <ele>253.3675537109375</ele>
        <time>2026-09-22T22:44:40Z</time>
      </trkpt>
      <trkpt lat="29.602564516853242" lon="106.31702346872042">
        <ele>255.31640625</ele>
        <time>2026-09-22T22:45:04Z</time>
      </trkpt>
      <trkpt lat="29.602551051028478" lon="106.31727086160986">
        <ele>254.5894775390625</ele>
        <time>2026-09-22T22:45:22Z</time>
      </trkpt>
      <trkpt lat="29.60248484946134" lon="106.31738757864612">
        <ele>254.26507568359375</ele>
        <time>2026-09-22T22:45:34Z</time>
      </trkpt>
      <trkpt lat="29.60236571714144" lon="106.31747636748155">
        <ele>253.9661865234375</ele>
        <time>2026-09-22T22:45:46Z</time>
      </trkpt>
      <trkpt lat="29.60210792128711" lon="106.31741054494181">
        <ele>244.60992431640625</ele>
        <time>2026-09-22T22:46:07Z</time>
      </trkpt>
      <trkpt lat="29.601966846952013" lon="106.31747240133542">
        <ele>247.26727294921875</ele>
        <time>2026-09-22T22:46:19Z</time>
      </trkpt>
      <trkpt lat="29.601915746915164" lon="106.31753325473423">
        <ele>248.38623046875</ele>
        <time>2026-09-22T22:46:25Z</time>
      </trkpt>
      <trkpt lat="29.601884627450794" lon="106.31760108972247">
        <ele>248.6385498046875</ele>
        <time>2026-09-22T22:46:31Z</time>
      </trkpt>
      <trkpt lat="29.601886987018176" lon="106.31793726204963">
        <ele>254.607177734375</ele>
        <time>2026-09-22T22:46:55Z</time>
      </trkpt>
      <trkpt lat="29.6018903685199" lon="106.31826146308524">
        <ele>257.56036376953125</ele>
        <time>2026-09-22T22:47:19Z</time>
      </trkpt>
      <trkpt lat="29.60188422784141" lon="106.3183362790322">
        <ele>256.8447265625</ele>
        <time>2026-09-22T22:47:25Z</time>
      </trkpt>
      <trkpt lat="29.601909932852653" lon="106.31848690607278">
        <ele>254.54315185546875</ele>
        <time>2026-09-22T22:47:37Z</time>
      </trkpt>
      <trkpt lat="29.601883511061263" lon="106.31871235152725">
        <ele>250.9747314453125</ele>
        <time>2026-09-22T22:47:55Z</time>
      </trkpt>
      <trkpt lat="29.60189335771462" lon="106.31879115646082">
        <ele>251.747802734375</ele>
        <time>2026-09-22T22:48:01Z</time>
      </trkpt>
      <trkpt lat="29.601873765966193" lon="106.31910438432651">
        <ele>256.15472412109375</ele>
        <time>2026-09-22T22:48:25Z</time>
      </trkpt>
      <trkpt lat="29.60186562181903" lon="106.31918119510001">
        <ele>256.88427734375</ele>
        <time>2026-09-22T22:48:31Z</time>
      </trkpt>
      <trkpt lat="29.601895500272565" lon="106.31924004790831">
        <ele>257.1104736328125</ele>
        <time>2026-09-22T22:48:37Z</time>
      </trkpt>
      <trkpt lat="29.601908353453396" lon="106.31931486228898">
        <ele>256.6163330078125</ele>
        <time>2026-09-22T22:48:43Z</time>
      </trkpt>
      <trkpt lat="29.601906747911755" lon="106.3196320783231">
        <ele>256.3470458984375</ele>
        <time>2026-09-22T22:49:07Z</time>
      </trkpt>
      <trkpt lat="29.601935445488586" lon="106.31978569670618">
        <ele>257.911376953125</ele>
        <time>2026-09-22T22:49:19Z</time>
      </trkpt>
      <trkpt lat="29.601935157595126" lon="106.31993632412683">
        <ele>256.055908203125</ele>
        <time>2026-09-22T22:49:31Z</time>
      </trkpt>
      <trkpt lat="29.601971020699548" lon="106.32000215907246">
        <ele>253.6737060546875</ele>
        <time>2026-09-22T22:49:37Z</time>
      </trkpt>
      <trkpt lat="29.602154084756933" lon="106.319939303515">
        <ele>250.6263427734375</ele>
        <time>2026-09-22T22:49:55Z</time>
      </trkpt>
      <trkpt lat="29.602192971742905" lon="106.31999217036326">
        <ele>250.76434326171875</ele>
        <time>2026-09-22T22:50:01Z</time>
      </trkpt>
      <trkpt lat="29.602186708472356" lon="106.32013082762323">
        <ele>248.31201171875</ele>
        <time>2026-09-22T22:50:13Z</time>
      </trkpt>
      <trkpt lat="29.6022235655162" lon="106.320199655042">
        <ele>246.0594482421875</ele>
        <time>2026-09-22T22:50:22Z</time>
      </trkpt>
    </trkseg>
  </trk>
</gpx>