<?xml version="1.0" encoding="UTF-8"?>
<gpx xmlns="http://www.topografix.com/GPX/1/1" xmlns:gpxtpx="http://www.garmin.com/xmlschemas/TrackPointExtension/v1" xmlns:xsi="http://www.w3.org/2001/XMLSchema-instance" xsi:schemaLocation="http://www.topografix.com/GPX/1/1 http://www.topografix.com/GPX/1/1/gpx.xsd" version="1.1" creator="gpx.py -- https://github.com/tkrajina/gpxpy">
  <trk>
    <name>gpx from keep</name>
    <type>Walk</type>
    <trkseg>
      <trkpt lat="29.60248631295142" lon="106.31976671034914">
        <ele>255.9571533203125</ele>
        <time>2026-08-14T23:11:12Z</time>
      </trkpt>
      <trkpt lat="29.60245859217031" lon="106.31962506229864">
        <ele>258.7213134765625</ele>
        <time>2026-08-14T23:11:24Z</time>
      </trkpt>
      <trkpt lat="29.60246071161315" lon="106.31956221754345">
        <ele>257.4537353515625</ele>
        <time>2026-08-14T23:11:30Z</time>
      </trkpt>
      <trkpt lat="29.602510759196065" lon="106.31952929590221">
        <ele>257.710693359375</ele>
        <time>2026-08-14T23:11:36Z</time>
      </trkpt>
      <trkpt lat="29.602708748188036" lon="106.31950334807118">
        <ele>254.4222412109375</ele>
        <time>2026-08-14T23:11:54Z</time>
      </trkpt>
      <trkpt lat="29.602775712468077" lon="106.31951132430534">
        <ele>254.95703125</ele>
        <time>2026-08-14T23:12:00Z</time>
      </trkpt>
      <trkpt lat="29.602840730712884" lon="106.31949136969882">
        <ele>254.93402099609375</ele>
        <time>2026-08-14T23:12:06Z</time>
      </trkpt>
      <trkpt lat="29.602898840638677" lon="106.31942453138575">
        <ele>253.89691162109375</ele>
        <time>2026-08-14T23:12:12Z</time>
      </trkpt>
      <trkpt lat="29.602947420151946" lon="106.3191132974001">
        <ele>252.88665771484375</ele>
        <time>2026-08-14T23:12:36Z</time>
      </trkpt>
      <trkpt lat="29.602939729052192" lon="106.31895269445403">
        <ele>249.47650146484375</ele>
        <time>2026-08-14T23:12:48Z</time>
      </trkpt>
      <trkpt lat="29.60290737454045" lon="106.31861951867965">
        <ele>247.06121826171875</ele>
        <time>2026-08-14T23:13:12Z</time>
      </trkpt>
      <trkpt lat="29.602898926694557" lon="106.31833123015073">
        <ele>249.12451171875</ele>
        <time>2026-08-14T23:13:36Z</time>
      </trkpt>
      <trkpt lat="29.60292319107341" lon="106.31818858029072">
        <ele>253.125</ele>
        <time>2026-08-14T23:13:48Z</time>
      </trkpt>
      <trkpt lat="29.602934924444376" lon="106.31780153293158">
        <ele>250.75592041015625</ele>
        <time>2026-08-14T23:14:18Z</time>
      </trkpt>
      <trkpt lat="29.602952067268188" lon="106.31772372343256">
        <ele>248.3533935546875</ele>
        <time>2026-08-14T23:14:24Z</time>
      </trkpt>
      <trkpt lat="29.602951638467545" lon="106.31742346220065">
        <ele>248.8592529296875</ele>
        <time>2026-08-14T23:14:48Z</time>
      </trkpt>
      <trkpt lat="29.60296777386106" lon="106.3173496427507">
        <ele>248.0810546875</ele>
        <time>2026-08-14T23:14:54Z</time>
      </trkpt>
      <trkpt lat="29.602954365469433" lon="106.31704040357046">
        <ele>250.681640625</ele>
        <time>2026-08-14T23:15:18Z</time>
      </trkpt>
      <trkpt lat="29.6029560805976" lon="106.3166633292435">
        <ele>249.14031982421875</ele>
        <time>2026-08-14T23:15:48Z</time>
      </trkpt>
      <trkpt lat="29.602951206955947" lon="106.31659749107062">
        <ele>250.2705078125</ele>
        <time>2026-08-14T23:15:54Z</time>
      </trkpt>
      <trkpt lat="29.602927339091003" lon="106.31653165400873">
        <ele>251.0535888671875</ele>
        <time>2026-08-14T23:16:00Z</time>
      </trkpt>
      <trkpt lat="29.602838545875848" lon="106.3164368917612">
        <ele>252.8751220703125</ele>
        <time>2026-08-14T23:16:12Z</time>
      </trkpt>
      <trkpt lat="29.60278361938521" lon="106.31640696844599">
        <ele>252.23162841796875</ele>
        <time>2026-08-14T23:16:18Z</time>
      </trkpt>
      <trkpt lat="29.602717658456744" lon="106.31639699687672">
        <ele>251.75262451171875</ele>
        <time>2026-08-14T23:16:24Z</time>
      </trkpt>
      <trkpt lat="29.602602591549104" lon="106.31645087173166">
        <ele>252.00030517578125</ele>
        <time>2026-08-14T23:16:36Z</time>
      </trkpt>
      <trkpt lat="29.602535385160962" lon="106.31657058219511">
        <ele>251.032470703125</ele>
        <time>2026-08-14T23:16:48Z</time>
      </trkpt>
      <trkpt lat="29.60252313538059" lon="106.31670425496554">
        <ele>250.24139404296875</ele>
        <time>2026-08-14T23:17:00Z</time>
      </trkpt>
      <trkpt lat="29.602589512994648" lon="106.31702147211499">
        <ele>252.4642333984375</ele>
        <time>2026-08-14T23:17:24Z</time>
      </trkpt>
      <trkpt lat="29.602568060989064" lon="106.31726288020201">
        <ele>254.01361083984375</ele>
        <time>2026-08-14T23:17:43Z</time>
      </trkpt>
      <trkpt lat="29.60248682230948" lon="106.31740154418452">
        <ele>251.15911865234375</ele>
        <time>2026-08-14T23:17:55Z</time>
      </trkpt>
      <trkpt lat="29.602355720202404" lon="106.31747636808406">
        <ele>251.04095458984375</ele>
        <time>2026-08-14T23:18:07Z</time>
      </trkpt>
      <trkpt lat="29.602047698864304" lon="106.31753723696544">
        <ele>253.31695556640625</ele>
        <time>2026-08-14T23:18:37Z</time>
      </trkpt>
      <trkpt lat="29.601987717254897" lon="106.31753724058055">
        <ele>253.7088623046875</ele>
        <time>2026-08-14T23:18:43Z</time>
      </trkpt>
      <trkpt lat="29.60192668095663" lon="106.3175661730897">
        <ele>253.95587158203125</ele>
        <time>2026-08-14T23:18:49Z</time>
      </trkpt>
      <trkpt lat="29.60188460468878" lon="106.31761306026989">
        <ele>253.8634033203125</ele>
        <time>2026-08-14T23:18:55Z</time>
      </trkpt>
      <trkpt lat="29.601854482993417" lon="106.3176818927063">
        <ele>253.777587890625</ele>
        <time>2026-08-14T23:19:01Z</time>
      </trkpt>
      <trkpt lat="29.60184534344786" lon="106.31775670911334">
        <ele>253.6104736328125</ele>
        <time>2026-08-14T23:19:07Z</time>
      </trkpt>
      <trkpt lat="29.601861658572513" lon="106.31811382864213">
        <ele>252.05328369140625</ele>
        <time>2026-08-14T23:19:37Z</time>
      </trkpt>
      <trkpt lat="29.601913948735916" lon="106.3184779279715">
        <ele>252.2906494140625</ele>
        <time>2026-08-14T23:20:07Z</time>
      </trkpt>
      <trkpt lat="29.601874249386796" lon="106.31885100988846">
        <ele>253.99725341796875</ele>
        <time>2026-08-14T23:20:37Z</time>
      </trkpt>
      <trkpt lat="29.601862523722748" lon="106.31923306714782">
        <ele>252.3458251953125</ele>
        <time>2026-08-14T23:21:07Z</time>
      </trkpt>
      <trkpt lat="29.601902216248494" lon="106.31938768271583">
        <ele>252.22601318359375</ele>
        <time>2026-08-14T23:21:19Z</time>
      </trkpt>
      <trkpt lat="29.601916489439965" lon="106.3197657471921">
        <ele>253.24444580078125</ele>
        <time>2026-08-14T23:21:49Z</time>
      </trkpt>
      <trkpt lat="29.601899191515496" lon="106.31992435591098">
        <ele>254.095947265625</ele>
        <time>2026-08-14T23:22:01Z</time>
      </trkpt>
      <trkpt lat="29.60191202162514" lon="106.32001114041809">
        <ele>254.8079833984375</ele>
        <time>2026-08-14T23:22:07Z</time>
      </trkpt>
      <trkpt lat="29.60199100312614" lon="106.3200081430576">
        <ele>255.7274169921875</ele>
        <time>2026-08-14T23:22:13Z</time>
      </trkpt>
      <trkpt lat="29.602048122956422" lon="106.3199363173115">
        <ele>255.83758544921875</ele>
        <time>2026-08-14T23:22:19Z</time>
      </trkpt>
      <trkpt lat="29.60211118373543" lon="106.31989441715422">
        <ele>253.85015869140625</ele>
        <time>2026-08-14T23:22:25Z</time>
      </trkpt>
      <trkpt lat="29.602236151165762" lon="106.31989141701794">
        <ele>257.6473388671875</ele>
        <time>2026-08-14T23:22:37Z</time>
      </trkpt>
      <trkpt lat="29.602304094116423" lon="106.31991036603206">
        <ele>253.9041748046875</ele>
        <time>2026-08-14T23:22:43Z</time>
      </trkpt>
      <trkpt lat="29.602419158062258" lon="106.31985848740806">
        <ele>253.806884765625</ele>
        <time>2026-08-14T23:22:52Z</time>
      </trkpt>
      <trkpt lat="29.602455238557706" lon="106.31981060366726">
        <ele>254.2008056640625</ele>
        <time>2026-08-14T23:22:58Z</time>
      </trkpt>
      <trkpt lat="29.602411566531007" lon="106.31964601334015">
        <ele>254.4647216796875</ele>
        <time>2026-08-14T23:23:13Z</time>
      </trkpt>
      <trkpt lat="29.60243067696502" lon="106.31958516263418">
        <ele>256.54583740234375</ele>
        <time>2026-08-14T23:23:16Z</time>
      </trkpt>
      <trkpt lat="29.60248975609347" lon="106.31953428483956">
        <ele>251.8216552734375</ele>
        <time>2026-08-14T23:23:22Z</time>
      </trkpt>
      <trkpt lat="29.602565795722313" lon="106.31950136162585">
        <ele>251.96490478515625</ele>
        <time>2026-08-14T23:23:28Z</time>
      </trkpt>
      <trkpt lat="29.602633740631717" lon="106.31951931314262">
        <ele>251.45867919921875</ele>
        <time>2026-08-14T23:23:34Z</time>
      </trkpt>
      <trkpt lat="29.602862792578577" lon="106.31945545713083">
        <ele>252.95074462890625</ele>
        <time>2026-08-14T23:23:49Z</time>
      </trkpt>
      <trkpt lat="29.6029028451319" lon="106.31942153854031">
        <ele>252.9007568359375</ele>
        <time>2026-08-14T23:23:52Z</time>
      </trkpt>
      <trkpt lat="29.602943960235788" lon="106.31935470122836">
        <ele>252.160888671875</ele>
        <time>2026-08-14T23:23:58Z</time>
      </trkpt>
      <trkpt lat="29.602955594743612" lon="106.3190205260107">
        <ele>251.9869384765625</ele>
        <time>2026-08-14T23:24:22Z</time>
      </trkpt>
      <trkpt lat="29.60294075539021" lon="106.31893872887144">
        <ele>251.9256591796875</ele>
        <time>2026-08-14T23:24:28Z</time>
      </trkpt>
      <trkpt lat="29.602921075448112" lon="106.31877413633846">
        <ele>253.46746826171875</ele>
        <time>2026-08-14T23:24:40Z</time>
      </trkpt>
      <trkpt lat="29.602958539606558" lon="106.31852474935683">
        <ele>251.34637451171875</ele>
        <time>2026-08-14T23:24:58Z</time>
      </trkpt>
      <trkpt lat="29.60293425420147" lon="106.31815366566103">
        <ele>253.55218505859375</ele>
        <time>2026-08-14T23:25:28Z</time>
      </trkpt>
      <trkpt lat="29.602962809607057" lon="106.31785739371409">
        <ele>253.43328857421875</ele>
        <time>2026-08-14T23:25:52Z</time>
      </trkpt>
      <trkpt lat="29.602957961069198" lon="106.31777858802523">
        <ele>253.93743896484375</ele>
        <time>2026-08-14T23:25:58Z</time>
      </trkpt>
      <trkpt lat="29.6029190830388" lon="106.31772073278664">
        <ele>255.67767333984375</ele>
        <time>2026-08-14T23:26:04Z</time>
      </trkpt>
      <trkpt lat="29.602905351006793" lon="106.31758207483465">
        <ele>256.210205078125</ele>
        <time>2026-08-14T23:26:16Z</time>
      </trkpt>
      <trkpt lat="29.6029038768024" lon="106.31730575451573">
        <ele>258.68878173828125</ele>
        <time>2026-08-14T23:26:40Z</time>
      </trkpt>
      <trkpt lat="29.60296039772399" lon="106.31702244731547">
        <ele>252.927490234375</ele>
        <time>2026-08-14T23:27:04Z</time>
      </trkpt>
      <trkpt lat="29.60296968274664" lon="106.31687081913329">
        <ele>252.4970703125</ele>
        <time>2026-08-14T23:27:16Z</time>
      </trkpt>
      <trkpt lat="29.60305387094925" lon="106.31675809078298">
        <ele>245.0888671875</ele>
        <time>2026-08-14T23:27:28Z</time>
      </trkpt>
      <trkpt lat="29.603077969573935" lon="106.31670222643233">
        <ele>243.14337158203125</ele>
        <time>2026-08-14T23:27:34Z</time>
      </trkpt>
      <trkpt lat="29.603066103757758" lon="106.31663339604307">
        <ele>242.80047607421875</ele>
        <time>2026-08-14T23:27:40Z</time>
      </trkpt>
      <trkpt lat="29.603021280133788" lon="106.31654760920055">
        <ele>244.46484375</ele>
        <time>2026-08-14T23:27:46Z</time>
      </trkpt>
      <trkpt lat="29.602814570220456" lon="106.31642791521908">
        <ele>248.291259765625</ele>
        <time>2026-08-14T23:28:01Z</time>
      </trkpt>
      <trkpt lat="29.602739621491974" lon="106.31641295642198">
        <ele>249.6524658203125</ele>
        <time>2026-08-14T23:28:07Z</time>
      </trkpt>
      <trkpt lat="29.602669608867586" lon="106.31643091661437">
        <ele>250.17901611328125</ele>
        <time>2026-08-14T23:28:13Z</time>
      </trkpt>
      <trkpt lat="29.602572475950655" lon="106.31651671208773">
        <ele>250.51605224609375</ele>
        <time>2026-08-14T23:28:25Z</time>
      </trkpt>
      <trkpt lat="29.602547349342068" lon="106.31658753987406">
        <ele>250.43719482421875</ele>
        <time>2026-08-14T23:28:31Z</time>
      </trkpt>
      <trkpt lat="29.6025370459601" lon="106.31674914395849">
        <ele>251.64715576171875</ele>
        <time>2026-08-14T23:28:43Z</time>
      </trkpt>
      <trkpt lat="29.60257044116085" lon="106.31706237279211">
        <ele>253.20355224609375</ele>
        <time>2026-08-14T23:29:07Z</time>
      </trkpt>
      <trkpt lat="29.602562127250962" lon="106.31722896392783">
        <ele>253.4228515625</ele>
        <time>2026-08-14T23:29:19Z</time>
      </trkpt>
      <trkpt lat="29.60250686926971" lon="106.3173736116604">
        <ele>254.10626220703125</ele>
        <time>2026-08-14T23:29:31Z</time>
      </trkpt>
      <trkpt lat="29.602456768925734" lon="106.31743446503972">
        <ele>253.04144287109375</ele>
        <time>2026-08-14T23:29:37Z</time>
      </trkpt>
      <trkpt lat="29.60232167182746" lon="106.3175072940708">
        <ele>253.4150390625</ele>
        <time>2026-08-14T23:29:49Z</time>
      </trkpt>
      <trkpt lat="29.602021670799168" lon="106.31755619190646">
        <ele>256.38427734375</ele>
        <time>2026-08-14T23:30:13Z</time>
      </trkpt>
      <trkpt lat="29.601951667601636" lon="106.31756916422104">
        <ele>256.4202880859375</ele>
        <time>2026-08-14T23:30:19Z</time>
      </trkpt>
      <trkpt lat="29.60189161392322" lon="106.31760707457454">
        <ele>257.073974609375</ele>
        <time>2026-08-14T23:30:25Z</time>
      </trkpt>
      <trkpt lat="29.60184950160175" lon="106.3176729151013">
        <ele>256.63995361328125</ele>
        <time>2026-08-14T23:30:31Z</time>
      </trkpt>
      <trkpt lat="29.601838360775577" lon="106.317748729178">
        <ele>255.59759521484375</ele>
        <time>2026-08-14T23:30:37Z</time>
      </trkpt>
      <trkpt lat="29.601867907407158" lon="106.31798215264226">
        <ele>251.452392578125</ele>
        <time>2026-08-14T23:30:55Z</time>
      </trkpt>
      <trkpt lat="29.60185633334404" lon="106.3182854061255">
        <ele>253.463623046875</ele>
        <time>2026-08-14T23:31:19Z</time>
      </trkpt>
      <trkpt lat="29.601877798168392" lon="106.31856272102388">
        <ele>253.16778564453125</ele>
        <time>2026-08-14T23:31:43Z</time>
      </trkpt>
      <trkpt lat="29.601880131474037" lon="106.31891185932616">
        <ele>252.34814453125</ele>
        <time>2026-08-14T23:32:13Z</time>
      </trkpt>
      <trkpt lat="29.601888460523835" lon="106.31926199411505">
        <ele>254.53912353515625</ele>
        <time>2026-08-14T23:32:43Z</time>
      </trkpt>
      <trkpt lat="29.601928316847054" lon="106.31933082164763">
        <ele>253.64227294921875</ele>
        <time>2026-08-14T23:32:49Z</time>
      </trkpt>
      <trkpt lat="29.601906728853866" lon="106.31964205365989">
        <ele>256.2147216796875</ele>
        <time>2026-08-14T23:33:13Z</time>
      </trkpt>
      <trkpt lat="29.60190204757635" lon="106.31999917063834">
        <ele>258.3936767578125</ele>
        <time>2026-08-14T23:33:43Z</time>
      </trkpt>
      <trkpt lat="29.601943954599367" lon="106.32004106444232">
        <ele>257.7855224609375</ele>
        <time>2026-08-14T23:33:49Z</time>
      </trkpt>
      <trkpt lat="29.602208922979887" lon="106.32001511263209">
        <ele>256.18359375</ele>
        <time>2026-08-14T23:34:13Z</time>
      </trkpt>
      <trkpt lat="29.602276596977806" lon="106.32017471356836">
        <ele>253.11297607421875</ele>
        <time>2026-08-14T23:34:28Z</time>
      </trkpt>
    </trkseg>
  </trk>
</gpx>