<?xml version="1.0" encoding="UTF-8"?>
<gpx xmlns="http://www.topografix.com/GPX/1/1" xmlns:gpxtpx="http://www.garmin.com/xmlschemas/TrackPointExtension/v1" xmlns:xsi="http://www.w3.org/2001/XMLSchema-instance" xsi:schemaLocation="http://www.topografix.com/GPX/1/1 http://www.topografix.com/GPX/1/1/gpx.xsd" version="1.1" creator="gpx.py -- https://github.com/tkrajina/gpxpy">
  <trk>
    <name>gpx from keep</name>
    <type>Walk</type>
    <trkseg>
      <trkpt lat="29.602949470103077" lon="106.31856265640513">
        <ele>263.2564697265625</ele>
        <time>2026-09-10T23:12:57Z</time>
        <extensions>
          <gpxtpx:TrackPointExtension>
            <gpxtpx:hr>140</gpxtpx:hr>
          </gpxtpx:TrackPointExtension>
        </extensions>
      </trkpt>
      <trkpt lat="29.602942675670405" lon="106.31845592006502">
        <ele>257.32073974609375</ele>
        <time>2026-09-10T23:13:03Z</time>
        <extensions>
          <gpxtpx:TrackPointExtension>
            <gpxtpx:hr>140</gpxtpx:hr>
          </gpxtpx:TrackPointExtension>
        </extensions>
      </trkpt>
      <trkpt lat="29.602903820638467" lon="106.3183860945903">
        <ele>258.6707763671875</ele>
        <time>2026-09-10T23:13:09Z</time>
        <extensions>
          <gpxtpx:TrackPointExtension>
            <gpxtpx:hr>140</gpxtpx:hr>
          </gpxtpx:TrackPointExtension>
        </extensions>
      </trkpt>
      <trkpt lat="29.602913452446582" lon="106.31805291515086">
        <ele>256.01690673828125</ele>
        <time>2026-09-10T23:13:33Z</time>
      </trkpt>
      <trkpt lat="29.602917174719984" lon="106.31767285074783">
        <ele>258.08233642578125</ele>
        <time>2026-09-10T23:14:03Z</time>
      </trkpt>
      <trkpt lat="29.60290532824596" lon="106.31759404538329">
        <ele>258.8016357421875</ele>
        <time>2026-09-10T23:14:09Z</time>
      </trkpt>
      <trkpt lat="29.602927615462576" lon="106.31743942439542">
        <ele>258.8250732421875</ele>
        <time>2026-09-10T23:14:21Z</time>
      </trkpt>
      <trkpt lat="29.60291791990544" lon="106.31728081497818">
        <ele>258.092041015625</ele>
        <time>2026-09-10T23:14:33Z</time>
      </trkpt>
      <trkpt lat="29.60294126716811" lon="106.31709427202014">
        <ele>257.9866943359375</ele>
        <time>2026-09-10T23:14:51Z</time>
      </trkpt>
      <trkpt lat="29.602927865901172" lon="106.31678104205889">
        <ele>257.1353759765625</ele>
        <time>2026-09-10T23:15:15Z</time>
      </trkpt>
      <trkpt lat="29.60289738985001" lon="106.31650970963896">
        <ele>255.741943359375</ele>
        <time>2026-09-10T23:15:39Z</time>
      </trkpt>
      <trkpt lat="29.602841584652516" lon="106.31641594294196">
        <ele>255.646240234375</ele>
        <time>2026-09-10T23:15:51Z</time>
      </trkpt>
      <trkpt lat="29.60273368758473" lon="106.31637903993172">
        <ele>254.8258056640625</ele>
        <time>2026-09-10T23:16:03Z</time>
      </trkpt>
      <trkpt lat="29.602668673435943" lon="106.31639699982772">
        <ele>254.86773681640625</ele>
        <time>2026-09-10T23:16:09Z</time>
      </trkpt>
      <trkpt lat="29.602614614343157" lon="106.31643690525175">
        <ele>255.39892578125</ele>
        <time>2026-09-10T23:16:15Z</time>
      </trkpt>
      <trkpt lat="29.60255639197463" lon="106.31656359805838">
        <ele>252.61663818359375</ele>
        <time>2026-09-10T23:16:27Z</time>
      </trkpt>
      <trkpt lat="29.60255198271445" lon="106.31678006715549">
        <ele>252.23590087890625</ele>
        <time>2026-09-10T23:16:45Z</time>
      </trkpt>
      <trkpt lat="29.602594674299016" lon="106.31693568251058">
        <ele>252.8121337890625</ele>
        <time>2026-09-10T23:16:57Z</time>
      </trkpt>
      <trkpt lat="29.602602217329625" lon="106.31717509390337">
        <ele>253.093505859375</ele>
        <time>2026-09-10T23:17:15Z</time>
      </trkpt>
      <trkpt lat="29.602581077857806" lon="106.31725190639052">
        <ele>253.435302734375</ele>
        <time>2026-09-10T23:17:21Z</time>
      </trkpt>
      <trkpt lat="29.60248986120121" lon="106.31738059551492">
        <ele>253.38092041015625</ele>
        <time>2026-09-10T23:17:33Z</time>
      </trkpt>
      <trkpt lat="29.602297707619336" lon="106.31749233232175">
        <ele>253.031494140625</ele>
        <time>2026-09-10T23:17:51Z</time>
      </trkpt>
      <trkpt lat="29.602060706258975" lon="106.3175312509055">
        <ele>256.67633056640625</ele>
        <time>2026-09-10T23:18:09Z</time>
      </trkpt>
      <trkpt lat="29.60193064938356" lon="106.31758213358214">
        <ele>258.96612548828125</ele>
        <time>2026-09-10T23:18:21Z</time>
      </trkpt>
      <trkpt lat="29.601907514168605" lon="106.31765695088289">
        <ele>257.7933349609375</ele>
        <time>2026-09-10T23:18:27Z</time>
      </trkpt>
      <trkpt lat="29.60191436593079" lon="106.31773376142779">
        <ele>255.45257568359375</ele>
        <time>2026-09-10T23:18:33Z</time>
      </trkpt>
      <trkpt lat="29.601901223795604" lon="106.31781057313836">
        <ele>253.97406005859375</ele>
        <time>2026-09-10T23:18:39Z</time>
      </trkpt>
      <trkpt lat="29.601911892015245" lon="106.31798314753382">
        <ele>250.93023681640625</ele>
        <time>2026-09-10T23:18:51Z</time>
      </trkpt>
      <trkpt lat="29.601855253838927" lon="106.31832730291164">
        <ele>254.11456298828125</ele>
        <time>2026-09-10T23:19:15Z</time>
      </trkpt>
      <trkpt lat="29.601860582784155" lon="106.31867843659582">
        <ele>253.225830078125</ele>
        <time>2026-09-10T23:19:39Z</time>
      </trkpt>
      <trkpt lat="29.60187394299746" lon="106.31901161341233">
        <ele>255.62158203125</ele>
        <time>2026-09-10T23:20:03Z</time>
      </trkpt>
      <trkpt lat="29.601862615122844" lon="106.31918518542501">
        <ele>256.0799560546875</ele>
        <time>2026-09-10T23:20:15Z</time>
      </trkpt>
      <trkpt lat="29.601917097350388" lon="106.31944753389891">
        <ele>256.941650390625</ele>
        <time>2026-09-10T23:20:33Z</time>
      </trkpt>
      <trkpt lat="29.60191639984243" lon="106.3198126312399">
        <ele>260.3115234375</ele>
        <time>2026-09-10T23:20:57Z</time>
      </trkpt>
      <trkpt lat="29.60194528990601" lon="106.31986549872356">
        <ele>255.01947021484375</ele>
        <time>2026-09-10T23:21:03Z</time>
      </trkpt>
      <trkpt lat="29.6019270494458" lon="106.31999418147075">
        <ele>252.276611328125</ele>
        <time>2026-09-10T23:21:15Z</time>
      </trkpt>
      <trkpt lat="29.602111033095976" lon="106.31997322220091">
        <ele>254.67822265625</ele>
        <time>2026-09-10T23:21:33Z</time>
      </trkpt>
      <trkpt lat="29.602189972661794" lon="106.31999217054421">
        <ele>256.1883544921875</ele>
        <time>2026-09-10T23:21:40Z</time>
      </trkpt>
      <trkpt lat="29.602202900024963" lon="106.32002808090769">
        <ele>257.177734375</ele>
        <time>2026-09-10T23:21:42Z</time>
      </trkpt>
    </trkseg>
  </trk>
</gpx>