<?xml version="1.0" encoding="UTF-8"?>
<gpx xmlns="http://www.topografix.com/GPX/1/1" xmlns:gpxtpx="http://www.garmin.com/xmlschemas/TrackPointExtension/v1" xmlns:xsi="http://www.w3.org/2001/XMLSchema-instance" xsi:schemaLocation="http://www.topografix.com/GPX/1/1 http://www.topografix.com/GPX/1/1/gpx.xsd" version="1.1" creator="gpx.py -- https://github.com/tkrajina/gpxpy">
  <trk>
    <name>gpx from keep</name>
    <type>Ride</type>
    <trkseg>
      <trkpt lat="25.778859751205804" lon="100.14722863783052">
        <ele>1935.244140625</ele>
        <time>2026-08-07T07:57:32Z</time>
      </trkpt>
      <trkpt lat="25.778795646318752" lon="100.14718956598321">
        <ele>1933.923828125</ele>
        <time>2026-08-07T07:58:44Z</time>
      </trkpt>
      <trkpt lat="25.77860182020797" lon="100.1473649009026">
        <ele>1932.8125</ele>
        <time>2026-08-07T07:59:05Z</time>
      </trkpt>
      <trkpt lat="25.778458795807037" lon="100.14740297628425">
        <ele>1932.355712890625</ele>
        <time>2026-08-07T07:59:24Z</time>
      </trkpt>
      <trkpt lat="25.778376753621302" lon="100.14740798781912">
        <ele>1933.19384765625</ele>
        <time>2026-08-07T07:59:28Z</time>
      </trkpt>
      <trkpt lat="25.777975560090432" lon="100.14744005849087">
        <ele>1933.436767578125</ele>
        <time>2026-08-07T07:59:52Z</time>
      </trkpt>
      <trkpt lat="25.777820597364904" lon="100.1475192117166">
        <ele>1935.00244140625</ele>
        <time>2026-08-07T08:00:04Z</time>
      </trkpt>
      <trkpt lat="25.7777546593251" lon="100.14758032874172">
        <ele>1936.11181640625</ele>
        <time>2026-08-07T08:00:10Z</time>
      </trkpt>
      <trkpt lat="25.777724763757536" lon="100.14765346763177">
        <ele>1937.29052734375</ele>
        <time>2026-08-07T08:00:16Z</time>
      </trkpt>
      <trkpt lat="25.777717894263553" lon="100.14773361929747">
        <ele>1937.6923828125</ele>
        <time>2026-08-07T08:00:22Z</time>
      </trkpt>
      <trkpt lat="25.7776499653524" lon="100.14780074799945">
        <ele>1937.857421875</ele>
        <time>2026-08-07T08:00:27Z</time>
      </trkpt>
      <trkpt lat="25.777315127152857" lon="100.14801917026094">
        <ele>1937.7646484375</ele>
        <time>2026-08-07T08:00:52Z</time>
      </trkpt>
      <trkpt lat="25.77726621707378" lon="100.14809030644699">
        <ele>1938.306396484375</ele>
        <time>2026-08-07T08:00:57Z</time>
      </trkpt>
      <trkpt lat="25.777253354665543" lon="100.14817647034923">
        <ele>1938.67138671875</ele>
        <time>2026-08-07T08:01:01Z</time>
      </trkpt>
      <trkpt lat="25.77720042367616" lon="100.14823658590417">
        <ele>1938.79931640625</ele>
        <time>2026-08-07T08:01:05Z</time>
      </trkpt>
      <trkpt lat="25.777128450526455" lon="100.1482786677241">
        <ele>1938.1142578125</ele>
        <time>2026-08-07T08:01:09Z</time>
      </trkpt>
      <trkpt lat="25.777033424236976" lon="100.1482977063427">
        <ele>1937.07470703125</ele>
        <time>2026-08-07T08:01:13Z</time>
      </trkpt>
      <trkpt lat="25.776778268919" lon="100.14829871475848">
        <ele>1937.28955078125</ele>
        <time>2026-08-07T08:01:24Z</time>
      </trkpt>
      <trkpt lat="25.776540174999404" lon="100.14832977990177">
        <ele>1938.171142578125</ele>
        <time>2026-08-07T08:01:36Z</time>
      </trkpt>
      <trkpt lat="25.776314263404743" lon="100.14846404119936">
        <ele>1936.798828125</ele>
        <time>2026-08-07T08:01:52Z</time>
      </trkpt>
      <trkpt lat="25.776051225667818" lon="100.14853718725978">
        <ele>1937.91748046875</ele>
        <time>2026-08-07T08:02:04Z</time>
      </trkpt>
      <trkpt lat="25.775985268396127" lon="100.14858628253403">
        <ele>1937.416748046875</ele>
        <time>2026-08-07T08:02:08Z</time>
      </trkpt>
      <trkpt lat="25.775908462737437" lon="100.1487285559694">
        <ele>1938.833984375</ele>
        <time>2026-08-07T08:02:23Z</time>
      </trkpt>
      <trkpt lat="25.775847529158895" lon="100.14878967425808">
        <ele>1937.233642578125</ele>
        <time>2026-08-07T08:02:31Z</time>
      </trkpt>
      <trkpt lat="25.775376205533277" lon="100.14876964799967">
        <ele>1936.0322265625</ele>
        <time>2026-08-07T08:02:55Z</time>
      </trkpt>
      <trkpt lat="25.77529510805138" lon="100.14874159648738">
        <ele>1935.853271484375</ele>
        <time>2026-08-07T08:03:00Z</time>
      </trkpt>
      <trkpt lat="25.77492695523761" lon="100.14878468816909">
        <ele>1936.17724609375</ele>
        <time>2026-08-07T08:03:38Z</time>
      </trkpt>
      <trkpt lat="25.774776805180288" lon="100.14875062692921">
        <ele>1935.353515625</ele>
        <time>2026-08-07T08:03:53Z</time>
      </trkpt>
      <trkpt lat="25.774700770437775" lon="100.14875764226367">
        <ele>1935.169921875</ele>
        <time>2026-08-07T08:03:58Z</time>
      </trkpt>
      <trkpt lat="25.774552834685714" lon="100.14884882025382">
        <ele>1935.46533203125</ele>
        <time>2026-08-07T08:04:05Z</time>
      </trkpt>
      <trkpt lat="25.77447982398221" lon="100.1488688604258">
        <ele>1934.760986328125</ele>
        <time>2026-08-07T08:04:08Z</time>
      </trkpt>
      <trkpt lat="25.774154506866996" lon="100.14879973658604">
        <ele>1935.737060546875</ele>
        <time>2026-08-07T08:04:22Z</time>
      </trkpt>
      <trkpt lat="25.773753230195037" lon="100.14878171236516">
        <ele>1936.2236328125</ele>
        <time>2026-08-07T08:04:40Z</time>
      </trkpt>
      <trkpt lat="25.773679275160397" lon="100.14883481572252">
        <ele>1936.2998046875</ele>
        <time>2026-08-07T08:04:45Z</time>
      </trkpt>
      <trkpt lat="25.773645402719673" lon="100.14892198326389">
        <ele>1936.706298828125</ele>
        <time>2026-08-07T08:04:49Z</time>
      </trkpt>
      <trkpt lat="25.7735824579769" lon="100.1489770903115">
        <ele>1935.65283203125</ele>
        <time>2026-08-07T08:04:53Z</time>
      </trkpt>
      <trkpt lat="25.773170085936755" lon="100.14890696663925">
        <ele>1934.997314453125</ele>
        <time>2026-08-07T08:05:12Z</time>
      </trkpt>
      <trkpt lat="25.773083030916542" lon="100.14890596694319">
        <ele>1935.7509765625</ele>
        <time>2026-08-07T08:05:16Z</time>
      </trkpt>
      <trkpt lat="25.772989041585888" lon="100.14894604600804">
        <ele>1935.478515625</ele>
        <time>2026-08-07T08:05:21Z</time>
      </trkpt>
      <trkpt lat="25.772931117041125" lon="100.14901117213267">
        <ele>1935.318603515625</ele>
        <time>2026-08-07T08:05:28Z</time>
      </trkpt>
      <trkpt lat="25.772898219850354" lon="100.14908331113239">
        <ele>1935.850830078125</ele>
        <time>2026-08-07T08:05:34Z</time>
      </trkpt>
      <trkpt lat="25.77278133459256" lon="100.14919252345206">
        <ele>1935.394287109375</ele>
        <time>2026-08-07T08:05:45Z</time>
      </trkpt>
      <trkpt lat="25.772701331799162" lon="100.14921957737991">
        <ele>1935.032470703125</ele>
        <time>2026-08-07T08:05:52Z</time>
      </trkpt>
      <trkpt lat="25.772550247883352" lon="100.14922459084272">
        <ele>1935.30810546875</ele>
        <time>2026-08-07T08:06:02Z</time>
      </trkpt>
      <trkpt lat="25.77222418357251" lon="100.14930375105897">
        <ele>1936.384765625</ele>
        <time>2026-08-07T08:06:21Z</time>
      </trkpt>
      <trkpt lat="25.772155223582313" lon="100.1493518451669">
        <ele>1935.63037109375</ele>
        <time>2026-08-07T08:06:26Z</time>
      </trkpt>
      <trkpt lat="25.77199019117098" lon="100.14939192636422">
        <ele>1936.5068359375</ele>
        <time>2026-08-07T08:06:34Z</time>
      </trkpt>
      <trkpt lat="25.771922218154046" lon="100.14943200511539">
        <ele>1936.74951171875</ele>
        <time>2026-08-07T08:06:37Z</time>
      </trkpt>
      <trkpt lat="25.77187028241067" lon="100.14948811431289">
        <ele>1936.657958984375</ele>
        <time>2026-08-07T08:06:40Z</time>
      </trkpt>
      <trkpt lat="25.771764598928183" lon="100.14971054519657">
        <ele>1936.89208984375</ele>
        <time>2026-08-07T08:06:49Z</time>
      </trkpt>
      <trkpt lat="25.771666781619654" lon="100.14985182010004">
        <ele>1936.455078125</ele>
        <time>2026-08-07T08:06:59Z</time>
      </trkpt>
      <trkpt lat="25.77128718748551" lon="100.1502225462589">
        <ele>1936.44287109375</ele>
        <time>2026-08-07T08:07:18Z</time>
      </trkpt>
      <trkpt lat="25.770930330768216" lon="100.15043196111226">
        <ele>1934.2958984375</ele>
        <time>2026-08-07T08:07:35Z</time>
      </trkpt>
      <trkpt lat="25.770682288346816" lon="100.1504950898887">
        <ele>1937.09814453125</ele>
        <time>2026-08-07T08:07:50Z</time>
      </trkpt>
      <trkpt lat="25.770375142423358" lon="100.15051914438193">
        <ele>1935.6826171875</ele>
        <time>2026-08-07T08:08:11Z</time>
      </trkpt>
      <trkpt lat="25.770234940891598" lon="100.15045201769789">
        <ele>1935.323974609375</ele>
        <time>2026-08-07T08:08:17Z</time>
      </trkpt>
      <trkpt lat="25.770179817293602" lon="100.15039991806081">
        <ele>1935.75927734375</ele>
        <time>2026-08-07T08:08:20Z</time>
      </trkpt>
      <trkpt lat="25.77014466616555" lon="100.15032477330479">
        <ele>1936.313720703125</ele>
        <time>2026-08-07T08:08:24Z</time>
      </trkpt>
      <trkpt lat="25.770174385503594" lon="100.15015143694572">
        <ele>1936.32568359375</ele>
        <time>2026-08-07T08:08:34Z</time>
      </trkpt>
      <trkpt lat="25.77015806861948" lon="100.14997309260002">
        <ele>1935.107666015625</ele>
        <time>2026-08-07T08:11:32Z</time>
      </trkpt>
      <trkpt lat="25.77018391562322" lon="100.1498749023641">
        <ele>1935.00341796875</ele>
        <time>2026-08-07T08:11:36Z</time>
      </trkpt>
      <trkpt lat="25.770177624553757" lon="100.14970757985728">
        <ele>1935.69189453125</ele>
        <time>2026-08-07T08:12:06Z</time>
      </trkpt>
      <trkpt lat="25.77019234847723" lon="100.14954125923465">
        <ele>1935.812255859375</ele>
        <time>2026-08-07T08:12:15Z</time>
      </trkpt>
      <trkpt lat="25.77017002455598" lon="100.14935991117713">
        <ele>1935.825439453125</ele>
        <time>2026-08-07T08:12:25Z</time>
      </trkpt>
      <trkpt lat="25.770119855260337" lon="100.14927875663106">
        <ele>1935.958984375</ele>
        <time>2026-08-07T08:12:30Z</time>
      </trkpt>
      <trkpt lat="25.769998594832344" lon="100.14916955021887">
        <ele>1935.802490234375</ele>
        <time>2026-08-07T08:12:46Z</time>
      </trkpt>
      <trkpt lat="25.76974534466609" lon="100.14911344912491">
        <ele>1936.478271484375</ele>
        <time>2026-08-07T08:12:58Z</time>
      </trkpt>
      <trkpt lat="25.769575304228475" lon="100.1491505245149">
        <ele>1937.1298828125</ele>
        <time>2026-08-07T08:13:06Z</time>
      </trkpt>
      <trkpt lat="25.769496329604735" lon="100.14919360913619">
        <ele>1935.99267578125</ele>
        <time>2026-08-07T08:13:10Z</time>
      </trkpt>
      <trkpt lat="25.769407300992295" lon="100.14920864023063">
        <ele>1935.80078125</ele>
        <time>2026-08-07T08:13:14Z</time>
      </trkpt>
      <trkpt lat="25.769337220656485" lon="100.149186599743">
        <ele>1935.782958984375</ele>
        <time>2026-08-07T08:13:17Z</time>
      </trkpt>
      <trkpt lat="25.769200001999767" lon="100.14910745151033">
        <ele>1934.90380859375</ele>
        <time>2026-08-07T08:13:23Z</time>
      </trkpt>
      <trkpt lat="25.769050596860584" lon="100.1489231023605">
        <ele>1934.8525390625</ele>
        <time>2026-08-07T08:13:32Z</time>
      </trkpt>
      <trkpt lat="25.768933348148707" lon="100.14881890612556">
        <ele>1934.361328125</ele>
        <time>2026-08-07T08:13:38Z</time>
      </trkpt>
      <trkpt lat="25.768856055899274" lon="100.14867463257552">
        <ele>1935.377197265625</ele>
        <time>2026-08-07T08:13:44Z</time>
      </trkpt>
      <trkpt lat="25.76879971901944" lon="100.14849629396834">
        <ele>1935.90283203125</ele>
        <time>2026-08-07T08:13:50Z</time>
      </trkpt>
      <trkpt lat="25.768506280707946" lon="100.14834300964085">
        <ele>1935.302001953125</ele>
        <time>2026-08-07T08:14:02Z</time>
      </trkpt>
      <trkpt lat="25.768441159693936" lon="100.14829491984362">
        <ele>1935.93017578125</ele>
        <time>2026-08-07T08:14:05Z</time>
      </trkpt>
      <trkpt lat="25.768380990926264" lon="100.14821677285117">
        <ele>1936.6962890625</ele>
        <time>2026-08-07T08:14:09Z</time>
      </trkpt>
      <trkpt lat="25.7683198758475" lon="100.1481706868711">
        <ele>1936.92822265625</ele>
        <time>2026-08-07T08:14:12Z</time>
      </trkpt>
      <trkpt lat="25.767915389547557" lon="100.14802842721429">
        <ele>1934.7548828125</ele>
        <time>2026-08-07T08:14:28Z</time>
      </trkpt>
      <trkpt lat="25.767719823324246" lon="100.14776292940506">
        <ele>1933.953125</ele>
        <time>2026-08-07T08:14:40Z</time>
      </trkpt>
      <trkpt lat="25.767473478136182" lon="100.14764671602315">
        <ele>1931.25341796875</ele>
        <time>2026-08-07T08:14:52Z</time>
      </trkpt>
      <trkpt lat="25.76722126086628" lon="100.1476086505559">
        <ele>1932.74755859375</ele>
        <time>2026-08-07T08:15:03Z</time>
      </trkpt>
      <trkpt lat="25.76707206254035" lon="100.14754453332614">
        <ele>1934.41064453125</ele>
        <time>2026-08-07T08:15:12Z</time>
      </trkpt>
      <trkpt lat="25.766999907752997" lon="100.14747841043143">
        <ele>1934.475830078125</ele>
        <time>2026-08-07T08:15:16Z</time>
      </trkpt>
      <trkpt lat="25.76678334492677" lon="100.14722093105553">
        <ele>1933.29150390625</ele>
        <time>2026-08-07T08:15:29Z</time>
      </trkpt>
      <trkpt lat="25.766490870987717" lon="100.14704360531724">
        <ele>1933.076171875</ele>
        <time>2026-08-07T08:15:43Z</time>
      </trkpt>
      <trkpt lat="25.766263549118076" lon="100.14693340435781">
        <ele>1934.9501953125</ele>
        <time>2026-08-07T08:15:55Z</time>
      </trkpt>
      <trkpt lat="25.766194413636242" lon="100.14687730095463">
        <ele>1934.6728515625</ele>
        <time>2026-08-07T08:16:00Z</time>
      </trkpt>
      <trkpt lat="25.766013730786632" lon="100.14653266091607">
        <ele>1933.416259765625</ele>
        <time>2026-08-07T08:16:15Z</time>
      </trkpt>
      <trkpt lat="25.76587742872378" lon="100.1464004176654">
        <ele>1933.96337890625</ele>
        <time>2026-08-07T08:16:23Z</time>
      </trkpt>
      <trkpt lat="25.765802300139974" lon="100.14635032621783">
        <ele>1933.834228515625</ele>
        <time>2026-08-07T08:16:27Z</time>
      </trkpt>
      <trkpt lat="25.765622124482285" lon="100.14631025616289">
        <ele>1934.14013671875</ele>
        <time>2026-08-07T08:16:34Z</time>
      </trkpt>
      <trkpt lat="25.765539082416304" lon="100.14631526761373">
        <ele>1934.193115234375</ele>
        <time>2026-08-07T08:16:38Z</time>
      </trkpt>
      <trkpt lat="25.765468080842815" lon="100.14634031608553">
        <ele>1935.19091796875</ele>
        <time>2026-08-07T08:16:43Z</time>
      </trkpt>
      <trkpt lat="25.76533219274047" lon="100.14645753808736">
        <ele>1932.139892578125</ele>
        <time>2026-08-07T08:16:58Z</time>
      </trkpt>
      <trkpt lat="25.765274282311815" lon="100.1465326797969">
        <ele>1931.586181640625</ele>
        <time>2026-08-07T08:17:02Z</time>
      </trkpt>
      <trkpt lat="25.765185952295276" lon="100.14696749574863">
        <ele>1934.689208984375</ele>
        <time>2026-08-07T08:17:21Z</time>
      </trkpt>
      <trkpt lat="25.7651021641038" lon="100.14712479317019">
        <ele>1935.42333984375</ele>
        <time>2026-08-07T08:17:28Z</time>
      </trkpt>
      <trkpt lat="25.76499027048891" lon="100.14722899189603">
        <ele>1935.5771484375</ele>
        <time>2026-08-07T08:17:34Z</time>
      </trkpt>
      <trkpt lat="25.764549317071857" lon="100.14741635587345">
        <ele>1935.12255859375</ele>
        <time>2026-08-07T08:17:53Z</time>
      </trkpt>
      <trkpt lat="25.764238259769037" lon="100.1474945111386">
        <ele>1936.218017578125</ele>
        <time>2026-08-07T08:18:05Z</time>
      </trkpt>
      <trkpt lat="25.763913089859344" lon="100.1475105496719">
        <ele>1937.0048828125</ele>
        <time>2026-08-07T08:18:18Z</time>
      </trkpt>
      <trkpt lat="25.76382207177352" lon="100.14753259357643">
        <ele>1936.86572265625</ele>
        <time>2026-08-07T08:18:22Z</time>
      </trkpt>
      <trkpt lat="25.76375013589712" lon="100.14759671643115">
        <ele>1936.83154296875</ele>
        <time>2026-08-07T08:18:26Z</time>
      </trkpt>
      <trkpt lat="25.763722248633645" lon="100.14767386284906">
        <ele>1936.6435546875</ele>
        <time>2026-08-07T08:18:29Z</time>
      </trkpt>
      <trkpt lat="25.76378217984478" lon="100.14820486732356">
        <ele>1937.8359375</ele>
        <time>2026-08-07T08:18:48Z</time>
      </trkpt>
      <trkpt lat="25.76372126156183" lon="100.1482750021452">
        <ele>1936.267822265625</ele>
        <time>2026-08-07T08:18:53Z</time>
      </trkpt>
      <trkpt lat="25.76327521733051" lon="100.14840826698405">
        <ele>1934.794921875</ele>
        <time>2026-08-07T08:19:17Z</time>
      </trkpt>
      <trkpt lat="25.763100145437104" lon="100.1484283095923">
        <ele>1933.59814453125</ele>
        <time>2026-08-07T08:19:27Z</time>
      </trkpt>
      <trkpt lat="25.76294899809121" lon="100.14839525051488">
        <ele>1934.402099609375</ele>
        <time>2026-08-07T08:19:35Z</time>
      </trkpt>
      <trkpt lat="25.762810758548394" lon="100.14830307870115">
        <ele>1933.309814453125</ele>
        <time>2026-08-07T08:19:45Z</time>
      </trkpt>
      <trkpt lat="25.762687485881052" lon="100.14818585908958">
        <ele>1932.5205078125</ele>
        <time>2026-08-07T08:19:55Z</time>
      </trkpt>
      <trkpt lat="25.76240802109323" lon="100.14801053352058">
        <ele>1935.31298828125</ele>
        <time>2026-08-07T08:20:12Z</time>
      </trkpt>
      <trkpt lat="25.762319930728086" lon="100.14798849398413">
        <ele>1935.44091796875</ele>
        <time>2026-08-07T08:20:16Z</time>
      </trkpt>
      <trkpt lat="25.7622398925404" lon="100.14799450742046">
        <ele>1934.841064453125</ele>
        <time>2026-08-07T08:20:19Z</time>
      </trkpt>
      <trkpt lat="25.761842992940508" lon="100.14819589965846">
        <ele>1932.94384765625</ele>
        <time>2026-08-07T08:20:34Z</time>
      </trkpt>
      <trkpt lat="25.76143207893707" lon="100.14839328538815">
        <ele>1932.5517578125</ele>
        <time>2026-08-07T08:20:49Z</time>
      </trkpt>
      <trkpt lat="25.76103914768696" lon="100.14857363891088">
        <ele>1931.79296875</ele>
        <time>2026-08-07T08:21:04Z</time>
      </trkpt>
      <trkpt lat="25.76081020017556" lon="100.14868585878739">
        <ele>1932.313720703125</ele>
        <time>2026-08-07T08:21:14Z</time>
      </trkpt>
      <trkpt lat="25.76048213190335" lon="100.14876201252459">
        <ele>1932.509765625</ele>
        <time>2026-08-07T08:21:29Z</time>
      </trkpt>
      <trkpt lat="25.760319170045147" lon="100.14884216981771">
        <ele>1932.92724609375</ele>
        <time>2026-08-07T08:21:38Z</time>
      </trkpt>
      <trkpt lat="25.760239217365697" lon="100.14889827912273">
        <ele>1932.8271484375</ele>
        <time>2026-08-07T08:21:42Z</time>
      </trkpt>
      <trkpt lat="25.760060439148297" lon="100.14909165380598">
        <ele>1932.47216796875</ele>
        <time>2026-08-07T08:21:51Z</time>
      </trkpt>
      <trkpt lat="25.75993876100236" lon="100.1493231007959">
        <ele>1933.93212890625</ele>
        <time>2026-08-07T08:22:01Z</time>
      </trkpt>
      <trkpt lat="25.7598830565419" lon="100.14951547189153">
        <ele>1933.422119140625</ele>
        <time>2026-08-07T08:22:09Z</time>
      </trkpt>
      <trkpt lat="25.759793263447378" lon="100.14966776730554">
        <ele>1933.82568359375</ele>
        <time>2026-08-07T08:22:17Z</time>
      </trkpt>
      <trkpt lat="25.759549493411654" lon="100.14988719656637">
        <ele>1936.205322265625</ele>
        <time>2026-08-07T08:24:32Z</time>
      </trkpt>
      <trkpt lat="25.759478497194337" lon="100.14991425059024">
        <ele>1937.0048828125</ele>
        <time>2026-08-07T08:24:38Z</time>
      </trkpt>
      <trkpt lat="25.759427340766024" lon="100.14984111074925">
        <ele>1936.53857421875</ele>
        <time>2026-08-07T08:24:46Z</time>
      </trkpt>
      <trkpt lat="25.759589522655837" lon="100.1498902013475">
        <ele>1936.27197265625</ele>
        <time>2026-08-07T08:25:31Z</time>
      </trkpt>
      <trkpt lat="25.759656487207632" lon="100.14984611457515">
        <ele>1939.94580078125</ele>
        <time>2026-08-07T08:25:41Z</time>
      </trkpt>
      <trkpt lat="25.75957649588312" lon="100.14987918040971">
        <ele>1938.9228515625</ele>
        <time>2026-08-07T08:26:55Z</time>
      </trkpt>
      <trkpt lat="25.759460607011018" lon="100.14998438647748">
        <ele>1937.692626953125</ele>
        <time>2026-08-07T08:27:03Z</time>
      </trkpt>
      <trkpt lat="25.759413716708416" lon="100.1500645425553">
        <ele>1938.29638671875</ele>
        <time>2026-08-07T08:27:07Z</time>
      </trkpt>
      <trkpt lat="25.759387839147312" lon="100.15014469820875">
        <ele>1938.1142578125</ele>
        <time>2026-08-07T08:27:11Z</time>
      </trkpt>
      <trkpt lat="25.75938201001536" lon="100.15024589419528">
        <ele>1936.91064453125</ele>
        <time>2026-08-07T08:27:15Z</time>
      </trkpt>
      <trkpt lat="25.759402189772256" lon="100.15034308192848">
        <ele>1936.838134765625</ele>
        <time>2026-08-07T08:27:18Z</time>
      </trkpt>
      <trkpt lat="25.759576212926287" lon="100.15087410888819">
        <ele>1933.57958984375</ele>
        <time>2026-08-07T08:27:38Z</time>
      </trkpt>
      <trkpt lat="25.75961251463977" lon="100.15103542220666">
        <ele>1933.88330078125</ele>
        <time>2026-08-07T08:27:44Z</time>
      </trkpt>
      <trkpt lat="25.75957062517562" lon="100.15111357566938">
        <ele>1935.943359375</ele>
        <time>2026-08-07T08:27:48Z</time>
      </trkpt>
      <trkpt lat="25.75938961729596" lon="100.15117169366292">
        <ele>1933.70703125</ele>
        <time>2026-08-07T08:27:56Z</time>
      </trkpt>
      <trkpt lat="25.759316583826358" lon="100.15117770725492">
        <ele>1932.32470703125</ele>
        <time>2026-08-07T08:27:58Z</time>
      </trkpt>
      <trkpt lat="25.759238503785646" lon="100.15115867209146">
        <ele>1931.0380859375</ele>
        <time>2026-08-07T08:28:00Z</time>
      </trkpt>
      <trkpt lat="25.759097029021902" lon="100.15093423814834">
        <ele>1929.22021484375</ele>
        <time>2026-08-07T08:28:06Z</time>
      </trkpt>
      <trkpt lat="25.75897879116704" lon="100.1508380538946">
        <ele>1926.55615234375</ele>
        <time>2026-08-07T08:28:10Z</time>
      </trkpt>
      <trkpt lat="25.758895829889976" lon="100.15088915547214">
        <ele>1927.5224609375</ele>
        <time>2026-08-07T08:28:13Z</time>
      </trkpt>
      <trkpt lat="25.75866707502157" lon="100.1511095908561">
        <ele>1932.53173828125</ele>
        <time>2026-08-07T08:28:30Z</time>
      </trkpt>
      <trkpt lat="25.75862919505501" lon="100.15119175213329">
        <ele>1934.056640625</ele>
        <time>2026-08-07T08:29:00Z</time>
      </trkpt>
      <trkpt lat="25.75823738173195" lon="100.15143423586618">
        <ele>1932.2685546875</ele>
        <time>2026-08-07T08:29:20Z</time>
      </trkpt>
      <trkpt lat="25.75809944385556" lon="100.15151740208344">
        <ele>1931.5693359375</ele>
        <time>2026-08-07T08:29:27Z</time>
      </trkpt>
      <trkpt lat="25.757790820136307" lon="100.15183904023986">
        <ele>1932.313232421875</ele>
        <time>2026-08-07T08:29:42Z</time>
      </trkpt>
      <trkpt lat="25.757747964399925" lon="100.15193623211793">
        <ele>1933.07763671875</ele>
        <time>2026-08-07T08:29:45Z</time>
      </trkpt>
      <trkpt lat="25.75773630128539" lon="100.1521326183756">
        <ele>1935.44677734375</ele>
        <time>2026-08-07T08:29:51Z</time>
      </trkpt>
      <trkpt lat="25.757715427524737" lon="100.15221177464244">
        <ele>1935.149658203125</ele>
        <time>2026-08-07T08:29:54Z</time>
      </trkpt>
      <trkpt lat="25.757656483546643" lon="100.1522638787046">
        <ele>1935.73828125</ele>
        <time>2026-08-07T08:29:57Z</time>
      </trkpt>
      <trkpt lat="25.757567461783395" lon="100.15228191648157">
        <ele>1935.2158203125</ele>
        <time>2026-08-07T08:30:01Z</time>
      </trkpt>
      <trkpt lat="25.757475403045706" lon="100.15227991487755">
        <ele>1933.76611328125</ele>
        <time>2026-08-07T08:30:05Z</time>
      </trkpt>
      <trkpt lat="25.757004447899885" lon="100.15246629410326">
        <ele>1932.7275390625</ele>
        <time>2026-08-07T08:30:25Z</time>
      </trkpt>
      <trkpt lat="25.75685645429819" lon="100.15252040458661">
        <ele>1932.729736328125</ele>
        <time>2026-08-07T08:30:31Z</time>
      </trkpt>
      <trkpt lat="25.756715554900403" lon="100.15262561580651">
        <ele>1935.26416015625</ele>
        <time>2026-08-07T08:30:37Z</time>
      </trkpt>
      <trkpt lat="25.75663756635965" lon="100.15265868308173">
        <ele>1934.68994140625</ele>
        <time>2026-08-07T08:30:40Z</time>
      </trkpt>
      <trkpt lat="25.756556501924905" lon="100.1526496673351">
        <ele>1932.78076171875</ele>
        <time>2026-08-07T08:30:43Z</time>
      </trkpt>
      <trkpt lat="25.756483398189726" lon="100.15261560192927">
        <ele>1931.876953125</ele>
        <time>2026-08-07T08:30:46Z</time>
      </trkpt>
      <trkpt lat="25.75634708926164" lon="100.15248635034467">
        <ele>1931.31787109375</ele>
        <time>2026-08-07T08:30:54Z</time>
      </trkpt>
      <trkpt lat="25.756271961520117" lon="100.15243925939319">
        <ele>1931.18505859375</ele>
        <time>2026-08-07T08:30:58Z</time>
      </trkpt>
      <trkpt lat="25.756090840754283" lon="100.15243225017271">
        <ele>1930.959716796875</ele>
        <time>2026-08-07T08:31:06Z</time>
      </trkpt>
      <trkpt lat="25.756006730563712" lon="100.15239818516005">
        <ele>1930.878173828125</ele>
        <time>2026-08-07T08:31:10Z</time>
      </trkpt>
      <trkpt lat="25.755800327410263" lon="100.15223887661232">
        <ele>1930.41162109375</ele>
        <time>2026-08-07T08:31:21Z</time>
      </trkpt>
      <trkpt lat="25.755646108631865" lon="100.15216673856737">
        <ele>1930.20703125</ele>
        <time>2026-08-07T08:31:28Z</time>
      </trkpt>
      <trkpt lat="25.755480964176254" lon="100.15214069152239">
        <ele>1929.6904296875</ele>
        <time>2026-08-07T08:31:36Z</time>
      </trkpt>
      <trkpt lat="25.755047856263694" lon="100.15222687208806">
        <ele>1929.81298828125</ele>
        <time>2026-08-07T08:31:54Z</time>
      </trkpt>
      <trkpt lat="25.754606692810643" lon="100.15228399574806">
        <ele>1930.1484375</ele>
        <time>2026-08-07T08:32:14Z</time>
      </trkpt>
      <trkpt lat="25.754148642646424" lon="100.15241125809744">
        <ele>1932.422607421875</ele>
        <time>2026-08-07T08:32:37Z</time>
      </trkpt>
      <trkpt lat="25.75406953734968" lon="100.15237819494384">
        <ele>1931.16064453125</ele>
        <time>2026-08-07T08:32:42Z</time>
      </trkpt>
      <trkpt lat="25.75400340112059" lon="100.1523230880539">
        <ele>1931.4345703125</ele>
        <time>2026-08-07T08:32:46Z</time>
      </trkpt>
      <trkpt lat="25.75382258387201" lon="100.15191829658372">
        <ele>1934.05712890625</ele>
        <time>2026-08-07T08:33:03Z</time>
      </trkpt>
      <trkpt lat="25.753753447984902" lon="100.15186419213151">
        <ele>1933.05126953125</ele>
        <time>2026-08-07T08:33:07Z</time>
      </trkpt>
      <trkpt lat="25.75367837691289" lon="100.1518491645467">
        <ele>1931.92578125</ele>
        <time>2026-08-07T08:33:11Z</time>
      </trkpt>
      <trkpt lat="25.753377372612714" lon="100.15194936890508">
        <ele>1931.15771484375</ele>
        <time>2026-08-07T08:33:28Z</time>
      </trkpt>
      <trkpt lat="25.753336463964136" lon="100.15201549985396">
        <ele>1935.5146484375</ele>
        <time>2026-08-07T08:36:59Z</time>
      </trkpt>
      <trkpt lat="25.753259454884017" lon="100.15203654316191">
        <ele>1935.2841796875</ele>
        <time>2026-08-07T08:37:43Z</time>
      </trkpt>
      <trkpt lat="25.753186409575314" lon="100.15203554305111">
        <ele>1934.53564453125</ele>
        <time>2026-08-07T08:37:47Z</time>
      </trkpt>
      <trkpt lat="25.752823851605385" lon="100.15184016859409">
        <ele>1932.42041015625</ele>
        <time>2026-08-07T08:38:08Z</time>
      </trkpt>
      <trkpt lat="25.752657651000902" lon="100.15178205881861">
        <ele>1932.314697265625</ele>
        <time>2026-08-07T08:38:16Z</time>
      </trkpt>
      <trkpt lat="25.75240245522002" lon="100.15175701618875">
        <ele>1932.90087890625</ele>
        <time>2026-08-07T08:38:28Z</time>
      </trkpt>
      <trkpt lat="25.752242382653346" lon="100.15177004580453">
        <ele>1933.533935546875</ele>
        <time>2026-08-07T08:38:36Z</time>
      </trkpt>
      <trkpt lat="25.752082381950537" lon="100.15182415600503">
        <ele>1933.377197265625</ele>
        <time>2026-08-07T08:38:45Z</time>
      </trkpt>
      <trkpt lat="25.751829483787848" lon="100.15196844567666">
        <ele>1933.71044921875</ele>
        <time>2026-08-07T08:38:57Z</time>
      </trkpt>
      <trkpt lat="25.75144176930384" lon="100.15226303482547">
        <ele>1935.59716796875</ele>
        <time>2026-08-07T08:39:15Z</time>
      </trkpt>
      <trkpt lat="25.751078015819655" lon="100.15252656341615">
        <ele>1935.17578125</ele>
        <time>2026-08-07T08:39:34Z</time>
      </trkpt>
      <trkpt lat="25.750796200930072" lon="100.15272696622436">
        <ele>1934.8388671875</ele>
        <time>2026-08-07T08:39:48Z</time>
      </trkpt>
      <trkpt lat="25.750644476317824" lon="100.15293438020682">
        <ele>1935.030517578125</ele>
        <time>2026-08-07T08:39:57Z</time>
      </trkpt>
      <trkpt lat="25.75058188139236" lon="100.15318487796942">
        <ele>1936.979736328125</ele>
        <time>2026-08-07T08:40:06Z</time>
      </trkpt>
      <trkpt lat="25.75060185855756" lon="100.1537299602903">
        <ele>1935.95068359375</ele>
        <time>2026-08-07T08:40:26Z</time>
      </trkpt>
      <trkpt lat="25.750490388747128" lon="100.15406563204512">
        <ele>1938.746826171875</ele>
        <time>2026-08-07T08:40:39Z</time>
      </trkpt>
      <trkpt lat="25.75045149045112" lon="100.15413577300717">
        <ele>1938.602294921875</ele>
        <time>2026-08-07T08:40:42Z</time>
      </trkpt>
      <trkpt lat="25.750183711603405" lon="100.15434920614756">
        <ele>1938.8779296875</ele>
        <time>2026-08-07T08:40:54Z</time>
      </trkpt>
      <trkpt lat="25.750099740357093" lon="100.1543932964281">
        <ele>1938.7119140625</ele>
        <time>2026-08-07T08:40:58Z</time>
      </trkpt>
      <trkpt lat="25.74999693138656" lon="100.1545345816901">
        <ele>1939.25634765625</ele>
        <time>2026-08-07T08:41:05Z</time>
      </trkpt>
      <trkpt lat="25.74994721506225" lon="100.15470993413487">
        <ele>1938.463134765625</ele>
        <time>2026-08-07T08:41:15Z</time>
      </trkpt>
      <trkpt lat="25.7498782744488" lon="100.15476604835091">
        <ele>1937.600341796875</ele>
        <time>2026-08-07T08:41:20Z</time>
      </trkpt>
      <trkpt lat="25.74980525082337" lon="100.1547770723017">
        <ele>1936.00341796875</ele>
        <time>2026-08-07T08:41:24Z</time>
      </trkpt>
      <trkpt lat="25.749723128654857" lon="100.1547359920366">
        <ele>1934.4208984375</ele>
        <time>2026-08-07T08:41:28Z</time>
      </trkpt>
      <trkpt lat="25.749668002833207" lon="100.15468388902433">
        <ele>1933.701171875</ele>
        <time>2026-08-07T08:41:31Z</time>
      </trkpt>
      <trkpt lat="25.749565670135343" lon="100.15453158662723">
        <ele>1934.120361328125</ele>
        <time>2026-08-07T08:41:39Z</time>
      </trkpt>
      <trkpt lat="25.749495569543882" lon="100.15449852223286">
        <ele>1933.0068359375</ele>
        <time>2026-08-07T08:41:44Z</time>
      </trkpt>
      <trkpt lat="25.749422608537007" lon="100.15454461633384">
        <ele>1932.40478515625</ele>
        <time>2026-08-07T08:41:49Z</time>
      </trkpt>
      <trkpt lat="25.749240790651395" lon="100.15470694605187">
        <ele>1933.17041015625</ele>
        <time>2026-08-07T08:42:00Z</time>
      </trkpt>
      <trkpt lat="25.749102888030002" lon="100.15480715040891">
        <ele>1933.12109375</ele>
        <time>2026-08-07T08:42:09Z</time>
      </trkpt>
      <trkpt lat="25.749060990453625" lon="100.15487829416077">
        <ele>1933.0263671875</ele>
        <time>2026-08-07T08:42:13Z</time>
      </trkpt>
      <trkpt lat="25.74904915560563" lon="100.1549744874977">
        <ele>1934.27880859375</ele>
        <time>2026-08-07T08:42:17Z</time>
      </trkpt>
      <trkpt lat="25.74908349368859" lon="100.15515184285483">
        <ele>1934.52197265625</ele>
        <time>2026-08-07T08:42:25Z</time>
      </trkpt>
      <trkpt lat="25.749058629871715" lon="100.15523601268715">
        <ele>1935.47314453125</ele>
        <time>2026-08-07T08:42:29Z</time>
      </trkpt>
      <trkpt lat="25.748919667952418" lon="100.15530315123851">
        <ele>1935.6806640625</ele>
        <time>2026-08-07T08:42:48Z</time>
      </trkpt>
      <trkpt lat="25.748854924620094" lon="100.15546748363104">
        <ele>1934.87939453125</ele>
        <time>2026-08-07T08:42:58Z</time>
      </trkpt>
      <trkpt lat="25.748848089819536" lon="100.15556167353517">
        <ele>1934.11328125</ele>
        <time>2026-08-07T08:43:02Z</time>
      </trkpt>
      <trkpt lat="25.74893458449848" lon="100.15580816839791">
        <ele>1933.580078125</ele>
        <time>2026-08-07T08:43:15Z</time>
      </trkpt>
      <trkpt lat="25.748951778754765" lon="100.15591037428099">
        <ele>1934.7529296875</ele>
        <time>2026-08-07T08:43:21Z</time>
      </trkpt>
      <trkpt lat="25.748891880484795" lon="100.155986529613">
        <ele>1934.8857421875</ele>
        <time>2026-08-07T08:43:24Z</time>
      </trkpt>
      <trkpt lat="25.748523307621888" lon="100.15634426242127">
        <ele>1935.41552734375</ele>
        <time>2026-08-07T08:43:37Z</time>
      </trkpt>
      <trkpt lat="25.74835151739529" lon="100.15651661588359">
        <ele>1936.3251953125</ele>
        <time>2026-08-07T08:43:44Z</time>
      </trkpt>
      <trkpt lat="25.748278559376143" lon="100.15656371319022">
        <ele>1935.24560546875</ele>
        <time>2026-08-07T08:43:48Z</time>
      </trkpt>
      <trkpt lat="25.747880548643007" lon="100.1566879752516">
        <ele>1931.903076171875</ele>
        <time>2026-08-07T08:44:05Z</time>
      </trkpt>
      <trkpt lat="25.74746027645772" lon="100.15667495948708">
        <ele>1932.067138671875</ele>
        <time>2026-08-07T08:44:26Z</time>
      </trkpt>
      <trkpt lat="25.74737719468351" lon="100.15665692501037">
        <ele>1932.15771484375</ele>
        <time>2026-08-07T08:44:31Z</time>
      </trkpt>
      <trkpt lat="25.747220132658864" lon="100.15667396354543">
        <ele>1933.9287109375</ele>
        <time>2026-08-07T08:44:46Z</time>
      </trkpt>
      <trkpt lat="25.74713613198129" lon="100.15670102055861">
        <ele>1934.03564453125</ele>
        <time>2026-08-07T08:44:50Z</time>
      </trkpt>
      <trkpt lat="25.746802523175624" lon="100.15702568827064">
        <ele>1934.4833984375</ele>
        <time>2026-08-07T08:45:06Z</time>
      </trkpt>
      <trkpt lat="25.746747599804117" lon="100.15708581187927">
        <ele>1935.0009765625</ele>
        <time>2026-08-07T08:45:09Z</time>
      </trkpt>
      <trkpt lat="25.746711718644445" lon="100.15716296969278">
        <ele>1936.038330078125</ele>
        <time>2026-08-07T08:45:12Z</time>
      </trkpt>
      <trkpt lat="25.74646199164066" lon="100.15739444713547">
        <ele>1935.10400390625</ele>
        <time>2026-08-07T08:45:24Z</time>
      </trkpt>
      <trkpt lat="25.74625806984913" lon="100.15750367481031">
        <ele>1935.27197265625</ele>
        <time>2026-08-07T08:45:33Z</time>
      </trkpt>
      <trkpt lat="25.746012019418174" lon="100.15755578724276">
        <ele>1933.985595703125</ele>
        <time>2026-08-07T08:45:43Z</time>
      </trkpt>
      <trkpt lat="25.745525654126762" lon="100.15751271175418">
        <ele>1932.94775390625</ele>
        <time>2026-08-07T08:46:05Z</time>
      </trkpt>
      <trkpt lat="25.745365619923547" lon="100.15754578320343">
        <ele>1932.937744140625</ele>
        <time>2026-08-07T08:46:13Z</time>
      </trkpt>
      <trkpt lat="25.745290688800537" lon="100.15760791175141">
        <ele>1933.08984375</ele>
        <time>2026-08-07T08:46:17Z</time>
      </trkpt>
      <trkpt lat="25.745177883203876" lon="100.15775120687911">
        <ele>1934.180419921875</ele>
        <time>2026-08-07T08:46:25Z</time>
      </trkpt>
      <trkpt lat="25.744808222536577" lon="100.15805684035048">
        <ele>1934.423583984375</ele>
        <time>2026-08-07T08:46:46Z</time>
      </trkpt>
      <trkpt lat="25.744469722290788" lon="100.15843963196804">
        <ele>1936.38037109375</ele>
        <time>2026-08-07T08:47:04Z</time>
      </trkpt>
      <trkpt lat="25.744228993017593" lon="100.15866509998018">
        <ele>1935.8115234375</ele>
        <time>2026-08-07T08:47:16Z</time>
      </trkpt>
      <trkpt lat="25.744059197688625" lon="100.15883144539556">
        <ele>1936.4189453125</ele>
        <time>2026-08-07T08:47:25Z</time>
      </trkpt>
      <trkpt lat="25.743630481918913" lon="100.15912405694134">
        <ele>1934.279296875</ele>
        <time>2026-08-07T08:47:46Z</time>
      </trkpt>
      <trkpt lat="25.743444733200114" lon="100.15932046530662">
        <ele>1934.87353515625</ele>
        <time>2026-08-07T08:47:57Z</time>
      </trkpt>
      <trkpt lat="25.743354127353577" lon="100.15956396856136">
        <ele>1935.772216796875</ele>
        <time>2026-08-07T08:48:09Z</time>
      </trkpt>
      <trkpt lat="25.743297460833478" lon="100.15976338065386">
        <ele>1936.4189453125</ele>
        <time>2026-08-07T08:48:16Z</time>
      </trkpt>
      <trkpt lat="25.743198633320326" lon="100.15988864128987">
        <ele>1935.423828125</ele>
        <time>2026-08-07T08:48:20Z</time>
      </trkpt>
      <trkpt lat="25.74284784997649" lon="100.16011812343037">
        <ele>1931.634765625</ele>
        <time>2026-08-07T08:48:35Z</time>
      </trkpt>
      <trkpt lat="25.742569074323296" lon="100.16032856488346">
        <ele>1930.184814453125</ele>
        <time>2026-08-07T08:48:47Z</time>
      </trkpt>
      <trkpt lat="25.742510171022666" lon="100.1603997133277">
        <ele>1928.68212890625</ele>
        <time>2026-08-07T08:48:49Z</time>
      </trkpt>
      <trkpt lat="25.742308024353918" lon="100.16092580638085">
        <ele>1931.71923828125</ele>
        <time>2026-08-07T08:49:05Z</time>
      </trkpt>
      <trkpt lat="25.742283156206298" lon="100.16100497091364">
        <ele>1932.046142578125</ele>
        <time>2026-08-07T08:49:08Z</time>
      </trkpt>
      <trkpt lat="25.742071735379817" lon="100.16138476326718">
        <ele>1933.287841796875</ele>
        <time>2026-08-07T08:49:26Z</time>
      </trkpt>
      <trkpt lat="25.741763195466643" lon="100.16173048842671">
        <ele>1932.6689453125</ele>
        <time>2026-08-07T08:49:45Z</time>
      </trkpt>
      <trkpt lat="25.74161336055191" lon="100.1618667752408">
        <ele>1931.98291015625</ele>
        <time>2026-08-07T08:49:51Z</time>
      </trkpt>
      <trkpt lat="25.741428866682945" lon="100.16219746720975">
        <ele>1935.4375</ele>
        <time>2026-08-07T08:50:03Z</time>
      </trkpt>
      <trkpt lat="25.74134930827642" lon="100.16246001543831">
        <ele>1935.735595703125</ele>
        <time>2026-08-07T08:50:14Z</time>
      </trkpt>
      <trkpt lat="25.741298442551162" lon="100.16254820029">
        <ele>1934.933349609375</ele>
        <time>2026-08-07T08:50:18Z</time>
      </trkpt>
      <trkpt lat="25.74125298125569" lon="100.16285183388023">
        <ele>1934.887451171875</ele>
        <time>2026-08-07T08:50:29Z</time>
      </trkpt>
      <trkpt lat="25.7410986960011" lon="100.1632837383885">
        <ele>1934.762451171875</ele>
        <time>2026-08-07T08:50:47Z</time>
      </trkpt>
      <trkpt lat="25.740965135798373" lon="100.1635613211669">
        <ele>1933.497802734375</ele>
        <time>2026-08-07T08:50:56Z</time>
      </trkpt>
      <trkpt lat="25.740669698502316" lon="100.16395515142048">
        <ele>1936.22314453125</ele>
        <time>2026-08-07T08:51:15Z</time>
      </trkpt>
      <trkpt lat="25.740342316541582" lon="100.16438806508735">
        <ele>1936.343994140625</ele>
        <time>2026-08-07T08:51:37Z</time>
      </trkpt>
      <trkpt lat="25.740270407624706" lon="100.16445921579803">
        <ele>1935.8173828125</ele>
        <time>2026-08-07T08:51:41Z</time>
      </trkpt>
      <trkpt lat="25.740183647649367" lon="100.16461454312841">
        <ele>1935.327880859375</ele>
        <time>2026-08-07T08:51:48Z</time>
      </trkpt>
      <trkpt lat="25.740055441925684" lon="100.1650785182674">
        <ele>1934.22119140625</ele>
        <time>2026-08-07T08:52:07Z</time>
      </trkpt>
      <trkpt lat="25.739929230807068" lon="100.16553848589217">
        <ele>1933.92431640625</ele>
        <time>2026-08-07T08:52:28Z</time>
      </trkpt>
      <trkpt lat="25.739897390850473" lon="100.1656336864154">
        <ele>1933.486572265625</ele>
        <time>2026-08-07T08:52:32Z</time>
      </trkpt>
      <trkpt lat="25.73983149339308" lon="100.16570884577582">
        <ele>1933.9794921875</ele>
        <time>2026-08-07T08:52:36Z</time>
      </trkpt>
      <trkpt lat="25.73944368818298" lon="100.16593332667347">
        <ele>1931.65576171875</ele>
        <time>2026-08-07T08:52:55Z</time>
      </trkpt>
      <trkpt lat="25.739202818501298" lon="100.16607763570562">
        <ele>1930.27392578125</ele>
        <time>2026-08-07T08:53:07Z</time>
      </trkpt>
      <trkpt lat="25.738939103211038" lon="100.16631113271283">
        <ele>1927.78564453125</ele>
        <time>2026-08-07T08:53:20Z</time>
      </trkpt>
      <trkpt lat="25.738783140229344" lon="100.16637927978707">
        <ele>1927.453369140625</ele>
        <time>2026-08-07T08:53:26Z</time>
      </trkpt>
      <trkpt lat="25.738715192865403" lon="100.16642838465647">
        <ele>1927.10400390625</ele>
        <time>2026-08-07T08:53:29Z</time>
      </trkpt>
      <trkpt lat="25.738662291974624" lon="100.16649753126477">
        <ele>1927.23193359375</ele>
        <time>2026-08-07T08:53:32Z</time>
      </trkpt>
      <trkpt lat="25.73858655490441" lon="100.16666087641899">
        <ele>1928.548583984375</ele>
        <time>2026-08-07T08:53:38Z</time>
      </trkpt>
      <trkpt lat="25.738478816215114" lon="100.1668332414184">
        <ele>1929.58349609375</ele>
        <time>2026-08-07T08:53:46Z</time>
      </trkpt>
      <trkpt lat="25.73845511345732" lon="100.16699858963649">
        <ele>1931.2158203125</ele>
        <time>2026-08-07T08:53:52Z</time>
      </trkpt>
      <trkpt lat="25.73846043337089" lon="100.16716694352037">
        <ele>1932.892578125</ele>
        <time>2026-08-07T08:53:58Z</time>
      </trkpt>
      <trkpt lat="25.738549998727954" lon="100.1674395145899">
        <ele>1933.41064453125</ele>
        <time>2026-08-07T08:54:09Z</time>
      </trkpt>
      <trkpt lat="25.738714498553225" lon="100.1676539616434">
        <ele>1933.376708984375</ele>
        <time>2026-08-07T08:54:21Z</time>
      </trkpt>
      <trkpt lat="25.738799095337356" lon="100.16794457110373">
        <ele>1932.98681640625</ele>
        <time>2026-08-07T08:54:33Z</time>
      </trkpt>
      <trkpt lat="25.73872858098297" lon="100.1682241614221">
        <ele>1935.12451171875</ele>
        <time>2026-08-07T08:54:46Z</time>
      </trkpt>
      <trkpt lat="25.738540476124076" lon="100.1687572887379">
        <ele>1934.98779296875</ele>
        <time>2026-08-07T08:55:10Z</time>
      </trkpt>
      <trkpt lat="25.73838824712079" lon="100.16921325294321">
        <ele>1934.4482421875</ele>
        <time>2026-08-07T08:55:32Z</time>
      </trkpt>
      <trkpt lat="25.738309180152697" lon="100.16973234847833">
        <ele>1934.65771484375</ele>
        <time>2026-08-07T08:55:54Z</time>
      </trkpt>
      <trkpt lat="25.73828032968955" lon="100.16982053499247">
        <ele>1934.731201171875</ele>
        <time>2026-08-07T08:55:59Z</time>
      </trkpt>
      <trkpt lat="25.7382343862655" lon="100.17039474590935">
        <ele>1934.2353515625</ele>
        <time>2026-08-07T08:56:21Z</time>
      </trkpt>
      <trkpt lat="25.738099996151043" lon="100.17075951776158">
        <ele>1934.7041015625</ele>
        <time>2026-08-07T08:56:37Z</time>
      </trkpt>
      <trkpt lat="25.738022083076824" lon="100.17082966749562">
        <ele>1933.654296875</ele>
        <time>2026-08-07T08:56:41Z</time>
      </trkpt>
      <trkpt lat="25.737865091761964" lon="100.17088278332564">
        <ele>1932.0927734375</ele>
        <time>2026-08-07T08:56:48Z</time>
      </trkpt>
      <trkpt lat="25.737554876930005" lon="100.17086475312047">
        <ele>1933.6494140625</ele>
        <time>2026-08-07T08:57:32Z</time>
      </trkpt>
      <trkpt lat="25.737484908014544" lon="100.17090283509738">
        <ele>1936.57421875</ele>
        <time>2026-08-07T08:57:56Z</time>
      </trkpt>
      <trkpt lat="25.737080589329224" lon="100.1708587523697">
        <ele>1932.9560546875</ele>
        <time>2026-08-07T08:58:18Z</time>
      </trkpt>
      <trkpt lat="25.73691538915672" lon="100.17080364041209">
        <ele>1932.67431640625</ele>
        <time>2026-08-07T08:58:25Z</time>
      </trkpt>
      <trkpt lat="25.736850271837877" lon="100.17076155338272">
        <ele>1932.36181640625</ele>
        <time>2026-08-07T08:58:28Z</time>
      </trkpt>
      <trkpt lat="25.73677718770301" lon="100.17073950877477">
        <ele>1932.17041015625</ele>
        <time>2026-08-07T08:58:31Z</time>
      </trkpt>
      <trkpt lat="25.736688149123307" lon="100.17074652578951">
        <ele>1931.88671875</ele>
        <time>2026-08-07T08:58:35Z</time>
      </trkpt>
      <trkpt lat="25.736384299467378" lon="100.17091989863363">
        <ele>1930.9169921875</ele>
        <time>2026-08-07T08:58:51Z</time>
      </trkpt>
      <trkpt lat="25.736291292645735" lon="100.17094495374445">
        <ele>1931.65625</ele>
        <time>2026-08-07T08:58:55Z</time>
      </trkpt>
      <trkpt lat="25.736051170044796" lon="100.17095397877513">
        <ele>1932.627685546875</ele>
        <time>2026-08-07T08:59:10Z</time>
      </trkpt>
      <trkpt lat="25.735798976192385" lon="100.1709289323363">
        <ele>1932.717041015625</ele>
        <time>2026-08-07T08:59:22Z</time>
      </trkpt>
      <trkpt lat="25.735557932576185" lon="100.17098004604976">
        <ele>1933.078125</ele>
        <time>2026-08-07T08:59:34Z</time>
      </trkpt>
      <trkpt lat="25.735415080279935" lon="100.17110230716541">
        <ele>1932.91455078125</ele>
        <time>2026-08-07T08:59:42Z</time>
      </trkpt>
      <trkpt lat="25.73529344262129" lon="100.17133179357616">
        <ele>1934.43359375</ele>
        <time>2026-08-07T08:59:52Z</time>
      </trkpt>
      <trkpt lat="25.735256725694605" lon="100.17149313429222">
        <ele>1936.73974609375</ele>
        <time>2026-08-07T09:03:10Z</time>
      </trkpt>
      <trkpt lat="25.73524121767185" lon="100.17175869390094">
        <ele>1937.65966796875</ele>
        <time>2026-08-07T09:03:23Z</time>
      </trkpt>
      <trkpt lat="25.735233095663624" lon="100.1722266793441">
        <ele>1934.542724609375</ele>
        <time>2026-08-07T09:03:42Z</time>
      </trkpt>
      <trkpt lat="25.735185583976595" lon="100.17250025631104">
        <ele>1933.557861328125</ele>
        <time>2026-08-07T09:03:54Z</time>
      </trkpt>
      <trkpt lat="25.73510000474709" lon="100.1727497834814">
        <ele>1934.661376953125</ele>
        <time>2026-08-07T09:04:06Z</time>
      </trkpt>
      <trkpt lat="25.734844693302477" lon="100.17319372360362">
        <ele>1934.904296875</ele>
        <time>2026-08-07T09:04:26Z</time>
      </trkpt>
      <trkpt lat="25.734547251394165" lon="100.17358154632115">
        <ele>1933.7919921875</ele>
        <time>2026-08-07T09:04:46Z</time>
      </trkpt>
      <trkpt lat="25.734242718326918" lon="100.17392327193777">
        <ele>1933.34423828125</ele>
        <time>2026-08-07T09:05:04Z</time>
      </trkpt>
      <trkpt lat="25.73387503719056" lon="100.17420587462037">
        <ele>1932.906005859375</ele>
        <time>2026-08-07T09:05:23Z</time>
      </trkpt>
      <trkpt lat="25.733513348114812" lon="100.17448246424969">
        <ele>1932.56884765625</ele>
        <time>2026-08-07T09:05:42Z</time>
      </trkpt>
      <trkpt lat="25.733227787783033" lon="100.17480414626147">
        <ele>1932.931640625</ele>
        <time>2026-08-07T09:05:59Z</time>
      </trkpt>
      <trkpt lat="25.73302726886331" lon="100.1751218173201">
        <ele>1933.78271484375</ele>
        <time>2026-08-07T09:06:14Z</time>
      </trkpt>
      <trkpt lat="25.732874794360356" lon="100.17544850562841">
        <ele>1935.16650390625</ele>
        <time>2026-08-07T09:06:28Z</time>
      </trkpt>
      <trkpt lat="25.73280220016653" lon="100.175687006857">
        <ele>1936.0126953125</ele>
        <time>2026-08-07T09:06:37Z</time>
      </trkpt>
      <trkpt lat="25.732761075058914" lon="100.17616601006762">
        <ele>1935.7744140625</ele>
        <time>2026-08-07T09:06:55Z</time>
      </trkpt>
      <trkpt lat="25.73275839664863" lon="100.17633837046445">
        <ele>1935.236083984375</ele>
        <time>2026-08-07T09:07:01Z</time>
      </trkpt>
      <trkpt lat="25.73282225398477" lon="100.17677628362962">
        <ele>1934.828125</ele>
        <time>2026-08-07T09:07:17Z</time>
      </trkpt>
      <trkpt lat="25.732976969912798" lon="100.17711097817751">
        <ele>1935.271728515625</ele>
        <time>2026-08-07T09:07:32Z</time>
      </trkpt>
      <trkpt lat="25.733292997768892" lon="100.17756291227333">
        <ele>1933.617431640625</ele>
        <time>2026-08-07T09:07:56Z</time>
      </trkpt>
      <trkpt lat="25.73336936581404" lon="100.17773627136523">
        <ele>1933.75830078125</ele>
        <time>2026-08-07T09:08:02Z</time>
      </trkpt>
      <trkpt lat="25.733412714582382" lon="100.17790963108631">
        <ele>1934.092041015625</ele>
        <time>2026-08-07T09:08:08Z</time>
      </trkpt>
      <trkpt lat="25.733434701034938" lon="100.17843171588939">
        <ele>1933.942138671875</ele>
        <time>2026-08-07T09:08:26Z</time>
      </trkpt>
      <trkpt lat="25.73343474024849" lon="100.17898987408113">
        <ele>1934.32421875</ele>
        <time>2026-08-07T09:08:51Z</time>
      </trkpt>
      <trkpt lat="25.7334052355008" lon="100.17926544577149">
        <ele>1935.1279296875</ele>
        <time>2026-08-07T09:09:03Z</time>
      </trkpt>
      <trkpt lat="25.733214925424647" lon="100.17969634208666">
        <ele>1936.017333984375</ele>
        <time>2026-08-07T09:09:21Z</time>
      </trkpt>
      <trkpt lat="25.733080332540553" lon="100.17995788586516">
        <ele>1935.482421875</ele>
        <time>2026-08-07T09:09:31Z</time>
      </trkpt>
      <trkpt lat="25.732991940289498" lon="100.18031362219362">
        <ele>1935.614990234375</ele>
        <time>2026-08-07T09:09:44Z</time>
      </trkpt>
      <trkpt lat="25.732992135107494" lon="100.18041883911329">
        <ele>1935.5400390625</ele>
        <time>2026-08-07T09:09:48Z</time>
      </trkpt>
      <trkpt lat="25.732901970101373" lon="100.1808988296993">
        <ele>1936.1943359375</ele>
        <time>2026-08-07T09:10:04Z</time>
      </trkpt>
      <trkpt lat="25.732787722883096" lon="100.18134274471639">
        <ele>1935.43115234375</ele>
        <time>2026-08-07T09:10:19Z</time>
      </trkpt>
      <trkpt lat="25.73260956239814" lon="100.1818547989902">
        <ele>1935.535888671875</ele>
        <time>2026-08-07T09:10:39Z</time>
      </trkpt>
      <trkpt lat="25.73250912838106" lon="100.18219449651413">
        <ele>1935.88330078125</ele>
        <time>2026-08-07T09:10:54Z</time>
      </trkpt>
      <trkpt lat="25.73246765029874" lon="100.1824921054831">
        <ele>1936.109130859375</ele>
        <time>2026-08-07T09:11:06Z</time>
      </trkpt>
      <trkpt lat="25.73248618042745" lon="100.18277568343036">
        <ele>1935.17724609375</ele>
        <time>2026-08-07T09:11:18Z</time>
      </trkpt>
      <trkpt lat="25.732552732078567" lon="100.18305625319633">
        <ele>1934.13037109375</ele>
        <time>2026-08-07T09:11:30Z</time>
      </trkpt>
      <trkpt lat="25.73270746928073" lon="100.18341097054194">
        <ele>1933.5126953125</ele>
        <time>2026-08-07T09:11:46Z</time>
      </trkpt>
      <trkpt lat="25.732727643602416" lon="100.183500151136">
        <ele>1933.9296875</ele>
        <time>2026-08-07T09:11:50Z</time>
      </trkpt>
      <trkpt lat="25.732663520662506" lon="100.1840021704591">
        <ele>1934.4697265625</ele>
        <time>2026-08-07T09:12:13Z</time>
      </trkpt>
      <trkpt lat="25.73261719825477" lon="100.18438995573037">
        <ele>1935.505126953125</ele>
        <time>2026-08-07T09:12:26Z</time>
      </trkpt>
      <trkpt lat="25.73254546024787" lon="100.18455729532252">
        <ele>1935.6044921875</ele>
        <time>2026-08-07T09:12:32Z</time>
      </trkpt>
      <trkpt lat="25.732417587868717" lon="100.18466852284594">
        <ele>1934.1064453125</ele>
        <time>2026-08-07T09:12:38Z</time>
      </trkpt>
      <trkpt lat="25.73211869635004" lon="100.18482384329745">
        <ele>1932.59033203125</ele>
        <time>2026-08-07T09:12:53Z</time>
      </trkpt>
      <trkpt lat="25.732019943803074" lon="100.18499218467917">
        <ele>1932.668212890625</ele>
        <time>2026-08-07T09:13:03Z</time>
      </trkpt>
      <trkpt lat="25.731888452424556" lon="100.18531583856523">
        <ele>1930.7861328125</ele>
        <time>2026-08-07T09:13:17Z</time>
      </trkpt>
      <trkpt lat="25.73159410754584" lon="100.18577376410526">
        <ele>1932.20849609375</ele>
        <time>2026-08-07T09:13:36Z</time>
      </trkpt>
      <trkpt lat="25.73154921320463" lon="100.18584691164024">
        <ele>1932.1259765625</ele>
        <time>2026-08-07T09:13:39Z</time>
      </trkpt>
      <trkpt lat="25.731335811689878" lon="100.18624871996684">
        <ele>1933.103515625</ele>
        <time>2026-08-07T09:13:54Z</time>
      </trkpt>
      <trkpt lat="25.73113813581222" lon="100.18649321242829">
        <ele>1931.4697265625</ele>
        <time>2026-08-07T09:14:03Z</time>
      </trkpt>
      <trkpt lat="25.731068165419437" lon="100.18653229201908">
        <ele>1930.439208984375</ele>
        <time>2026-08-07T09:14:05Z</time>
      </trkpt>
      <trkpt lat="25.730989143159544" lon="100.18654531992944">
        <ele>1929.72314453125</ele>
        <time>2026-08-07T09:14:07Z</time>
      </trkpt>
      <trkpt lat="25.73073694032454" lon="100.18651326232958">
        <ele>1927.2314453125</ele>
        <time>2026-08-07T09:14:14Z</time>
      </trkpt>
      <trkpt lat="25.730568715940212" lon="100.18644212474935">
        <ele>1930.297119140625</ele>
        <time>2026-08-07T09:14:19Z</time>
      </trkpt>
      <trkpt lat="25.73046567270781" lon="100.1864511452852">
        <ele>1930.890625</ele>
        <time>2026-08-07T09:14:22Z</time>
      </trkpt>
      <trkpt lat="25.7301667659998" lon="100.18659944812401">
        <ele>1933.4013671875</ele>
        <time>2026-08-07T09:14:51Z</time>
      </trkpt>
      <trkpt lat="25.730098832640945" lon="100.18665856749129">
        <ele>1935.8837890625</ele>
        <time>2026-08-07T09:14:57Z</time>
      </trkpt>
      <trkpt lat="25.72988489399059" lon="100.186761778131">
        <ele>1937.1494140625</ele>
        <time>2026-08-07T09:15:48Z</time>
      </trkpt>
      <trkpt lat="25.729765039831705" lon="100.18688202013061">
        <ele>1935.9501953125</ele>
        <time>2026-08-07T09:16:03Z</time>
      </trkpt>
      <trkpt lat="25.72969707586312" lon="100.18692410542876">
        <ele>1930.7431640625</ele>
        <time>2026-08-07T09:16:07Z</time>
      </trkpt>
      <trkpt lat="25.729402537139485" lon="100.18727781446255">
        <ele>1933.190185546875</ele>
        <time>2026-08-07T09:16:21Z</time>
      </trkpt>
      <trkpt lat="25.729332598610196" lon="100.18733492933954">
        <ele>1932.519287109375</ele>
        <time>2026-08-07T09:16:24Z</time>
      </trkpt>
      <trkpt lat="25.72891368217439" lon="100.18751730068156">
        <ele>1931.376953125</ele>
        <time>2026-08-07T09:16:39Z</time>
      </trkpt>
      <trkpt lat="25.728696742702862" lon="100.18762151209994">
        <ele>1931.050537109375</ele>
        <time>2026-08-07T09:16:48Z</time>
      </trkpt>
      <trkpt lat="25.728594920856246" lon="100.18775477787473">
        <ele>1932.376220703125</ele>
        <time>2026-08-07T09:16:54Z</time>
      </trkpt>
      <trkpt lat="25.728575055239915" lon="100.18783694053852">
        <ele>1933.12841796875</ele>
        <time>2026-08-07T09:16:57Z</time>
      </trkpt>
      <trkpt lat="25.728634093106276" lon="100.1884040556755">
        <ele>1935.93017578125</ele>
        <time>2026-08-07T09:17:18Z</time>
      </trkpt>
      <trkpt lat="25.72865044916114" lon="100.18860044079398">
        <ele>1936.8798828125</ele>
        <time>2026-08-07T09:17:26Z</time>
      </trkpt>
      <trkpt lat="25.72864461894343" lon="100.18869863347707">
        <ele>1936.105224609375</ele>
        <time>2026-08-07T09:17:30Z</time>
      </trkpt>
      <trkpt lat="25.728608741328173" lon="100.18877979339321">
        <ele>1935.81005859375</ele>
        <time>2026-08-07T09:17:34Z</time>
      </trkpt>
      <trkpt lat="25.72854880393809" lon="100.18883490280261">
        <ele>1935.72314453125</ele>
        <time>2026-08-07T09:17:38Z</time>
      </trkpt>
      <trkpt lat="25.72810382693371" lon="100.18899322361128">
        <ele>1931.91796875</ele>
        <time>2026-08-07T09:17:57Z</time>
      </trkpt>
      <trkpt lat="25.72781392114385" lon="100.18914152060403">
        <ele>1930.23486328125</ele>
        <time>2026-08-07T09:18:09Z</time>
      </trkpt>
      <trkpt lat="25.727744981874523" lon="100.18919863383253">
        <ele>1930.31005859375</ele>
        <time>2026-08-07T09:18:12Z</time>
      </trkpt>
      <trkpt lat="25.727687094615288" lon="100.18928179756092">
        <ele>1931.32080078125</ele>
        <time>2026-08-07T09:18:15Z</time>
      </trkpt>
      <trkpt lat="25.727617161699985" lon="100.18934291850029">
        <ele>1932.17041015625</ele>
        <time>2026-08-07T09:18:18Z</time>
      </trkpt>
      <trkpt lat="25.727542185447675" lon="100.18938099458863">
        <ele>1932.809814453125</ele>
        <time>2026-08-07T09:18:21Z</time>
      </trkpt>
      <trkpt lat="25.727089120543052" lon="100.18949222252004">
        <ele>1933.270751953125</ele>
        <time>2026-08-07T09:18:40Z</time>
      </trkpt>
      <trkpt lat="25.72679309651319" lon="100.18957539176229">
        <ele>1933.19775390625</ele>
        <time>2026-08-07T09:18:52Z</time>
      </trkpt>
      <trkpt lat="25.72671203077937" lon="100.18956437232404">
        <ele>1932.99072265625</ele>
        <time>2026-08-07T09:18:55Z</time>
      </trkpt>
      <trkpt lat="25.726639919304823" lon="100.18952429609777">
        <ele>1933.5859375</ele>
        <time>2026-08-07T09:18:58Z</time>
      </trkpt>
      <trkpt lat="25.72638437432908" lon="100.18929685920872">
        <ele>1935.59228515625</ele>
        <time>2026-08-07T09:19:12Z</time>
      </trkpt>
      <trkpt lat="25.726237151143664" lon="100.18921770841527">
        <ele>1937.3037109375</ele>
        <time>2026-08-07T09:19:20Z</time>
      </trkpt>
      <trkpt lat="25.726153062556666" lon="100.18919466551775">
        <ele>1936.88037109375</ele>
        <time>2026-08-07T09:19:24Z</time>
      </trkpt>
      <trkpt lat="25.725751080458355" lon="100.18933595113346">
        <ele>1935.648681640625</ele>
        <time>2026-08-07T09:19:44Z</time>
      </trkpt>
      <trkpt lat="25.725691163886758" lon="100.18940308348539">
        <ele>1935.299560546875</ele>
        <time>2026-08-07T09:19:48Z</time>
      </trkpt>
      <trkpt lat="25.72565931244596" lon="100.18949826970588">
        <ele>1935.8369140625</ele>
        <time>2026-08-07T09:19:52Z</time>
      </trkpt>
      <trkpt lat="25.725651490400008" lon="100.18960247272861">
        <ele>1936.4267578125</ele>
        <time>2026-08-07T09:19:56Z</time>
      </trkpt>
      <trkpt lat="25.72580345568553" lon="100.19010544549222">
        <ele>1937.541015625</ele>
        <time>2026-08-07T09:20:15Z</time>
      </trkpt>
      <trkpt lat="25.72587091465336" lon="100.19034691113879">
        <ele>1937.962890625</ele>
        <time>2026-08-07T09:20:24Z</time>
      </trkpt>
      <trkpt lat="25.725836056702825" lon="100.19044009207559">
        <ele>1937.876953125</ele>
        <time>2026-08-07T09:20:28Z</time>
      </trkpt>
      <trkpt lat="25.72542608499877" lon="100.19059139430298">
        <ele>1936.412109375</ele>
        <time>2026-08-07T09:20:48Z</time>
      </trkpt>
      <trkpt lat="25.725281097739263" lon="100.1906465041807">
        <ele>1936.3984375</ele>
        <time>2026-08-07T09:20:57Z</time>
      </trkpt>
      <trkpt lat="25.72481608392556" lon="100.19079179565982">
        <ele>1930.44677734375</ele>
        <time>2026-08-07T09:21:19Z</time>
      </trkpt>
      <trkpt lat="25.724565098515424" lon="100.19088297738861">
        <ele>1930.43359375</ele>
        <time>2026-08-07T09:21:30Z</time>
      </trkpt>
      <trkpt lat="25.724490055677826" lon="100.19088297924901">
        <ele>1930.1982421875</ele>
        <time>2026-08-07T09:21:34Z</time>
      </trkpt>
      <trkpt lat="25.72442695200334" lon="100.19084390561414">
        <ele>1931.58447265625</ele>
        <time>2026-08-07T09:21:39Z</time>
      </trkpt>
      <trkpt lat="25.724361795060798" lon="100.19077477412011">
        <ele>1933.02392578125</ele>
        <time>2026-08-07T09:21:43Z</time>
      </trkpt>
      <trkpt lat="25.724282701308393" lon="100.19074672204219">
        <ele>1932.9384765625</ele>
        <time>2026-08-07T09:21:47Z</time>
      </trkpt>
      <trkpt lat="25.723864763101957" lon="100.19092006606877">
        <ele>1934.859375</ele>
        <time>2026-08-07T09:22:05Z</time>
      </trkpt>
      <trkpt lat="25.723536716486798" lon="100.19100123024639">
        <ele>1932.3193359375</ele>
        <time>2026-08-07T09:22:17Z</time>
      </trkpt>
      <trkpt lat="25.723309588797118" lon="100.19100223780235">
        <ele>1933.94921875</ele>
        <time>2026-08-07T09:22:56Z</time>
      </trkpt>
      <trkpt lat="25.72322358831323" lon="100.19103029384851">
        <ele>1933.537109375</ele>
        <time>2026-08-07T09:23:01Z</time>
      </trkpt>
      <trkpt lat="25.7230545197325" lon="100.19104632884138">
        <ele>1933.566650390625</ele>
        <time>2026-08-07T09:23:10Z</time>
      </trkpt>
      <trkpt lat="25.722566485974976" lon="100.19118761218611">
        <ele>1937.32373046875</ele>
        <time>2026-08-07T09:23:32Z</time>
      </trkpt>
      <trkpt lat="25.722405447968853" lon="100.19121867576652">
        <ele>1940.43994140625</ele>
        <time>2026-08-07T09:24:29Z</time>
      </trkpt>
    </trkseg>
  </trk>
</gpx>