<?xml version="1.0" encoding="UTF-8"?>
<gpx xmlns="http://www.topografix.com/GPX/1/1" xmlns:gpxtpx="http://www.garmin.com/xmlschemas/TrackPointExtension/v1" xmlns:xsi="http://www.w3.org/2001/XMLSchema-instance" xsi:schemaLocation="http://www.topografix.com/GPX/1/1 http://www.topografix.com/GPX/1/1/gpx.xsd" version="1.1" creator="gpx.py -- https://github.com/tkrajina/gpxpy">
  <trk>
    <name>gpx from keep</name>
    <type>Walk</type>
    <trkseg>
      <trkpt lat="29.602466256162263" lon="106.3197996301426">
        <ele>257.767333984375</ele>
        <time>2026-08-23T22:42:17Z</time>
      </trkpt>
      <trkpt lat="29.602441686938114" lon="106.31957817923323">
        <ele>258.114013671875</ele>
        <time>2026-08-23T22:42:35Z</time>
      </trkpt>
      <trkpt lat="29.60248877545336" lon="106.31952430955782">
        <ele>253.36474609375</ele>
        <time>2026-08-23T22:42:41Z</time>
      </trkpt>
      <trkpt lat="29.602779686476126" lon="106.31952429200946">
        <ele>253.27703857421875</ele>
        <time>2026-08-23T22:43:05Z</time>
      </trkpt>
      <trkpt lat="29.60289374881625" lon="106.31947341088294">
        <ele>256.84375</ele>
        <time>2026-08-23T22:43:17Z</time>
      </trkpt>
      <trkpt lat="29.602944331585693" lon="106.31916018178492">
        <ele>250.4249267578125</ele>
        <time>2026-08-23T22:43:41Z</time>
      </trkpt>
      <trkpt lat="29.602946607009056" lon="106.31901553886881">
        <ele>253.021240234375</ele>
        <time>2026-08-23T22:43:53Z</time>
      </trkpt>
      <trkpt lat="29.602916871188384" lon="106.31888187068057">
        <ele>251.35382080078125</ele>
        <time>2026-08-23T22:44:05Z</time>
      </trkpt>
      <trkpt lat="29.602923584517747" lon="106.3185067957503">
        <ele>248.831298828125</ele>
        <time>2026-08-23T22:44:35Z</time>
      </trkpt>
      <trkpt lat="29.602930268719923" lon="106.31814668310784">
        <ele>250.10919189453125</ele>
        <time>2026-08-23T22:45:05Z</time>
      </trkpt>
      <trkpt lat="29.60295764787783" lon="106.3179431827684">
        <ele>248.5537109375</ele>
        <time>2026-08-23T22:45:23Z</time>
      </trkpt>
      <trkpt lat="29.602971355507073" lon="106.31756910276235">
        <ele>248.41546630859375</ele>
        <time>2026-08-23T22:45:53Z</time>
      </trkpt>
      <trkpt lat="29.602957642322835" lon="106.31742046919858">
        <ele>248.364013671875</ele>
        <time>2026-08-23T22:46:05Z</time>
      </trkpt>
      <trkpt lat="29.60296790653075" lon="106.31727981441796">
        <ele>247.874267578125</ele>
        <time>2026-08-23T22:46:17Z</time>
      </trkpt>
      <trkpt lat="29.602948035807717" lon="106.31721497499723">
        <ele>245.7138671875</ele>
        <time>2026-08-23T22:46:23Z</time>
      </trkpt>
      <trkpt lat="29.602940629137322" lon="106.31690374005332">
        <ele>248.8333740234375</ele>
        <time>2026-08-23T22:46:47Z</time>
      </trkpt>
      <trkpt lat="29.602925944090334" lon="106.31674014256173">
        <ele>250.794921875</ele>
        <time>2026-08-23T22:46:59Z</time>
      </trkpt>
      <trkpt lat="29.602944071021042" lon="106.31667031283278">
        <ele>250.53546142578125</ele>
        <time>2026-08-23T22:47:05Z</time>
      </trkpt>
      <trkpt lat="29.60288148170138" lon="106.31646382313029">
        <ele>253.39361572265625</ele>
        <time>2026-08-23T22:47:23Z</time>
      </trkpt>
      <trkpt lat="29.60282258289719" lon="106.31641993430338">
        <ele>251.62042236328125</ele>
        <time>2026-08-23T22:47:29Z</time>
      </trkpt>
      <trkpt lat="29.602754643367877" lon="106.31639898975729">
        <ele>249.222412109375</ele>
        <time>2026-08-23T22:47:35Z</time>
      </trkpt>
      <trkpt lat="29.60268365184016" lon="106.3164059769141">
        <ele>249.9617919921875</ele>
        <time>2026-08-23T22:47:41Z</time>
      </trkpt>
      <trkpt lat="29.60255655457711" lon="106.31647780845813">
        <ele>250.84979248046875</ele>
        <time>2026-08-23T22:47:53Z</time>
      </trkpt>
      <trkpt lat="29.60252243641141" lon="106.31654564414801">
        <ele>250.6397705078125</ele>
        <time>2026-08-23T22:47:59Z</time>
      </trkpt>
      <trkpt lat="29.602506133013765" lon="106.31670824619778">
        <ele>247.6724853515625</ele>
        <time>2026-08-23T22:48:11Z</time>
      </trkpt>
      <trkpt lat="29.602512951120488" lon="106.31680301318744">
        <ele>250.34429931640625</ele>
        <time>2026-08-23T22:48:17Z</time>
      </trkpt>
      <trkpt lat="29.60257947439113" lon="106.31704341880955">
        <ele>253.01043701171875</ele>
        <time>2026-08-23T22:48:35Z</time>
      </trkpt>
      <trkpt lat="29.602580191850087" lon="106.31719205355411">
        <ele>255.83282470703125</ele>
        <time>2026-08-23T22:48:47Z</time>
      </trkpt>
      <trkpt lat="29.602530922584386" lon="106.31734168870017">
        <ele>255.10107421875</ele>
        <time>2026-08-23T22:48:59Z</time>
      </trkpt>
      <trkpt lat="29.60228172010314" lon="106.31748834310015">
        <ele>254.367919921875</ele>
        <time>2026-08-23T22:49:23Z</time>
      </trkpt>
      <trkpt lat="29.601967717696628" lon="106.31754023442382">
        <ele>255.90155029296875</ele>
        <time>2026-08-23T22:49:53Z</time>
      </trkpt>
      <trkpt lat="29.601906700365483" lon="106.31755919147331">
        <ele>255.54296875</ele>
        <time>2026-08-23T22:49:59Z</time>
      </trkpt>
      <trkpt lat="29.601854617683145" lon="106.31761106698633">
        <ele>256.7835693359375</ele>
        <time>2026-08-23T22:50:05Z</time>
      </trkpt>
      <trkpt lat="29.601857480176083" lon="106.31768289007066">
        <ele>256.9556884765625</ele>
        <time>2026-08-23T22:50:11Z</time>
      </trkpt>
      <trkpt lat="29.601888375801163" lon="106.31773276544969">
        <ele>256.42822265625</ele>
        <time>2026-08-23T22:50:17Z</time>
      </trkpt>
      <trkpt lat="29.601882743296382" lon="106.31806594533913">
        <ele>254.9166259765625</ele>
        <time>2026-08-23T22:50:47Z</time>
      </trkpt>
      <trkpt lat="29.601864068621044" lon="106.31842306627354">
        <ele>256.247802734375</ele>
        <time>2026-08-23T22:51:17Z</time>
      </trkpt>
      <trkpt lat="29.601862361514222" lon="106.3187941509442">
        <ele>253.40496826171875</ele>
        <time>2026-08-23T22:51:47Z</time>
      </trkpt>
      <trkpt lat="29.601856651235714" lon="106.31916723013755">
        <ele>254.343017578125</ele>
        <time>2026-08-23T22:52:17Z</time>
      </trkpt>
      <trkpt lat="29.60185750811771" lon="106.31924204527094">
        <ele>254.0640869140625</ele>
        <time>2026-08-23T22:52:23Z</time>
      </trkpt>
      <trkpt lat="29.60191221889667" lon="106.31938468950798">
        <ele>253.87628173828125</ele>
        <time>2026-08-23T22:52:35Z</time>
      </trkpt>
      <trkpt lat="29.601917906516192" lon="106.3195472872769">
        <ele>253.5352783203125</ele>
        <time>2026-08-23T22:52:47Z</time>
      </trkpt>
      <trkpt lat="29.60187553060606" lon="106.31975078666846">
        <ele>257.0277099609375</ele>
        <time>2026-08-23T22:53:05Z</time>
      </trkpt>
      <trkpt lat="29.60187309842382" lon="106.3199772266837">
        <ele>260.16375732421875</ele>
        <time>2026-08-23T22:53:23Z</time>
      </trkpt>
      <trkpt lat="29.60189398328083" lon="106.32003408473577">
        <ele>260.1644287109375</ele>
        <time>2026-08-23T22:53:29Z</time>
      </trkpt>
      <trkpt lat="29.601949052235682" lon="106.31998919248399">
        <ele>259.7205810546875</ele>
        <time>2026-08-23T22:53:35Z</time>
      </trkpt>
      <trkpt lat="29.601998166883558" lon="106.31992135734319">
        <ele>259.77392578125</ele>
        <time>2026-08-23T22:53:41Z</time>
      </trkpt>
      <trkpt lat="29.602293160405136" lon="106.31987744812562">
        <ele>259.55322265625</ele>
        <time>2026-08-23T22:54:05Z</time>
      </trkpt>
      <trkpt lat="29.602362154534983" lon="106.319869463704">
        <ele>258.123779296875</ele>
        <time>2026-08-23T22:54:11Z</time>
      </trkpt>
      <trkpt lat="29.602419196193004" lon="106.3198385367554">
        <ele>256.6639404296875</ele>
        <time>2026-08-23T22:54:17Z</time>
      </trkpt>
      <trkpt lat="29.602440307963306" lon="106.31977668845342">
        <ele>256.227294921875</ele>
        <time>2026-08-23T22:54:23Z</time>
      </trkpt>
      <trkpt lat="29.602441612617913" lon="106.31961708305387">
        <ele>256.57763671875</ele>
        <time>2026-08-23T22:54:35Z</time>
      </trkpt>
      <trkpt lat="29.60249470883281" lon="106.31955822535691">
        <ele>256.191650390625</ele>
        <time>2026-08-23T22:54:41Z</time>
      </trkpt>
      <trkpt lat="29.602561724541964" lon="106.31953926816853">
        <ele>254.249267578125</ele>
        <time>2026-08-23T22:54:47Z</time>
      </trkpt>
      <trkpt lat="29.602775647684766" lon="106.31954524046824">
        <ele>256.94268798828125</ele>
        <time>2026-08-23T22:55:05Z</time>
      </trkpt>
      <trkpt lat="29.602842665321063" lon="106.31952528574452">
        <ele>254.91473388671875</ele>
        <time>2026-08-23T22:55:11Z</time>
      </trkpt>
      <trkpt lat="29.60288178105914" lon="106.31945844858879">
        <ele>252.7369384765625</ele>
        <time>2026-08-23T22:55:17Z</time>
      </trkpt>
      <trkpt lat="29.602899901291394" lon="106.3193926102114">
        <ele>251.95477294921875</ele>
        <time>2026-08-23T22:55:23Z</time>
      </trkpt>
      <trkpt lat="29.602908588159924" lon="106.31903150174988">
        <ele>257.8687744140625</ele>
        <time>2026-08-23T22:55:53Z</time>
      </trkpt>
      <trkpt lat="29.602904055909168" lon="106.31878710536047">
        <ele>257.367919921875</ele>
        <time>2026-08-23T22:56:11Z</time>
      </trkpt>
      <trkpt lat="29.60293632764837" lon="106.3186394677139">
        <ele>257.349609375</ele>
        <time>2026-08-23T22:56:23Z</time>
      </trkpt>
      <trkpt lat="29.60292092187541" lon="106.3183302312838">
        <ele>255.0628662109375</ele>
        <time>2026-08-23T22:56:47Z</time>
      </trkpt>
      <trkpt lat="29.602926630765054" lon="106.317957150243">
        <ele>252.494384765625</ele>
        <time>2026-08-23T22:57:17Z</time>
      </trkpt>
      <trkpt lat="29.602899764309086" lon="106.31789131400015">
        <ele>256.79998779296875</ele>
        <time>2026-08-23T22:57:23Z</time>
      </trkpt>
      <trkpt lat="29.60279896219484" lon="106.31780353621558">
        <ele>263.18017578125</ele>
        <time>2026-08-23T22:57:35Z</time>
      </trkpt>
      <trkpt lat="29.60276610701328" lon="106.31773271254366">
        <ele>266.9910888671875</ele>
        <time>2026-08-23T22:57:41Z</time>
      </trkpt>
      <trkpt lat="29.6027602871877" lon="106.3176389436692">
        <ele>266.49853515625</ele>
        <time>2026-08-23T22:57:47Z</time>
      </trkpt>
      <trkpt lat="29.602845896415324" lon="106.31730476046242">
        <ele>265.05938720703125</ele>
        <time>2026-08-23T22:58:11Z</time>
      </trkpt>
      <trkpt lat="29.602908477986354" lon="106.3169885337537">
        <ele>259.26708984375</ele>
        <time>2026-08-23T22:58:35Z</time>
      </trkpt>
      <trkpt lat="29.60290764300211" lon="106.31690174694">
        <ele>258.87457275390625</ele>
        <time>2026-08-23T22:58:41Z</time>
      </trkpt>
      <trkpt lat="29.60294995189676" lon="106.31673216070145">
        <ele>253.502197265625</ele>
        <time>2026-08-23T22:58:53Z</time>
      </trkpt>
      <trkpt lat="29.602953246058828" lon="106.31657654233781">
        <ele>252.59564208984375</ele>
        <time>2026-08-23T22:59:05Z</time>
      </trkpt>
      <trkpt lat="29.602932371597245" lon="106.31651369774518">
        <ele>253.12884521484375</ele>
        <time>2026-08-23T22:59:11Z</time>
      </trkpt>
      <trkpt lat="29.60287950877708" lon="106.31644985749503">
        <ele>254.2864990234375</ele>
        <time>2026-08-23T22:59:17Z</time>
      </trkpt>
      <trkpt lat="29.602787637062907" lon="106.316396992661">
        <ele>253.57403564453125</ele>
        <time>2026-08-23T22:59:26Z</time>
      </trkpt>
      <trkpt lat="29.60271866949081" lon="106.31639101148964">
        <ele>253.86572265625</ele>
        <time>2026-08-23T22:59:32Z</time>
      </trkpt>
      <trkpt lat="29.602654658816206" lon="106.31640697621499">
        <ele>253.29840087890625</ele>
        <time>2026-08-23T22:59:38Z</time>
      </trkpt>
      <trkpt lat="29.602595599360665" lon="106.31644787949112">
        <ele>254.32208251953125</ele>
        <time>2026-08-23T22:59:44Z</time>
      </trkpt>
      <trkpt lat="29.602511383047403" lon="106.31657557140603">
        <ele>254.5177001953125</ele>
        <time>2026-08-23T22:59:56Z</time>
      </trkpt>
      <trkpt lat="29.60249310104472" lon="106.31672720046849">
        <ele>254.7750244140625</ele>
        <time>2026-08-23T23:00:08Z</time>
      </trkpt>
      <trkpt lat="29.602529786937936" lon="106.3168868064498">
        <ele>255.98828125</ele>
        <time>2026-08-23T23:00:20Z</time>
      </trkpt>
      <trkpt lat="29.602580642609336" lon="106.31695463680927">
        <ele>259.10809326171875</ele>
        <time>2026-08-23T23:00:26Z</time>
      </trkpt>
      <trkpt lat="29.602610190254044" lon="106.31718806155277">
        <ele>260.8626708984375</ele>
        <time>2026-08-23T23:00:44Z</time>
      </trkpt>
      <trkpt lat="29.602564933034134" lon="106.31733071362957">
        <ele>260.4112548828125</ele>
        <time>2026-08-23T23:00:56Z</time>
      </trkpt>
      <trkpt lat="29.602471705559914" lon="106.31746538808304">
        <ele>260.844970703125</ele>
        <time>2026-08-23T23:01:08Z</time>
      </trkpt>
      <trkpt lat="29.602286602893493" lon="106.31754919311769">
        <ele>259.6768798828125</ele>
        <time>2026-08-23T23:01:23Z</time>
      </trkpt>
      <trkpt lat="29.602013677044376" lon="106.31755419729654">
        <ele>258.1903076171875</ele>
        <time>2026-08-23T23:01:47Z</time>
      </trkpt>
      <trkpt lat="29.60194668241093" lon="106.31756218170102">
        <ele>258.5841064453125</ele>
        <time>2026-08-23T23:01:53Z</time>
      </trkpt>
      <trkpt lat="29.601890623713988" lon="106.31760208690662">
        <ele>259.8385009765625</ele>
        <time>2026-08-23T23:01:59Z</time>
      </trkpt>
      <trkpt lat="29.6018575086339" lon="106.31766792689331">
        <ele>260.725341796875</ele>
        <time>2026-08-23T23:02:05Z</time>
      </trkpt>
      <trkpt lat="29.601878107476292" lon="106.31787541488706">
        <ele>259.23834228515625</ele>
        <time>2026-08-23T23:02:23Z</time>
      </trkpt>
      <trkpt lat="29.601859402727538" lon="106.31824849691526">
        <ele>257.6065673828125</ele>
        <time>2026-08-23T23:02:53Z</time>
      </trkpt>
      <trkpt lat="29.601865267875166" lon="106.31831832444001">
        <ele>256.648193359375</ele>
        <time>2026-08-23T23:02:59Z</time>
      </trkpt>
      <trkpt lat="29.601852129323994" lon="106.31839314078273">
        <ele>256.14642333984375</ele>
        <time>2026-08-23T23:03:05Z</time>
      </trkpt>
      <trkpt lat="29.601868977744044" lon="106.31846995036332">
        <ele>255.672607421875</ele>
        <time>2026-08-23T23:03:11Z</time>
      </trkpt>
      <trkpt lat="29.601840535661744" lon="106.31870636888726">
        <ele>254.185791015625</ele>
        <time>2026-08-23T23:03:29Z</time>
      </trkpt>
      <trkpt lat="29.60185180126926" lon="106.31908942260543">
        <ele>255.415771484375</ele>
        <time>2026-08-23T23:03:59Z</time>
      </trkpt>
      <trkpt lat="29.60186238851022" lon="106.31930389217366">
        <ele>257.9713134765625</ele>
        <time>2026-08-23T23:04:17Z</time>
      </trkpt>
      <trkpt lat="29.601913277638573" lon="106.31935376586132">
        <ele>259.5322265625</ele>
        <time>2026-08-23T23:04:23Z</time>
      </trkpt>
      <trkpt lat="29.601933136260556" lon="106.31942458963609">
        <ele>262.3675537109375</ele>
        <time>2026-08-23T23:04:29Z</time>
      </trkpt>
      <trkpt lat="29.601919480895067" lon="106.3197697371433">
        <ele>265.37762451171875</ele>
        <time>2026-08-23T23:04:59Z</time>
      </trkpt>
      <trkpt lat="29.601905216370444" lon="106.31991039009662">
        <ele>264.060302734375</ele>
        <time>2026-08-23T23:05:11Z</time>
      </trkpt>
      <trkpt lat="29.60192397408173" lon="106.32003408292631">
        <ele>261.250732421875</ele>
        <time>2026-08-23T23:05:23Z</time>
      </trkpt>
      <trkpt lat="29.602105977417605" lon="106.32000314846192">
        <ele>259.76971435546875</ele>
        <time>2026-08-23T23:05:41Z</time>
      </trkpt>
      <trkpt lat="29.602163913878037" lon="106.3200270857282">
        <ele>257.96807861328125</ele>
        <time>2026-08-23T23:05:47Z</time>
      </trkpt>
      <trkpt lat="29.602162490718978" lon="106.32024853773586">
        <ele>259.912841796875</ele>
        <time>2026-08-23T23:06:05Z</time>
      </trkpt>
      <trkpt lat="29.60218242735552" lon="106.32027846245134">
        <ele>260.545654296875</ele>
        <time>2026-08-23T23:06:08Z</time>
      </trkpt>
    </trkseg>
  </trk>
</gpx>