<?xml version="1.0" encoding="UTF-8"?>
<gpx xmlns="http://www.topografix.com/GPX/1/1" xmlns:gpxtpx="http://www.garmin.com/xmlschemas/TrackPointExtension/v1" xmlns:xsi="http://www.w3.org/2001/XMLSchema-instance" xsi:schemaLocation="http://www.topografix.com/GPX/1/1 http://www.topografix.com/GPX/1/1/gpx.xsd" version="1.1" creator="gpx.py -- https://github.com/tkrajina/gpxpy">
  <trk>
    <name>gpx from keep</name>
    <type>Walk</type>
    <trkseg>
      <trkpt lat="29.602438321919227" lon="106.31976970584304">
        <ele>264.379150390625</ele>
        <time>2026-08-13T23:11:12Z</time>
      </trkpt>
      <trkpt lat="29.60246147308921" lon="106.31968690919912">
        <ele>263.0364990234375</ele>
        <time>2026-08-13T23:11:18Z</time>
      </trkpt>
      <trkpt lat="29.602466643082018" lon="106.31959713086995">
        <ele>262.06536865234375</ele>
        <time>2026-08-13T23:11:24Z</time>
      </trkpt>
      <trkpt lat="29.602505741671507" lon="106.31953927154554">
        <ele>261.0885009765625</ele>
        <time>2026-08-13T23:11:30Z</time>
      </trkpt>
      <trkpt lat="29.60263378445397" lon="106.31949636985347">
        <ele>256.269287109375</ele>
        <time>2026-08-13T23:11:42Z</time>
      </trkpt>
      <trkpt lat="29.602808753826668" lon="106.31948438888766">
        <ele>253.1805419921875</ele>
        <time>2026-08-13T23:12:00Z</time>
      </trkpt>
      <trkpt lat="29.602875779081685" lon="106.3194604440197">
        <ele>251.59100341796875</ele>
        <time>2026-08-13T23:12:06Z</time>
      </trkpt>
      <trkpt lat="29.60292385586269" lon="106.31941255946106">
        <ele>249.47137451171875</ele>
        <time>2026-08-13T23:12:12Z</time>
      </trkpt>
      <trkpt lat="29.60294907679514" lon="106.31929285374103">
        <ele>249.8946533203125</ele>
        <time>2026-08-13T23:12:24Z</time>
      </trkpt>
      <trkpt lat="29.602952806912892" lon="106.31890979956262">
        <ele>251.7510986328125</ele>
        <time>2026-08-13T23:12:54Z</time>
      </trkpt>
      <trkpt lat="29.6029314984173" lon="106.31855068701557">
        <ele>255.28802490234375</ele>
        <time>2026-08-13T23:13:24Z</time>
      </trkpt>
      <trkpt lat="29.60295004983501" lon="106.31825840657386">
        <ele>254.283935546875</ele>
        <time>2026-08-13T23:13:48Z</time>
      </trkpt>
      <trkpt lat="29.602927347512814" lon="106.3181057840589">
        <ele>250.6295166015625</ele>
        <time>2026-08-13T23:14:00Z</time>
      </trkpt>
      <trkpt lat="29.60292950073211" lon="106.31802498298975">
        <ele>250.83514404296875</ele>
        <time>2026-08-13T23:14:06Z</time>
      </trkpt>
      <trkpt lat="29.6029697657098" lon="106.3178793392569">
        <ele>253.3642578125</ele>
        <time>2026-08-13T23:14:18Z</time>
      </trkpt>
      <trkpt lat="29.602966370310224" lon="106.31756212024253">
        <ele>255.10693359375</ele>
        <time>2026-08-13T23:14:42Z</time>
      </trkpt>
      <trkpt lat="29.602960777894115" lon="106.31734864562507">
        <ele>254.043212890625</ele>
        <time>2026-08-13T23:15:00Z</time>
      </trkpt>
      <trkpt lat="29.602970903719566" lon="106.31728081178507">
        <ele>252.14501953125</ele>
        <time>2026-08-13T23:15:06Z</time>
      </trkpt>
      <trkpt lat="29.602958059279647" lon="106.31720100871763">
        <ele>252.0521240234375</ele>
        <time>2026-08-13T23:15:12Z</time>
      </trkpt>
      <trkpt lat="29.60297435178693" lon="106.31704439256387">
        <ele>251.67047119140625</ele>
        <time>2026-08-13T23:15:24Z</time>
      </trkpt>
      <trkpt lat="29.602952076144362" lon="106.31666632214156">
        <ele>252.2769775390625</ele>
        <time>2026-08-13T23:15:54Z</time>
      </trkpt>
      <trkpt lat="29.602946212265262" lon="106.31659549626598">
        <ele>253.75738525390625</ele>
        <time>2026-08-13T23:16:00Z</time>
      </trkpt>
      <trkpt lat="29.60292233116406" lon="106.31653664207674">
        <ele>253.765380859375</ele>
        <time>2026-08-13T23:16:06Z</time>
      </trkpt>
      <trkpt lat="29.602828539479972" lon="106.31644188013405">
        <ele>254.6151123046875</ele>
        <time>2026-08-13T23:16:18Z</time>
      </trkpt>
      <trkpt lat="29.60270063530299" lon="106.31641196121643">
        <ele>255.67626953125</ele>
        <time>2026-08-13T23:16:30Z</time>
      </trkpt>
      <trkpt lat="29.602636613286638" lon="106.31643391126433">
        <ele>256.1580810546875</ele>
        <time>2026-08-13T23:16:36Z</time>
      </trkpt>
      <trkpt lat="29.60255344016498" lon="106.31653865940767">
        <ele>255.35968017578125</ele>
        <time>2026-08-13T23:16:48Z</time>
      </trkpt>
      <trkpt lat="29.602533302561753" lon="106.31661447464482">
        <ele>256.230224609375</ele>
        <time>2026-08-13T23:16:54Z</time>
      </trkpt>
      <trkpt lat="29.60254883980291" lon="106.31685588122956">
        <ele>256.154052734375</ele>
        <time>2026-08-13T23:17:12Z</time>
      </trkpt>
      <trkpt lat="29.602586373766187" lon="106.31709529095535">
        <ele>254.8663330078125</ele>
        <time>2026-08-13T23:17:30Z</time>
      </trkpt>
      <trkpt lat="29.602559095955925" lon="106.31724592242742">
        <ele>254.2484130859375</ele>
        <time>2026-08-13T23:17:42Z</time>
      </trkpt>
      <trkpt lat="29.60245573889623" lon="106.31745042584768">
        <ele>254.7620849609375</ele>
        <time>2026-08-13T23:18:00Z</time>
      </trkpt>
      <trkpt lat="29.602331647906336" lon="106.31751826647702">
        <ele>254.8875732421875</ele>
        <time>2026-08-13T23:18:12Z</time>
      </trkpt>
      <trkpt lat="29.60199967185284" lon="106.31755918586987">
        <ele>255.09613037109375</ele>
        <time>2026-08-13T23:18:42Z</time>
      </trkpt>
      <trkpt lat="29.601935647850507" lon="106.31758213328087">
        <ele>256.12005615234375</ele>
        <time>2026-08-13T23:18:48Z</time>
      </trkpt>
      <trkpt lat="29.601892551018206" lon="106.31763999351598">
        <ele>257.10833740234375</ele>
        <time>2026-08-13T23:18:54Z</time>
      </trkpt>
      <trkpt lat="29.60187043444883" lon="106.31770483527806">
        <ele>254.54180908203125</ele>
        <time>2026-08-13T23:19:00Z</time>
      </trkpt>
      <trkpt lat="29.60186482287941" lon="106.31802704225768">
        <ele>255.59259033203125</ele>
        <time>2026-08-13T23:19:24Z</time>
      </trkpt>
      <trkpt lat="29.601872182109037" lon="106.31836221581699">
        <ele>256.044677734375</ele>
        <time>2026-08-13T23:19:48Z</time>
      </trkpt>
      <trkpt lat="29.60188657290847" lon="106.31867943256738">
        <ele>254.79449462890625</ele>
        <time>2026-08-13T23:20:12Z</time>
      </trkpt>
      <trkpt lat="29.60189396922083" lon="106.31899465407731">
        <ele>253.27789306640625</ele>
        <time>2026-08-13T23:20:36Z</time>
      </trkpt>
      <trkpt lat="29.601890473241053" lon="106.31925501124508">
        <ele>256.0828857421875</ele>
        <time>2026-08-13T23:20:54Z</time>
      </trkpt>
      <trkpt lat="29.601918335150287" lon="106.31932284196847">
        <ele>255.43328857421875</ele>
        <time>2026-08-13T23:21:00Z</time>
      </trkpt>
      <trkpt lat="29.601929044137357" lon="106.31947346907417">
        <ele>254.41326904296875</ele>
        <time>2026-08-13T23:21:12Z</time>
      </trkpt>
      <trkpt lat="29.601919597170514" lon="106.31970888761964">
        <ele>254.30535888671875</ele>
        <time>2026-08-13T23:21:30Z</time>
      </trkpt>
      <trkpt lat="29.601936447088296" lon="106.31978469911292">
        <ele>253.9345703125</ele>
        <time>2026-08-13T23:21:36Z</time>
      </trkpt>
      <trkpt lat="29.601930991006906" lon="106.32002410718616">
        <ele>256.4752197265625</ele>
        <time>2026-08-13T23:21:54Z</time>
      </trkpt>
      <trkpt lat="29.602011958546885" lon="106.32002809242789">
        <ele>255.734130859375</ele>
        <time>2026-08-13T23:22:00Z</time>
      </trkpt>
      <trkpt lat="29.60214597851195" lon="106.31999616332585">
        <ele>256.9285888671875</ele>
        <time>2026-08-13T23:22:12Z</time>
      </trkpt>
      <trkpt lat="29.602199956249613" lon="106.31999915266466">
        <ele>259.0714111328125</ele>
        <time>2026-08-13T23:22:18Z</time>
      </trkpt>
      <trkpt lat="29.602204813587562" lon="106.32007296971312">
        <ele>257.595458984375</ele>
        <time>2026-08-13T23:22:24Z</time>
      </trkpt>
      <trkpt lat="29.60213569548274" lon="106.3201457936688">
        <ele>259.500244140625</ele>
        <time>2026-08-13T23:22:30Z</time>
      </trkpt>
      <trkpt lat="29.60217058747262" lon="106.32019666564588">
        <ele>261.8095703125</ele>
        <time>2026-08-13T23:22:36Z</time>
      </trkpt>
      <trkpt lat="29.60225456937664" lon="106.3201926704549">
        <ele>261.111083984375</ele>
        <time>2026-08-13T23:22:42Z</time>
      </trkpt>
      <trkpt lat="29.602273653216084" lon="106.32014578534486">
        <ele>260.927734375</ele>
        <time>2026-08-13T23:22:45Z</time>
      </trkpt>
      <trkpt lat="29.60222167295501" lon="106.32014379341891">
        <ele>261.06005859375</ele>
        <time>2026-08-13T23:22:48Z</time>
      </trkpt>
      <trkpt lat="29.60218956257566" lon="106.32020663980985">
        <ele>261.027099609375</ele>
        <time>2026-08-13T23:22:54Z</time>
      </trkpt>
      <trkpt lat="29.60230656490085" lon="106.32018668213195">
        <ele>266.0126953125</ele>
        <time>2026-08-13T23:23:09Z</time>
      </trkpt>
      <trkpt lat="29.602355576607522" lon="106.32017271374089">
        <ele>266.0126953125</ele>
        <time>2026-08-13T23:23:42Z</time>
      </trkpt>
      <trkpt lat="29.602317651189697" lon="106.32013979750324">
        <ele>266.0123291015625</ele>
        <time>2026-08-13T23:23:48Z</time>
      </trkpt>
      <trkpt lat="29.60240848980204" lon="106.32020961919265">
        <ele>0.0</ele>
        <time>2026-08-13T23:26:03Z</time>
      </trkpt>
    </trkseg>
  </trk>
</gpx>