<?xml version="1.0" encoding="UTF-8"?>
<gpx xmlns="http://www.topografix.com/GPX/1/1" xmlns:gpxtpx="http://www.garmin.com/xmlschemas/TrackPointExtension/v1" xmlns:xsi="http://www.w3.org/2001/XMLSchema-instance" xsi:schemaLocation="http://www.topografix.com/GPX/1/1 http://www.topografix.com/GPX/1/1/gpx.xsd" version="1.1" creator="gpx.py -- https://github.com/tkrajina/gpxpy">
  <trk>
    <name>gpx from keep</name>
    <type>Walk</type>
    <trkseg>
      <trkpt lat="29.60229571771278" lon="106.31748734471022">
        <ele>252.4710693359375</ele>
        <time>2026-09-01T23:02:48Z</time>
      </trkpt>
      <trkpt lat="29.602075659939338" lon="106.31755319601493">
        <ele>256.728515625</ele>
        <time>2026-09-01T23:03:06Z</time>
      </trkpt>
      <trkpt lat="29.601999694611475" lon="106.31754721531807">
        <ele>255.85791015625</ele>
        <time>2026-09-01T23:03:12Z</time>
      </trkpt>
      <trkpt lat="29.60193966938416" lon="106.31757016248994">
        <ele>256.01904296875</ele>
        <time>2026-09-01T23:03:18Z</time>
      </trkpt>
      <trkpt lat="29.601897568454714" lon="106.31763001776042">
        <ele>257.6173095703125</ele>
        <time>2026-09-01T23:03:24Z</time>
      </trkpt>
      <trkpt lat="29.60188243266601" lon="106.31770383701001">
        <ele>258.97412109375</ele>
        <time>2026-09-01T23:03:30Z</time>
      </trkpt>
      <trkpt lat="29.601893986770047" lon="106.31793626408437">
        <ele>260.88433837890625</ele>
        <time>2026-09-01T23:03:48Z</time>
      </trkpt>
      <trkpt lat="29.601852456173038" lon="106.31822156371574">
        <ele>259.832275390625</ele>
        <time>2026-09-01T23:04:12Z</time>
      </trkpt>
      <trkpt lat="29.601876015517956" lon="106.31844900159807">
        <ele>257.44775390625</ele>
        <time>2026-09-01T23:04:30Z</time>
      </trkpt>
      <trkpt lat="29.6018842938863" lon="106.31882607083716">
        <ele>257.4925537109375</ele>
        <time>2026-09-01T23:05:00Z</time>
      </trkpt>
      <trkpt lat="29.60187960990922" lon="106.31918518440004">
        <ele>257.902587890625</ele>
        <time>2026-09-01T23:05:24Z</time>
      </trkpt>
      <trkpt lat="29.60193228895521" lon="106.31934478689935">
        <ele>257.71978759765625</ele>
        <time>2026-09-01T23:05:36Z</time>
      </trkpt>
      <trkpt lat="29.60194066506479" lon="106.31966998254988">
        <ele>257.68084716796875</ele>
        <time>2026-09-01T23:06:00Z</time>
      </trkpt>
      <trkpt lat="29.601941359767594" lon="106.31982958778939">
        <ele>257.77947998046875</ele>
        <time>2026-09-01T23:06:12Z</time>
      </trkpt>
      <trkpt lat="29.60192507866413" lon="106.3199792186115">
        <ele>257.5177001953125</ele>
        <time>2026-09-01T23:06:24Z</time>
      </trkpt>
      <trkpt lat="29.601977087512136" lon="106.31996624755843">
        <ele>257.82281494140625</ele>
        <time>2026-09-01T23:06:30Z</time>
      </trkpt>
      <trkpt lat="29.602017185847657" lon="106.319908388277">
        <ele>257.7813720703125</ele>
        <time>2026-09-01T23:06:36Z</time>
      </trkpt>
      <trkpt lat="29.60208322091495" lon="106.31987945585607">
        <ele>258.22119140625</ele>
        <time>2026-09-01T23:06:43Z</time>
      </trkpt>
      <trkpt lat="29.60215719442936" lon="106.31988144645798">
        <ele>257.7855224609375</ele>
        <time>2026-09-01T23:06:48Z</time>
      </trkpt>
      <trkpt lat="29.60222621905354" lon="106.31985750151556">
        <ele>257.322021484375</ele>
        <time>2026-09-01T23:06:54Z</time>
      </trkpt>
      <trkpt lat="29.602391181883817" lon="106.31985050883594">
        <ele>255.3089599609375</ele>
        <time>2026-09-01T23:07:06Z</time>
      </trkpt>
      <trkpt lat="29.60243329676122" lon="106.31978367160632">
        <ele>256.083251953125</ele>
        <time>2026-09-01T23:07:12Z</time>
      </trkpt>
      <trkpt lat="29.60242960485558" lon="106.31962306898004">
        <ele>258.6141357421875</ele>
        <time>2026-09-01T23:07:24Z</time>
      </trkpt>
      <trkpt lat="29.602468735842276" lon="106.31954825158398">
        <ele>260.57763671875</ele>
        <time>2026-09-01T23:07:30Z</time>
      </trkpt>
      <trkpt lat="29.60253578775047" lon="106.31951034124384">
        <ele>260.9979248046875</ele>
        <time>2026-09-01T23:07:36Z</time>
      </trkpt>
      <trkpt lat="29.602812663054635" lon="106.31953127275887">
        <ele>255.94976806640625</ele>
        <time>2026-09-01T23:07:57Z</time>
      </trkpt>
      <trkpt lat="29.60291583163627" lon="106.31942652543006">
        <ele>254.481201171875</ele>
        <time>2026-09-01T23:08:06Z</time>
      </trkpt>
      <trkpt lat="29.602932000089872" lon="106.31933574878424">
        <ele>255.407958984375</ele>
        <time>2026-09-01T23:08:12Z</time>
      </trkpt>
      <trkpt lat="29.602919651418645" lon="106.31899658729424">
        <ele>253.52569580078125</ele>
        <time>2026-09-01T23:08:37Z</time>
      </trkpt>
      <trkpt lat="29.602924110676227" lon="106.31875518292927">
        <ele>253.0421142578125</ele>
        <time>2026-09-01T23:08:55Z</time>
      </trkpt>
      <trkpt lat="29.60289570333193" lon="106.31844894011682">
        <ele>253.48974609375</ele>
        <time>2026-09-01T23:09:16Z</time>
      </trkpt>
      <trkpt lat="29.60293230419929" lon="106.31812772968703">
        <ele>252.319091796875</ele>
        <time>2026-09-01T23:09:40Z</time>
      </trkpt>
      <trkpt lat="29.602943794529775" lon="106.3178683678418">
        <ele>251.6485595703125</ele>
        <time>2026-09-01T23:09:58Z</time>
      </trkpt>
      <trkpt lat="29.6029659567285" lon="106.31777958508758">
        <ele>250.5902099609375</ele>
        <time>2026-09-01T23:10:04Z</time>
      </trkpt>
      <trkpt lat="29.602953465310897" lon="106.31751423881498">
        <ele>250.77386474609375</ele>
        <time>2026-09-01T23:10:22Z</time>
      </trkpt>
      <trkpt lat="29.602998749231364" lon="106.31735762126168">
        <ele>251.96435546875</ele>
        <time>2026-09-01T23:10:34Z</time>
      </trkpt>
      <trkpt lat="29.603010422222393" lon="106.31700149575799">
        <ele>252.09234619140625</ele>
        <time>2026-09-01T23:10:58Z</time>
      </trkpt>
      <trkpt lat="29.602999605441894" lon="106.31690672915097">
        <ele>254.6536865234375</ele>
        <time>2026-09-01T23:11:04Z</time>
      </trkpt>
      <trkpt lat="29.603007775238694" lon="106.31681595153778">
        <ele>250.624755859375</ele>
        <time>2026-09-01T23:11:10Z</time>
      </trkpt>
      <trkpt lat="29.602961323035164" lon="106.3165346446211">
        <ele>253.893310546875</ele>
        <time>2026-09-01T23:11:28Z</time>
      </trkpt>
      <trkpt lat="29.60285455043865" lon="106.31643190302681">
        <ele>254.3677978515625</ele>
        <time>2026-09-01T23:11:37Z</time>
      </trkpt>
      <trkpt lat="29.60278164267637" lon="106.31639499791342">
        <ele>252.80609130859375</ele>
        <time>2026-09-01T23:11:43Z</time>
      </trkpt>
      <trkpt lat="29.602724677106433" lon="106.3163860233557">
        <ele>252.501220703125</ele>
        <time>2026-09-01T23:11:49Z</time>
      </trkpt>
      <trkpt lat="29.602657648448726" lon="106.3164119638061">
        <ele>252.76214599609375</ele>
        <time>2026-09-01T23:11:52Z</time>
      </trkpt>
      <trkpt lat="29.602591570338607" lon="106.31646384059593">
        <ele>253.90460205078125</ele>
        <time>2026-09-01T23:11:58Z</time>
      </trkpt>
      <trkpt lat="29.602538452316395" lon="106.31653467009761">
        <ele>254.27178955078125</ele>
        <time>2026-09-01T23:12:04Z</time>
      </trkpt>
      <trkpt lat="29.602518307150245" lon="106.31661447554828">
        <ele>253.898681640625</ele>
        <time>2026-09-01T23:12:10Z</time>
      </trkpt>
      <trkpt lat="29.602521007334875" lon="106.31677208861039">
        <ele>253.03289794921875</ele>
        <time>2026-09-01T23:12:22Z</time>
      </trkpt>
      <trkpt lat="29.602585624040472" lon="106.31696361445971">
        <ele>251.916259765625</ele>
        <time>2026-09-01T23:12:37Z</time>
      </trkpt>
      <trkpt lat="29.602597463204955" lon="106.31704641037386">
        <ele>250.8851318359375</ele>
        <time>2026-09-01T23:12:43Z</time>
      </trkpt>
      <trkpt lat="29.602535991182048" lon="106.31730477913914">
        <ele>249.4798583984375</ele>
        <time>2026-09-01T23:13:01Z</time>
      </trkpt>
      <trkpt lat="29.602480871537235" lon="106.31737660586846">
        <ele>249.98309326171875</ele>
        <time>2026-09-01T23:13:07Z</time>
      </trkpt>
      <trkpt lat="29.602310764315934" lon="106.31746041005046">
        <ele>256.63873291015625</ele>
        <time>2026-09-01T23:13:19Z</time>
      </trkpt>
      <trkpt lat="29.602005780006753" lon="106.31750132783232">
        <ele>259.4256591796875</ele>
        <time>2026-09-01T23:13:40Z</time>
      </trkpt>
      <trkpt lat="29.601910663102874" lon="106.31757814460398">
        <ele>260.7735595703125</ele>
        <time>2026-09-01T23:13:52Z</time>
      </trkpt>
      <trkpt lat="29.601868571657313" lon="106.31763301214414">
        <ele>259.296142578125</ele>
        <time>2026-09-01T23:13:58Z</time>
      </trkpt>
      <trkpt lat="29.601831304095793" lon="106.31777965348131">
        <ele>257.01904296875</ele>
        <time>2026-09-01T23:14:10Z</time>
      </trkpt>
      <trkpt lat="29.601841812842927" lon="106.31803602152912">
        <ele>257.57379150390625</ele>
        <time>2026-09-01T23:14:28Z</time>
      </trkpt>
      <trkpt lat="29.60183265986971" lon="106.31811782055898">
        <ele>257.795654296875</ele>
        <time>2026-09-01T23:14:34Z</time>
      </trkpt>
      <trkpt lat="29.601865309681457" lon="106.31829637853613">
        <ele>257.7196044921875</ele>
        <time>2026-09-01T23:14:46Z</time>
      </trkpt>
      <trkpt lat="29.60185303777925" lon="106.31844102266241">
        <ele>257.79095458984375</ele>
        <time>2026-09-01T23:14:55Z</time>
      </trkpt>
      <trkpt lat="29.601718573090714" lon="106.31870637624152">
        <ele>260.25201416015625</ele>
        <time>2026-09-01T23:15:19Z</time>
      </trkpt>
      <trkpt lat="29.601661484060795" lon="106.31876224183584">
        <ele>255.5438232421875</ele>
        <time>2026-09-01T23:15:25Z</time>
      </trkpt>
      <trkpt lat="29.601580512731292" lon="106.3187602516419">
        <ele>255.230712890625</ele>
        <time>2026-09-01T23:15:31Z</time>
      </trkpt>
      <trkpt lat="29.60151346291673" lon="106.31879716459747">
        <ele>253.60595703125</ele>
        <time>2026-09-01T23:15:37Z</time>
      </trkpt>
      <trkpt lat="29.601375640374954" lon="106.3187263476907">
        <ele>251.86224365234375</ele>
        <time>2026-09-01T23:15:49Z</time>
      </trkpt>
      <trkpt lat="29.601318604629565" lon="106.3187542822051">
        <ele>252.5029296875</ele>
        <time>2026-09-01T23:15:55Z</time>
      </trkpt>
      <trkpt lat="29.601297493134034" lon="106.31881613084299">
        <ele>253.24383544921875</ele>
        <time>2026-09-01T23:16:01Z</time>
      </trkpt>
      <trkpt lat="29.601313318872112" lon="106.31890491074518">
        <ele>252.18927001953125</ele>
        <time>2026-09-01T23:16:07Z</time>
      </trkpt>
      <trkpt lat="29.60131016754653" lon="106.3189847139143">
        <ele>253.54486083984375</ele>
        <time>2026-09-01T23:16:13Z</time>
      </trkpt>
      <trkpt lat="29.601354858662038" lon="106.31913932939044">
        <ele>254.44122314453125</ele>
        <time>2026-09-01T23:16:22Z</time>
      </trkpt>
      <trkpt lat="29.601375618000347" lon="106.31926202504617">
        <ele>254.56201171875</ele>
        <time>2026-09-01T23:16:31Z</time>
      </trkpt>
      <trkpt lat="29.60142253880843" lon="106.3192959384204">
        <ele>253.9017333984375</ele>
        <time>2026-09-01T23:16:37Z</time>
      </trkpt>
      <trkpt lat="29.60133962906324" lon="106.31926202721675">
        <ele>254.267822265625</ele>
        <time>2026-09-01T23:16:52Z</time>
      </trkpt>
      <trkpt lat="29.601361098579794" lon="106.31901264187714">
        <ele>255.0714111328125</ele>
        <time>2026-09-01T23:17:10Z</time>
      </trkpt>
      <trkpt lat="29.60136039956891" lon="106.31885503102596">
        <ele>254.65411376953125</ele>
        <time>2026-09-01T23:17:22Z</time>
      </trkpt>
      <trkpt lat="29.60138152629585" lon="106.3187852020961">
        <ele>253.5572509765625</ele>
        <time>2026-09-01T23:17:28Z</time>
      </trkpt>
      <trkpt lat="29.60137786228434" lon="106.31860963551479">
        <ele>252.18670654296875</ele>
        <time>2026-09-01T23:17:40Z</time>
      </trkpt>
      <trkpt lat="29.60143099241475" lon="106.3185328217784">
        <ele>251.10687255859375</ele>
        <time>2026-09-01T23:17:46Z</time>
      </trkpt>
      <trkpt lat="29.601481016982138" lon="106.31851187042899">
        <ele>249.9871826171875</ele>
        <time>2026-09-01T23:17:52Z</time>
      </trkpt>
      <trkpt lat="29.60142000720201" lon="106.31852683720294">
        <ele>252.196533203125</ele>
        <time>2026-09-01T23:18:58Z</time>
      </trkpt>
      <trkpt lat="29.601383919389953" lon="106.31857871143272">
        <ele>252.162109375</ele>
        <time>2026-09-01T23:19:04Z</time>
      </trkpt>
      <trkpt lat="29.60137474529495" lon="106.3186714831195">
        <ele>252.6331787109375</ele>
        <time>2026-09-01T23:19:10Z</time>
      </trkpt>
      <trkpt lat="29.6014286031666" lon="106.31873731742002">
        <ele>252.44580078125</ele>
        <time>2026-09-01T23:19:16Z</time>
      </trkpt>
      <trkpt lat="29.60156846314929" lon="106.31878818343806">
        <ele>253.2540283203125</ele>
        <time>2026-09-01T23:19:28Z</time>
      </trkpt>
      <trkpt lat="29.601613527329533" lon="106.318747281653">
        <ele>251.3946533203125</ele>
        <time>2026-09-01T23:19:34Z</time>
      </trkpt>
      <trkpt lat="29.60168043637705" lon="106.31878418653345">
        <ele>252.189453125</ele>
        <time>2026-09-01T23:19:43Z</time>
      </trkpt>
      <trkpt lat="29.60174428926544" lon="106.31885101772546">
        <ele>250.839599609375</ele>
        <time>2026-09-01T23:19:49Z</time>
      </trkpt>
      <trkpt lat="29.60183225656031" lon="106.318854005034">
        <ele>252.8704833984375</ele>
        <time>2026-09-01T23:19:55Z</time>
      </trkpt>
      <trkpt lat="29.601893940670827" lon="106.31900961713261">
        <ele>253.31756591796875</ele>
        <time>2026-09-01T23:20:07Z</time>
      </trkpt>
      <trkpt lat="29.60188259756469" lon="106.31919116943517">
        <ele>254.05328369140625</ele>
        <time>2026-09-01T23:20:19Z</time>
      </trkpt>
      <trkpt lat="29.60192527776853" lon="106.3193517700675">
        <ele>252.2294921875</ele>
        <time>2026-09-01T23:20:31Z</time>
      </trkpt>
      <trkpt lat="29.60193478887513" lon="106.3196061407566">
        <ele>250.87799072265625</ele>
        <time>2026-09-01T23:20:49Z</time>
      </trkpt>
      <trkpt lat="29.601962625918954" lon="106.31968693929218">
        <ele>251.52362060546875</ele>
        <time>2026-09-01T23:20:55Z</time>
      </trkpt>
      <trkpt lat="29.6020184696076" lon="106.31975975584231">
        <ele>253.43463134765625</ele>
        <time>2026-09-01T23:21:01Z</time>
      </trkpt>
      <trkpt lat="29.602032097350257" lon="106.31995227879153">
        <ele>253.71014404296875</ele>
        <time>2026-09-01T23:21:13Z</time>
      </trkpt>
      <trkpt lat="29.60208694700464" lon="106.3200221027134">
        <ele>255.65673828125</ele>
        <time>2026-09-01T23:21:19Z</time>
      </trkpt>
      <trkpt lat="29.602129935736723" lon="106.32002110258803">
        <ele>255.433349609375</ele>
        <time>2026-09-01T23:21:22Z</time>
      </trkpt>
    </trkseg>
  </trk>
</gpx>