<?xml version="1.0" encoding="UTF-8"?>
<gpx xmlns="http://www.topografix.com/GPX/1/1" xmlns:gpxtpx="http://www.garmin.com/xmlschemas/TrackPointExtension/v1" xmlns:xsi="http://www.w3.org/2001/XMLSchema-instance" xsi:schemaLocation="http://www.topografix.com/GPX/1/1 http://www.topografix.com/GPX/1/1/gpx.xsd" version="1.1" creator="gpx.py -- https://github.com/tkrajina/gpxpy">
  <trk>
    <name>gpx from keep</name>
    <type>Walk</type>
    <trkseg>
      <trkpt lat="29.572144050880336" lon="106.56606821501963">
        <ele>160.4669189453125</ele>
        <time>2026-09-29T23:38:55Z</time>
      </trkpt>
      <trkpt lat="29.572196069086903" lon="106.56609723795822">
        <ele>157.8511962890625</ele>
        <time>2026-09-29T23:39:01Z</time>
      </trkpt>
      <trkpt lat="29.57223712330575" lon="106.56615228472512">
        <ele>158.15228271484375</ele>
        <time>2026-09-29T23:39:07Z</time>
      </trkpt>
      <trkpt lat="29.572301148445487" lon="106.56619031485513">
        <ele>158.6790771484375</ele>
        <time>2026-09-29T23:39:13Z</time>
      </trkpt>
      <trkpt lat="29.572399108618757" lon="106.56618530465309">
        <ele>157.18243408203125</ele>
        <time>2026-09-29T23:39:25Z</time>
      </trkpt>
      <trkpt lat="29.572490183803712" lon="106.56627137575187">
        <ele>160.1712646484375</ele>
        <time>2026-09-29T23:39:43Z</time>
      </trkpt>
      <trkpt lat="29.572584147859963" lon="106.56626836757859">
        <ele>160.0042724609375</ele>
        <time>2026-09-29T23:39:55Z</time>
      </trkpt>
      <trkpt lat="29.572635156310294" lon="106.5662893831983">
        <ele>159.52276611328125</ele>
        <time>2026-09-29T23:40:07Z</time>
      </trkpt>
      <trkpt lat="29.572658208869065" lon="106.56633842518798">
        <ele>159.39874267578125</ele>
        <time>2026-09-29T23:40:13Z</time>
      </trkpt>
      <trkpt lat="29.572712139791417" lon="106.56629738576616">
        <ele>162.25823974609375</ele>
        <time>2026-09-29T23:41:49Z</time>
      </trkpt>
      <trkpt lat="29.57275610742834" lon="106.56628337078634">
        <ele>162.068359375</ele>
        <time>2026-09-29T23:42:10Z</time>
      </trkpt>
      <trkpt lat="29.572779040223395" lon="106.56623532685062">
        <ele>163.77288818359375</ele>
        <time>2026-09-29T23:42:19Z</time>
      </trkpt>
      <trkpt lat="29.572812981538455" lon="106.56619729105917">
        <ele>165.45001220703125</ele>
        <time>2026-09-29T23:42:34Z</time>
      </trkpt>
      <trkpt lat="29.572851016792416" lon="106.56623632351608">
        <ele>165.62396240234375</ele>
        <time>2026-09-29T23:42:46Z</time>
      </trkpt>
      <trkpt lat="29.57295897856555" lon="106.56623531629322">
        <ele>168.3065185546875</ele>
        <time>2026-09-29T23:43:07Z</time>
      </trkpt>
      <trkpt lat="29.572976911739335" lon="106.56618627164308">
        <ele>171.1912841796875</ele>
        <time>2026-09-29T23:43:16Z</time>
      </trkpt>
      <trkpt lat="29.5730230159759" lon="106.56628335512629">
        <ele>169.9163818359375</ele>
        <time>2026-09-29T23:43:34Z</time>
      </trkpt>
      <trkpt lat="29.57307699996018" lon="106.56628535373099">
        <ele>174.06414794921875</ele>
        <time>2026-09-29T23:43:52Z</time>
      </trkpt>
      <trkpt lat="29.573124961298692" lon="106.56626733496111">
        <ele>173.71954345703125</ele>
        <time>2026-09-29T23:44:25Z</time>
      </trkpt>
      <trkpt lat="29.573161892992882" lon="106.5662222928327">
        <ele>174.1961669921875</ele>
        <time>2026-09-29T23:44:31Z</time>
      </trkpt>
      <trkpt lat="29.57327984767329" lon="106.56621828235482">
        <ele>178.87896728515625</ele>
        <time>2026-09-29T23:44:43Z</time>
      </trkpt>
      <trkpt lat="29.57338787009915" lon="106.56626631864854">
        <ele>178.137939453125</ele>
        <time>2026-09-29T23:44:58Z</time>
      </trkpt>
      <trkpt lat="29.573419793610817" lon="106.56621326969618">
        <ele>179.405517578125</ele>
        <time>2026-09-29T23:45:07Z</time>
      </trkpt>
      <trkpt lat="29.573408729221104" lon="106.56615822133907">
        <ele>181.4344482421875</ele>
        <time>2026-09-29T23:45:13Z</time>
      </trkpt>
      <trkpt lat="29.573402804374012" lon="106.56621727425112">
        <ele>188.2095947265625</ele>
        <time>2026-09-29T23:45:31Z</time>
      </trkpt>
      <trkpt lat="29.573452824393488" lon="106.56624729797633">
        <ele>191.21185302734375</ele>
        <time>2026-09-29T23:45:40Z</time>
      </trkpt>
      <trkpt lat="29.573555789191786" lon="106.56624729193501">
        <ele>196.03863525390625</ele>
        <time>2026-09-29T23:45:52Z</time>
      </trkpt>
      <trkpt lat="29.57368680373801" lon="106.56629532680928">
        <ele>196.6790771484375</ele>
        <time>2026-09-29T23:46:04Z</time>
      </trkpt>
      <trkpt lat="29.5739646594287" lon="106.56625527504657">
        <ele>193.6640625</ele>
        <time>2026-09-29T23:46:28Z</time>
      </trkpt>
      <trkpt lat="29.574238556096063" lon="106.56624725187402">
        <ele>187.6011962890625</ele>
        <time>2026-09-29T23:46:52Z</time>
      </trkpt>
      <trkpt lat="29.574291549158104" lon="106.56625625675383">
        <ele>186.0899658203125</ele>
        <time>2026-09-29T23:46:58Z</time>
      </trkpt>
      <trkpt lat="29.574340502783077" lon="106.56623223256781">
        <ele>184.0208740234375</ele>
        <time>2026-09-29T23:47:07Z</time>
      </trkpt>
      <trkpt lat="29.574431377637712" lon="106.56615615954999">
        <ele>185.417236328125</ele>
        <time>2026-09-29T23:47:23Z</time>
      </trkpt>
      <trkpt lat="29.574499253865195" lon="106.56607508310663">
        <ele>189.4468994140625</ele>
        <time>2026-09-29T23:47:35Z</time>
      </trkpt>
      <trkpt lat="29.574545223271713" lon="106.56606306964612">
        <ele>197.38323974609375</ele>
        <time>2026-09-29T23:47:41Z</time>
      </trkpt>
      <trkpt lat="29.574593236783084" lon="106.56608708834784">
        <ele>198.536865234375</ele>
        <time>2026-09-29T23:47:47Z</time>
      </trkpt>
      <trkpt lat="29.574619470799295" lon="106.56628326145582">
        <ele>193.69696044921875</ele>
        <time>2026-09-29T23:47:59Z</time>
      </trkpt>
      <trkpt lat="29.574659544750325" lon="106.56635432188952">
        <ele>194.494384765625</ele>
        <time>2026-09-29T23:48:05Z</time>
      </trkpt>
      <trkpt lat="29.574799572171518" lon="106.56641536741148">
        <ele>196.7481689453125</ele>
        <time>2026-09-29T23:48:26Z</time>
      </trkpt>
      <trkpt lat="29.57494248172332" lon="106.56638132909704">
        <ele>208.51153564453125</ele>
        <time>2026-09-29T23:48:53Z</time>
      </trkpt>
      <trkpt lat="29.574993420054845" lon="106.56634529435459">
        <ele>206.5888671875</ele>
        <time>2026-09-29T23:48:59Z</time>
      </trkpt>
      <trkpt lat="29.575122340461796" lon="106.56631626116294">
        <ele>204.6910400390625</ele>
        <time>2026-09-29T23:49:08Z</time>
      </trkpt>
      <trkpt lat="29.57519733717646" lon="106.56633427267386">
        <ele>204.81292724609375</ele>
        <time>2026-09-29T23:49:14Z</time>
      </trkpt>
      <trkpt lat="29.575247302932247" lon="106.56632025736785">
        <ele>207.07275390625</ele>
        <time>2026-09-29T23:49:20Z</time>
      </trkpt>
      <trkpt lat="29.57524809355231" lon="106.56615110716403">
        <ele>216.92974853515625</ele>
        <time>2026-09-29T23:49:32Z</time>
      </trkpt>
      <trkpt lat="29.575297064504053" lon="106.56614109536012">
        <ele>213.4732666015625</ele>
        <time>2026-09-29T23:49:38Z</time>
      </trkpt>
      <trkpt lat="29.5752453418216" lon="106.56635128486955">
        <ele>218.47540283203125</ele>
        <time>2026-09-29T23:49:53Z</time>
      </trkpt>
      <trkpt lat="29.575259451446772" lon="106.56644436590933">
        <ele>216.3179931640625</ele>
        <time>2026-09-29T23:50:02Z</time>
      </trkpt>
      <trkpt lat="29.5752995016538" lon="106.56649640914371">
        <ele>215.986328125</ele>
        <time>2026-09-29T23:50:08Z</time>
      </trkpt>
      <trkpt lat="29.575420471604353" lon="106.56650540992139">
        <ele>217.0849609375</ele>
        <time>2026-09-29T23:50:20Z</time>
      </trkpt>
      <trkpt lat="29.57551537191263" lon="106.5664503561596">
        <ele>218.27099609375</ele>
        <time>2026-09-29T23:50:32Z</time>
      </trkpt>
      <trkpt lat="29.57563235921998" lon="106.56647236859098">
        <ele>249.17816162109375</ele>
        <time>2026-09-29T23:50:44Z</time>
      </trkpt>
      <trkpt lat="29.57570731783661" lon="106.56645935279356">
        <ele>234.5870361328125</ele>
        <time>2026-09-29T23:50:50Z</time>
      </trkpt>
      <trkpt lat="29.57590397384128" lon="106.56623414260481">
        <ele>205.9039306640625</ele>
        <time>2026-09-29T23:51:11Z</time>
      </trkpt>
      <trkpt lat="29.575949922365833" lon="106.56620511411828">
        <ele>205.3402099609375</ele>
        <time>2026-09-29T23:51:17Z</time>
      </trkpt>
      <trkpt lat="29.576242798386513" lon="106.56618507912111">
        <ele>221.6600341796875</ele>
        <time>2026-09-29T23:51:47Z</time>
      </trkpt>
      <trkpt lat="29.576379752036317" lon="106.56618507108463">
        <ele>218.57952880859375</ele>
        <time>2026-09-29T23:51:59Z</time>
      </trkpt>
      <trkpt lat="29.576505752770416" lon="106.56622009484735">
        <ele>230.9031982421875</ele>
        <time>2026-09-29T23:52:11Z</time>
      </trkpt>
      <trkpt lat="29.576648797134514" lon="106.56629515300861">
        <ele>221.2589111328125</ele>
        <time>2026-09-29T23:52:23Z</time>
      </trkpt>
      <trkpt lat="29.576722754847548" lon="106.56628113626672">
        <ele>226.59100341796875</ele>
        <time>2026-09-29T23:52:29Z</time>
      </trkpt>
      <trkpt lat="29.576759699099302" lon="106.56624610305035">
        <ele>223.43218994140625</ele>
        <time>2026-09-29T23:52:35Z</time>
      </trkpt>
      <trkpt lat="29.576842706907637" lon="106.56627512390968">
        <ele>228.3087158203125</ele>
        <time>2026-09-29T23:52:41Z</time>
      </trkpt>
      <trkpt lat="29.577004771831845" lon="106.5663722001535">
        <ele>229.60772705078125</ele>
        <time>2026-09-29T23:52:59Z</time>
      </trkpt>
      <trkpt lat="29.577221625924512" lon="106.56631313532544">
        <ele>232.22479248046875</ele>
        <time>2026-09-29T23:53:17Z</time>
      </trkpt>
      <trkpt lat="29.577318458505335" lon="106.56620403292129">
        <ele>233.3792724609375</ele>
        <time>2026-09-29T23:53:26Z</time>
      </trkpt>
      <trkpt lat="29.577441355083913" lon="106.5661539811402">
        <ele>230.78375244140625</ele>
        <time>2026-09-29T23:53:35Z</time>
      </trkpt>
      <trkpt lat="29.577487273780775" lon="106.56610093106401">
        <ele>228.55780029296875</ele>
        <time>2026-09-29T23:53:38Z</time>
      </trkpt>
      <trkpt lat="29.577533230934325" lon="106.5660789086575">
        <ele>226.29937744140625</ele>
        <time>2026-09-29T23:53:41Z</time>
      </trkpt>
      <trkpt lat="29.577572151821403" lon="106.56602585879072">
        <ele>220.5196533203125</ele>
        <time>2026-09-29T23:53:44Z</time>
      </trkpt>
      <trkpt lat="29.577615114905875" lon="106.56600784007695">
        <ele>218.83203125</ele>
        <time>2026-09-29T23:53:47Z</time>
      </trkpt>
      <trkpt lat="29.577761134264925" lon="106.56606288093354">
        <ele>214.2652587890625</ele>
        <time>2026-09-29T23:53:59Z</time>
      </trkpt>
      <trkpt lat="29.577812182995235" lon="106.56611592542141">
        <ele>212.9625244140625</ele>
        <time>2026-09-29T23:54:02Z</time>
      </trkpt>
      <trkpt lat="29.577878183140836" lon="106.56613393764242">
        <ele>215.27825927734375</ele>
        <time>2026-09-29T23:54:08Z</time>
      </trkpt>
      <trkpt lat="29.578080126382464" lon="106.56614293383247">
        <ele>215.03411865234375</ele>
        <time>2026-09-29T23:54:26Z</time>
      </trkpt>
      <trkpt lat="29.578170142018266" lon="106.56617996156412">
        <ele>216.591552734375</ele>
        <time>2026-09-29T23:54:32Z</time>
      </trkpt>
      <trkpt lat="29.57830213978296" lon="106.56621398409418">
        <ele>219.12139892578125</ele>
        <time>2026-09-29T23:54:38Z</time>
      </trkpt>
      <trkpt lat="29.578310249561003" lon="106.5663050643638">
        <ele>219.7994384765625</ele>
        <time>2026-09-29T23:54:44Z</time>
      </trkpt>
      <trkpt lat="29.578425305825387" lon="106.56638212560738">
        <ele>230.7479248046875</ele>
        <time>2026-09-29T23:54:56Z</time>
      </trkpt>
      <trkpt lat="29.578498294853567" lon="106.56639313101324">
        <ele>235.82171630859375</ele>
        <time>2026-09-29T23:55:02Z</time>
      </trkpt>
      <trkpt lat="29.578574227500134" lon="106.56635909658921">
        <ele>236.25732421875</ele>
        <time>2026-09-29T23:55:08Z</time>
      </trkpt>
      <trkpt lat="29.578574227500134" lon="106.56635909658921">
        <ele>236.25732421875</ele>
        <time>2026-09-29T23:55:08Z</time>
      </trkpt>
    </trkseg>
  </trk>
</gpx>