<?xml version="1.0" encoding="UTF-8"?>
<gpx xmlns="http://www.topografix.com/GPX/1/1" xmlns:gpxtpx="http://www.garmin.com/xmlschemas/TrackPointExtension/v1" xmlns:xsi="http://www.w3.org/2001/XMLSchema-instance" xsi:schemaLocation="http://www.topografix.com/GPX/1/1 http://www.topografix.com/GPX/1/1/gpx.xsd" version="1.1" creator="gpx.py -- https://github.com/tkrajina/gpxpy">
  <trk>
    <name>gpx from keep</name>
    <type>Walk</type>
    <trkseg>
      <trkpt lat="29.572323260863904" lon="106.56628739972588">
        <ele>161.3157958984375</ele>
        <time>2026-09-29T00:02:28Z</time>
        <extensions>
          <gpxtpx:TrackPointExtension>
            <gpxtpx:hr>127</gpxtpx:hr>
          </gpxtpx:TrackPointExtension>
        </extensions>
      </trkpt>
      <trkpt lat="29.57234031794232" lon="106.56633844383886">
        <ele>160.05029296875</ele>
        <time>2026-09-29T00:02:52Z</time>
      </trkpt>
      <trkpt lat="29.57247937485414" lon="106.56642351057705">
        <ele>160.31170654296875</ele>
        <time>2026-09-29T00:03:10Z</time>
      </trkpt>
      <trkpt lat="29.572520411134978" lon="106.5664645441652">
        <ele>159.4046630859375</ele>
        <time>2026-09-29T00:03:16Z</time>
      </trkpt>
      <trkpt lat="29.572783485004166" lon="106.5665986457809">
        <ele>160.8427734375</ele>
        <time>2026-09-29T00:03:46Z</time>
      </trkpt>
      <trkpt lat="29.572830484772656" lon="106.56661165433061">
        <ele>161.852783203125</ele>
        <time>2026-09-29T00:03:55Z</time>
      </trkpt>
      <trkpt lat="29.572984379501445" lon="106.5665686078683">
        <ele>168.3134765625</ele>
        <time>2026-09-29T00:04:19Z</time>
      </trkpt>
      <trkpt lat="29.57304131962083" lon="106.56653557573605">
        <ele>168.70135498046875</ele>
        <time>2026-09-29T00:04:28Z</time>
      </trkpt>
      <trkpt lat="29.57310329227841" lon="106.56653056773291">
        <ele>169.84423828125</ele>
        <time>2026-09-29T00:04:34Z</time>
      </trkpt>
      <trkpt lat="29.573189317890947" lon="106.56657560194473">
        <ele>174.58447265625</ele>
        <time>2026-09-29T00:04:52Z</time>
      </trkpt>
      <trkpt lat="29.573245306064685" lon="106.56658160388665">
        <ele>173.864013671875</ele>
        <time>2026-09-29T00:05:01Z</time>
      </trkpt>
      <trkpt lat="29.573362224479048" lon="106.5665475673844">
        <ele>178.61285400390625</ele>
        <time>2026-09-29T00:05:22Z</time>
      </trkpt>
      <trkpt lat="29.573397156189696" lon="106.56650152513694">
        <ele>179.23675537109375</ele>
        <time>2026-09-29T00:05:31Z</time>
      </trkpt>
      <trkpt lat="29.573421920200918" lon="106.56631636093474">
        <ele>177.63934326171875</ele>
        <time>2026-09-29T00:05:43Z</time>
      </trkpt>
      <trkpt lat="29.573414808934487" lon="106.56622427977153">
        <ele>177.13885498046875</ele>
        <time>2026-09-29T00:05:49Z</time>
      </trkpt>
      <trkpt lat="29.57343373059539" lon="106.56616622700986">
        <ele>179.7806396484375</ele>
        <time>2026-09-29T00:05:55Z</time>
      </trkpt>
      <trkpt lat="29.57343379872663" lon="106.56622127598988">
        <ele>182.77947998046875</ele>
        <time>2026-09-29T00:06:04Z</time>
      </trkpt>
      <trkpt lat="29.573481860199138" lon="106.56628432909069">
        <ele>186.55645751953125</ele>
        <time>2026-09-29T00:06:16Z</time>
      </trkpt>
      <trkpt lat="29.5736938099866" lon="106.56630233259531">
        <ele>188.8709716796875</ele>
        <time>2026-09-29T00:06:34Z</time>
      </trkpt>
      <trkpt lat="29.57389378117182" lon="106.56633434916034">
        <ele>187.49713134765625</ele>
        <time>2026-09-29T00:06:52Z</time>
      </trkpt>
      <trkpt lat="29.57416467763258" lon="106.56632532531212">
        <ele>186.126953125</ele>
        <time>2026-09-29T00:07:16Z</time>
      </trkpt>
      <trkpt lat="29.574311590514785" lon="106.56629529015032">
        <ele>187.6182861328125</ele>
        <time>2026-09-29T00:07:28Z</time>
      </trkpt>
      <trkpt lat="29.574360607129776" lon="106.56632231116389">
        <ele>185.81640625</ele>
        <time>2026-09-29T00:07:34Z</time>
      </trkpt>
      <trkpt lat="29.57445656579362" lon="106.56631529934344">
        <ele>194.46875</ele>
        <time>2026-09-29T00:07:49Z</time>
      </trkpt>
      <trkpt lat="29.574515516084677" lon="106.56629127464258">
        <ele>199.38134765625</ele>
        <time>2026-09-29T00:07:58Z</time>
      </trkpt>
      <trkpt lat="29.57461853036315" lon="106.56633130398521">
        <ele>198.157958984375</ele>
        <time>2026-09-29T00:08:10Z</time>
      </trkpt>
      <trkpt lat="29.574629601737627" lon="106.56639235714476">
        <ele>202.494384765625</ele>
        <time>2026-09-29T00:08:16Z</time>
      </trkpt>
      <trkpt lat="29.574614685482924" lon="106.56645641427272">
        <ele>204.3583984375</ele>
        <time>2026-09-29T00:08:22Z</time>
      </trkpt>
      <trkpt lat="29.57466073603924" lon="106.56651045887249">
        <ele>212.00830078125</ele>
        <time>2026-09-29T00:08:31Z</time>
      </trkpt>
      <trkpt lat="29.57476976259017" lon="106.56656249788553">
        <ele>214.5360107421875</ele>
        <time>2026-09-29T00:08:43Z</time>
      </trkpt>
      <trkpt lat="29.574874735432708" lon="106.56656949782877">
        <ele>220.6201171875</ele>
        <time>2026-09-29T00:08:55Z</time>
      </trkpt>
      <trkpt lat="29.575005659094103" lon="106.5665434674682">
        <ele>212.4267578125</ele>
        <time>2026-09-29T00:09:13Z</time>
      </trkpt>
      <trkpt lat="29.575176589971203" lon="106.56653444958052">
        <ele>204.8248291015625</ele>
        <time>2026-09-29T00:09:32Z</time>
      </trkpt>
      <trkpt lat="29.57521351982851" lon="106.56648740630897">
        <ele>203.9444580078125</ele>
        <time>2026-09-29T00:09:37Z</time>
      </trkpt>
      <trkpt lat="29.575251253443707" lon="106.56628122261273">
        <ele>203.56964111328125</ele>
        <time>2026-09-29T00:09:55Z</time>
      </trkpt>
      <trkpt lat="29.575252339444223" lon="106.56635128445896">
        <ele>211.04620361328125</ele>
        <time>2026-09-29T00:10:07Z</time>
      </trkpt>
      <trkpt lat="29.575282408009485" lon="106.56641533908073">
        <ele>212.0162353515625</ele>
        <time>2026-09-29T00:10:13Z</time>
      </trkpt>
      <trkpt lat="29.5752554724456" lon="106.56646038018336">
        <ele>211.981689453125</ele>
        <time>2026-09-29T00:10:16Z</time>
      </trkpt>
      <trkpt lat="29.575193459126268" lon="106.56643235924257">
        <ele>212.13531494140625</ele>
        <time>2026-09-29T00:10:22Z</time>
      </trkpt>
      <trkpt lat="29.575813433743747" lon="106.56658345494793">
        <ele>252.76007080078125</ele>
        <time>2026-09-29T00:10:58Z</time>
      </trkpt>
      <trkpt lat="29.575777360311623" lon="106.56651339597767">
        <ele>252.43719482421875</ele>
        <time>2026-09-29T00:11:02Z</time>
      </trkpt>
      <trkpt lat="29.57588730955527" lon="106.56650237990422">
        <ele>254.35552978515625</ele>
        <time>2026-09-29T00:11:08Z</time>
      </trkpt>
      <trkpt lat="29.575964310415177" lon="106.56652439462388">
        <ele>260.576171875</ele>
        <time>2026-09-29T00:11:14Z</time>
      </trkpt>
      <trkpt lat="29.57604234149499" lon="106.56657143106203">
        <ele>263.8140869140625</ele>
        <time>2026-09-29T00:11:20Z</time>
      </trkpt>
      <trkpt lat="29.576096306092342" lon="106.5665574156895">
        <ele>260.3118896484375</ele>
        <time>2026-09-29T00:11:26Z</time>
      </trkpt>
      <trkpt lat="29.57615229936081" lon="106.56656742112362">
        <ele>268.346435546875</ele>
        <time>2026-09-29T00:11:32Z</time>
      </trkpt>
      <trkpt lat="29.57624914774097" lon="106.56647033064635">
        <ele>240.2288818359375</ele>
        <time>2026-09-29T00:11:50Z</time>
      </trkpt>
      <trkpt lat="29.576371059817856" lon="106.5664322901442">
        <ele>231.66998291015625</ele>
        <time>2026-09-29T00:12:02Z</time>
      </trkpt>
      <trkpt lat="29.576469924231027" lon="106.56634921124805">
        <ele>232.7808837890625</ele>
        <time>2026-09-29T00:12:11Z</time>
      </trkpt>
      <trkpt lat="29.576545917011842" lon="106.56636422002462">
        <ele>232.78857421875</ele>
        <time>2026-09-29T00:12:17Z</time>
      </trkpt>
      <trkpt lat="29.576647797472425" lon="106.56629515306726">
        <ele>232.29071044921875</ele>
        <time>2026-09-29T00:12:26Z</time>
      </trkpt>
      <trkpt lat="29.57671776888397" lon="106.5662911454189">
        <ele>230.1649169921875</ele>
        <time>2026-09-29T00:12:32Z</time>
      </trkpt>
      <trkpt lat="29.577024837635822" lon="106.56643125090243">
        <ele>233.8140869140625</ele>
        <time>2026-09-29T00:12:59Z</time>
      </trkpt>
      <trkpt lat="29.57707976990586" lon="106.56639121249391">
        <ele>229.18487548828125</ele>
        <time>2026-09-29T00:13:05Z</time>
      </trkpt>
      <trkpt lat="29.5771367814178" lon="106.56641623114864">
        <ele>227.2279052734375</ele>
        <time>2026-09-29T00:13:11Z</time>
      </trkpt>
      <trkpt lat="29.577225847138354" lon="106.56649429435923">
        <ele>235.71881103515625</ele>
        <time>2026-09-29T00:13:23Z</time>
      </trkpt>
      <trkpt lat="29.577289864759873" lon="106.56652631859016">
        <ele>238.769287109375</ele>
        <time>2026-09-29T00:13:29Z</time>
      </trkpt>
      <trkpt lat="29.577460750765404" lon="106.56648026831415">
        <ele>245.0989990234375</ele>
        <time>2026-09-29T00:13:41Z</time>
      </trkpt>
      <trkpt lat="29.577668634082528" lon="106.56644222278572">
        <ele>245.31268310546875</ele>
        <time>2026-09-29T00:13:56Z</time>
      </trkpt>
      <trkpt lat="29.577886426614384" lon="106.56633311399543">
        <ele>243.5811767578125</ele>
        <time>2026-09-29T00:14:14Z</time>
      </trkpt>
      <trkpt lat="29.577996486865388" lon="106.56641217718206">
        <ele>249.9556884765625</ele>
        <time>2026-09-29T00:14:20Z</time>
      </trkpt>
      <trkpt lat="29.578050488371726" lon="106.56642818807998">
        <ele>250.46630859375</ele>
        <time>2026-09-29T00:14:23Z</time>
      </trkpt>
      <trkpt lat="29.578083294974995" lon="106.5662800555413">
        <ele>226.9659423828125</ele>
        <time>2026-09-29T00:14:32Z</time>
      </trkpt>
      <trkpt lat="29.57813419994225" lon="106.56621699661824">
        <ele>222.46435546875</ele>
        <time>2026-09-29T00:14:41Z</time>
      </trkpt>
      <trkpt lat="29.578117366193414" lon="106.56634711280851">
        <ele>219.35491943359375</ele>
        <time>2026-09-29T00:14:53Z</time>
      </trkpt>
      <trkpt lat="29.57818335879458" lon="106.56635911952677">
        <ele>217.8931884765625</ele>
        <time>2026-09-29T00:14:59Z</time>
      </trkpt>
      <trkpt lat="29.578349211776025" lon="106.56628504436704">
        <ele>222.26708984375</ele>
        <time>2026-09-29T00:15:17Z</time>
      </trkpt>
      <trkpt lat="29.57849517757241" lon="106.56629704642978">
        <ele>224.4661865234375</ele>
        <time>2026-09-29T00:15:29Z</time>
      </trkpt>
      <trkpt lat="29.578539143051458" lon="106.56628102967656">
        <ele>225.34234619140625</ele>
        <time>2026-09-29T00:15:32Z</time>
      </trkpt>
      <trkpt lat="29.578634193819415" lon="106.56634808336204">
        <ele>221.45086669921875</ele>
        <time>2026-09-29T00:15:59Z</time>
      </trkpt>
    </trkseg>
  </trk>
</gpx>