<?xml version="1.0" encoding="UTF-8"?>
<gpx xmlns="http://www.topografix.com/GPX/1/1" xmlns:gpxtpx="http://www.garmin.com/xmlschemas/TrackPointExtension/v1" xmlns:xsi="http://www.w3.org/2001/XMLSchema-instance" xsi:schemaLocation="http://www.topografix.com/GPX/1/1 http://www.topografix.com/GPX/1/1/gpx.xsd" version="1.1" creator="gpx.py -- https://github.com/tkrajina/gpxpy">
  <trk>
    <name>gpx from keep</name>
    <type>Ride</type>
    <trkseg>
      <trkpt lat="25.721179120918784" lon="100.1920152284622">
        <ele>1948.5810546875</ele>
        <time>2026-08-08T01:55:34Z</time>
      </trkpt>
      <trkpt lat="25.72110004340378" lon="100.19199619417202">
        <ele>1938.28662109375</ele>
        <time>2026-08-08T01:55:39Z</time>
      </trkpt>
      <trkpt lat="25.72074246232175" lon="100.19177578282711">
        <ele>1939.909423828125</ele>
        <time>2026-08-08T01:55:54Z</time>
      </trkpt>
      <trkpt lat="25.720654379658264" lon="100.19175674867799">
        <ele>1940.513916015625</ele>
        <time>2026-08-08T01:55:57Z</time>
      </trkpt>
      <trkpt lat="25.72056533259188" lon="100.19175875470881">
        <ele>1940.447265625</ele>
        <time>2026-08-08T01:56:00Z</time>
      </trkpt>
      <trkpt lat="25.720051319763176" lon="100.19192107699907">
        <ele>1942.7998046875</ele>
        <time>2026-08-08T01:56:15Z</time>
      </trkpt>
      <trkpt lat="25.719777284750528" lon="100.19199121739845">
        <ele>1942.04052734375</ele>
        <time>2026-08-08T01:56:23Z</time>
      </trkpt>
      <trkpt lat="25.719682306498164" lon="100.19203530368941">
        <ele>1940.975341796875</ele>
        <time>2026-08-08T01:56:26Z</time>
      </trkpt>
      <trkpt lat="25.719605377903303" lon="100.192102433342">
        <ele>1942.360595703125</ele>
        <time>2026-08-08T01:56:29Z</time>
      </trkpt>
      <trkpt lat="25.719297875026214" lon="100.19249518671708">
        <ele>1941.048583984375</ele>
        <time>2026-08-08T01:56:45Z</time>
      </trkpt>
      <trkpt lat="25.718965348758942" lon="100.19288393028121">
        <ele>1940.94970703125</ele>
        <time>2026-08-08T01:57:03Z</time>
      </trkpt>
      <trkpt lat="25.718701760663187" lon="100.19321455997581">
        <ele>1941.6240234375</ele>
        <time>2026-08-08T01:57:16Z</time>
      </trkpt>
      <trkpt lat="25.718591788413875" lon="100.19326766258865">
        <ele>1941.85107421875</ele>
        <time>2026-08-08T01:57:20Z</time>
      </trkpt>
      <trkpt lat="25.71813870021858" lon="100.19336686024627">
        <ele>1941.17138671875</ele>
        <time>2026-08-08T01:57:35Z</time>
      </trkpt>
      <trkpt lat="25.71805569738771" lon="100.19339291123407">
        <ele>1942.31103515625</ele>
        <time>2026-08-08T01:57:38Z</time>
      </trkpt>
      <trkpt lat="25.717676581557107" lon="100.19345102972885">
        <ele>1940.31298828125</ele>
        <time>2026-08-08T01:57:50Z</time>
      </trkpt>
      <trkpt lat="25.717245543089305" lon="100.19357226781595">
        <ele>1940.923828125</ele>
        <time>2026-08-08T01:58:05Z</time>
      </trkpt>
      <trkpt lat="25.716855686451662" lon="100.19378768085217">
        <ele>1941.86181640625</ele>
        <time>2026-08-08T01:58:21Z</time>
      </trkpt>
      <trkpt lat="25.716417913254784" lon="100.19406921753462">
        <ele>1941.32275390625</ele>
        <time>2026-08-08T01:58:40Z</time>
      </trkpt>
      <trkpt lat="25.716000099760812" lon="100.1943206962567">
        <ele>1942.8828125</ele>
        <time>2026-08-08T01:58:58Z</time>
      </trkpt>
      <trkpt lat="25.715614251409914" lon="100.19454111530071">
        <ele>1941.22314453125</ele>
        <time>2026-08-08T01:59:13Z</time>
      </trkpt>
      <trkpt lat="25.715325395054425" lon="100.19472446233002">
        <ele>1939.2568359375</ele>
        <time>2026-08-08T01:59:25Z</time>
      </trkpt>
      <trkpt lat="25.715291504613766" lon="100.19480160597703">
        <ele>1938.0771484375</ele>
        <time>2026-08-08T01:59:28Z</time>
      </trkpt>
      <trkpt lat="25.715309980122523" lon="100.19508112195719">
        <ele>1937.21630859375</ele>
        <time>2026-08-08T01:59:35Z</time>
      </trkpt>
      <trkpt lat="25.71529310041481" lon="100.19515926646893">
        <ele>1937.06494140625</ele>
        <time>2026-08-08T01:59:37Z</time>
      </trkpt>
      <trkpt lat="25.715248231447518" lon="100.19525344106354">
        <ele>1939.14892578125</ele>
        <time>2026-08-08T01:59:40Z</time>
      </trkpt>
      <trkpt lat="25.71495026654629" lon="100.19537567331767">
        <ele>1940.734619140625</ele>
        <time>2026-08-08T01:59:49Z</time>
      </trkpt>
      <trkpt lat="25.71451836039953" lon="100.19557905750527">
        <ele>1940.89306640625</ele>
        <time>2026-08-08T02:00:04Z</time>
      </trkpt>
      <trkpt lat="25.714451375758088" lon="100.19561111796088">
        <ele>1941.363037109375</ele>
        <time>2026-08-08T02:00:07Z</time>
      </trkpt>
      <trkpt lat="25.714435500832526" lon="100.1956922670949">
        <ele>1944.0146484375</ele>
        <time>2026-08-08T02:00:13Z</time>
      </trkpt>
      <trkpt lat="25.714515588778657" lon="100.19571831283075">
        <ele>1944.88134765625</ele>
        <time>2026-08-08T02:00:19Z</time>
      </trkpt>
      <trkpt lat="25.71461939892308" lon="100.19556803479063">
        <ele>1935.46484375</ele>
        <time>2026-08-08T02:00:27Z</time>
      </trkpt>
      <trkpt lat="25.71503533923683" lon="100.19539069884377">
        <ele>1936.60107421875</ele>
        <time>2026-08-08T02:00:40Z</time>
      </trkpt>
      <trkpt lat="25.715202278701966" lon="100.19529752334257">
        <ele>1936.607421875</ele>
        <time>2026-08-08T02:00:44Z</time>
      </trkpt>
      <trkpt lat="25.715266223284907" lon="100.19524242032674">
        <ele>1936.34765625</ele>
        <time>2026-08-08T02:00:46Z</time>
      </trkpt>
      <trkpt lat="25.715310133273494" lon="100.19517329189769">
        <ele>1936.21728515625</ele>
        <time>2026-08-08T02:00:48Z</time>
      </trkpt>
      <trkpt lat="25.71533000969311" lon="100.19509214179061">
        <ele>1936.1455078125</ele>
        <time>2026-08-08T02:00:50Z</time>
      </trkpt>
      <trkpt lat="25.715299524148218" lon="100.19481062246284">
        <ele>1935.408447265625</ele>
        <time>2026-08-08T02:00:57Z</time>
      </trkpt>
      <trkpt lat="25.715367422026375" lon="100.19472646500164">
        <ele>1934.990234375</ele>
        <time>2026-08-08T02:01:00Z</time>
      </trkpt>
      <trkpt lat="25.71579121697306" lon="100.19446096212731">
        <ele>1938.0322265625</ele>
        <time>2026-08-08T02:01:13Z</time>
      </trkpt>
      <trkpt lat="25.71617204377447" lon="100.19422952233525">
        <ele>1936.6201171875</ele>
        <time>2026-08-08T02:01:24Z</time>
      </trkpt>
      <trkpt lat="25.716594871550566" lon="100.19398505612611">
        <ele>1935.810546875</ele>
        <time>2026-08-08T02:01:36Z</time>
      </trkpt>
      <trkpt lat="25.716810737031267" lon="100.19383276628012">
        <ele>1935.660400390625</ele>
        <time>2026-08-08T02:01:43Z</time>
      </trkpt>
      <trkpt lat="25.717130606739595" lon="100.19364841335683">
        <ele>1935.572998046875</ele>
        <time>2026-08-08T02:01:55Z</time>
      </trkpt>
      <trkpt lat="25.717206610734422" lon="100.19362536830346">
        <ele>1937.6923828125</ele>
        <time>2026-08-08T02:01:58Z</time>
      </trkpt>
      <trkpt lat="25.717364556101625" lon="100.19354020475436">
        <ele>1934.127685546875</ele>
        <time>2026-08-08T02:02:04Z</time>
      </trkpt>
      <trkpt lat="25.717519582663112" lon="100.19350413326305">
        <ele>1936.36865234375</ele>
        <time>2026-08-08T02:02:08Z</time>
      </trkpt>
      <trkpt lat="25.717847718801718" lon="100.1934750706244">
        <ele>1937.180419921875</ele>
        <time>2026-08-08T02:02:20Z</time>
      </trkpt>
      <trkpt lat="25.718202761825356" lon="100.19338188689329">
        <ele>1935.36376953125</ele>
        <time>2026-08-08T02:02:33Z</time>
      </trkpt>
      <trkpt lat="25.71838785285388" lon="100.19337386725559">
        <ele>1935.751953125</ele>
        <time>2026-08-08T02:02:39Z</time>
      </trkpt>
      <trkpt lat="25.718571878904218" lon="100.19332777610022">
        <ele>1935.7783203125</ele>
        <time>2026-08-08T02:02:45Z</time>
      </trkpt>
      <trkpt lat="25.718648837628123" lon="100.19327768001789">
        <ele>1935.7158203125</ele>
        <time>2026-08-08T02:02:48Z</time>
      </trkpt>
      <trkpt lat="25.718775690418177" lon="100.19314843367815">
        <ele>1936.283935546875</ele>
        <time>2026-08-08T02:02:54Z</time>
      </trkpt>
      <trkpt lat="25.718867511226428" lon="100.19301217466376">
        <ele>1935.73828125</ele>
        <time>2026-08-08T02:03:00Z</time>
      </trkpt>
      <trkpt lat="25.719199036010533" lon="100.19262243016367">
        <ele>1935.119384765625</ele>
        <time>2026-08-08T02:03:14Z</time>
      </trkpt>
      <trkpt lat="25.71951456305814" lon="100.19224069845266">
        <ele>1936.20361328125</ele>
        <time>2026-08-08T02:03:28Z</time>
      </trkpt>
      <trkpt lat="25.71964135881954" lon="100.19207938860656">
        <ele>1935.854736328125</ele>
        <time>2026-08-08T02:03:34Z</time>
      </trkpt>
      <trkpt lat="25.71979429782179" lon="100.19199322079317">
        <ele>1934.6611328125</ele>
        <time>2026-08-08T02:03:39Z</time>
      </trkpt>
      <trkpt lat="25.72027436024387" lon="100.19187097598254">
        <ele>1937.662353515625</ele>
        <time>2026-08-08T02:03:54Z</time>
      </trkpt>
      <trkpt lat="25.720539412517205" lon="100.1918138605007">
        <ele>1936.373779296875</ele>
        <time>2026-08-08T02:04:05Z</time>
      </trkpt>
      <trkpt lat="25.72071152218156" lon="100.19182086961561">
        <ele>1937.75732421875</ele>
        <time>2026-08-08T02:04:12Z</time>
      </trkpt>
      <trkpt lat="25.721086152246322" lon="100.1920643242192">
        <ele>1936.01953125</ele>
        <time>2026-08-08T02:04:27Z</time>
      </trkpt>
      <trkpt lat="25.721227333615843" lon="100.1921234331901">
        <ele>1938.64599609375</ele>
        <time>2026-08-08T02:04:34Z</time>
      </trkpt>
      <trkpt lat="25.721458454576226" lon="100.19211741603064">
        <ele>1939.82666015625</ele>
        <time>2026-08-08T02:04:50Z</time>
      </trkpt>
      <trkpt lat="25.72159846205708" lon="100.19207533250224">
        <ele>1938.46875</ele>
        <time>2026-08-08T02:05:00Z</time>
      </trkpt>
      <trkpt lat="25.721661429184877" lon="100.19203525466448">
        <ele>1939.083984375</ele>
        <time>2026-08-08T02:05:05Z</time>
      </trkpt>
      <trkpt lat="25.721746212829455" lon="100.19188095862134">
        <ele>1939.79931640625</ele>
        <time>2026-08-08T02:05:16Z</time>
      </trkpt>
      <trkpt lat="25.721809944541768" lon="100.19170361866747">
        <ele>1935.36572265625</ele>
        <time>2026-08-08T02:05:26Z</time>
      </trkpt>
      <trkpt lat="25.72197069469159" lon="100.19150523549462">
        <ele>1932.5908203125</ele>
        <time>2026-08-08T02:05:36Z</time>
      </trkpt>
      <trkpt lat="25.722241539688383" lon="100.19132588537668">
        <ele>1934.70361328125</ele>
        <time>2026-08-08T02:05:48Z</time>
      </trkpt>
      <trkpt lat="25.72231953048098" lon="100.19129482391341">
        <ele>1937.71630859375</ele>
        <time>2026-08-08T02:05:51Z</time>
      </trkpt>
      <trkpt lat="25.72238047180253" lon="100.19124071866426">
        <ele>1937.9306640625</ele>
        <time>2026-08-08T02:06:00Z</time>
      </trkpt>
      <trkpt lat="25.72236332714057" lon="100.19116256915342">
        <ele>1936.5595703125</ele>
        <time>2026-08-08T02:06:24Z</time>
      </trkpt>
      <trkpt lat="25.72228627466155" lon="100.19115756144826">
        <ele>1938.71044921875</ele>
        <time>2026-08-08T02:06:35Z</time>
      </trkpt>
      <trkpt lat="25.722358379685033" lon="100.19119463080112">
        <ele>1938.7158203125</ele>
        <time>2026-08-08T02:07:02Z</time>
      </trkpt>
      <trkpt lat="25.722295459751923" lon="100.19126176112019">
        <ele>1941.62060546875</ele>
        <time>2026-08-08T02:07:34Z</time>
      </trkpt>
      <trkpt lat="25.72193971157361" lon="100.19152527459626">
        <ele>1941.5048828125</ele>
        <time>2026-08-08T02:07:51Z</time>
      </trkpt>
      <trkpt lat="25.721871798823415" lon="100.19159841613703">
        <ele>1940.46728515625</ele>
        <time>2026-08-08T02:07:55Z</time>
      </trkpt>
      <trkpt lat="25.721770066452144" lon="100.19178778031082">
        <ele>1939.278564453125</ele>
        <time>2026-08-08T02:08:03Z</time>
      </trkpt>
      <trkpt lat="25.72170528409095" lon="100.19193606466443">
        <ele>1939.23779296875</ele>
        <time>2026-08-08T02:08:13Z</time>
      </trkpt>
      <trkpt lat="25.72159143575768" lon="100.19206230788917">
        <ele>1939.7197265625</ele>
        <time>2026-08-08T02:08:32Z</time>
      </trkpt>
      <trkpt lat="25.721524450894808" lon="100.1920933686511">
        <ele>1939.57958984375</ele>
        <time>2026-08-08T02:08:37Z</time>
      </trkpt>
      <trkpt lat="25.721283315658447" lon="100.19209437653042">
        <ele>1937.987060546875</ele>
        <time>2026-08-08T02:08:53Z</time>
      </trkpt>
      <trkpt lat="25.721199240469936" lon="100.192078348111">
        <ele>1934.845703125</ele>
        <time>2026-08-08T02:08:58Z</time>
      </trkpt>
      <trkpt lat="25.720844640701472" lon="100.19184591409187">
        <ele>1937.9755859375</ele>
        <time>2026-08-08T02:09:12Z</time>
      </trkpt>
      <trkpt lat="25.720748512205528" lon="100.1918028342948">
        <ele>1938.1591796875</ele>
        <time>2026-08-08T02:09:15Z</time>
      </trkpt>
      <trkpt lat="25.72057136354497" lon="100.19177478515405">
        <ele>1937.0380859375</ele>
        <time>2026-08-08T02:09:21Z</time>
      </trkpt>
      <trkpt lat="25.720481321082236" lon="100.1917797969447">
        <ele>1937.8408203125</ele>
        <time>2026-08-08T02:09:24Z</time>
      </trkpt>
      <trkpt lat="25.720030288942855" lon="100.19191005651591">
        <ele>1939.968017578125</ele>
        <time>2026-08-08T02:09:37Z</time>
      </trkpt>
      <trkpt lat="25.719688225722184" lon="100.19198621006386">
        <ele>1943.39111328125</ele>
        <time>2026-08-08T02:09:49Z</time>
      </trkpt>
      <trkpt lat="25.719573339174833" lon="100.19209041126155">
        <ele>1942.00830078125</ele>
        <time>2026-08-08T02:09:55Z</time>
      </trkpt>
      <trkpt lat="25.719474535256065" lon="100.1922376937334">
        <ele>1937.4638671875</ele>
        <time>2026-08-08T02:10:03Z</time>
      </trkpt>
      <trkpt lat="25.719434680514677" lon="100.19233588118247">
        <ele>1935.88427734375</ele>
        <time>2026-08-08T02:10:06Z</time>
      </trkpt>
      <trkpt lat="25.719184065088687" lon="100.1926444722516">
        <ele>1937.232421875</ele>
        <time>2026-08-08T02:10:14Z</time>
      </trkpt>
      <trkpt lat="25.719067189998032" lon="100.1927566873832">
        <ele>1938.066650390625</ele>
        <time>2026-08-08T02:10:18Z</time>
      </trkpt>
      <trkpt lat="25.718696688197536" lon="100.19317348279036">
        <ele>1939.5283203125</ele>
        <time>2026-08-08T02:10:33Z</time>
      </trkpt>
      <trkpt lat="25.71862976407762" lon="100.19324061076766">
        <ele>1939.4228515625</ele>
        <time>2026-08-08T02:10:36Z</time>
      </trkpt>
      <trkpt lat="25.718186696827246" lon="100.19334882517364">
        <ele>1937.080078125</ele>
        <time>2026-08-08T02:10:51Z</time>
      </trkpt>
      <trkpt lat="25.717732618268386" lon="100.19345403398401">
        <ele>1940.029296875</ele>
        <time>2026-08-08T02:11:01Z</time>
      </trkpt>
      <trkpt lat="25.717237536882305" lon="100.19357126613573">
        <ele>1939.450439453125</ele>
        <time>2026-08-08T02:11:13Z</time>
      </trkpt>
      <trkpt lat="25.71679271169117" lon="100.19382374986613">
        <ele>1941.32373046875</ele>
        <time>2026-08-08T02:11:25Z</time>
      </trkpt>
      <trkpt lat="25.716351918141655" lon="100.19409426587553">
        <ele>1939.80908203125</ele>
        <time>2026-08-08T02:11:37Z</time>
      </trkpt>
      <trkpt lat="25.715893118402057" lon="100.19436778646875">
        <ele>1938.376953125</ele>
        <time>2026-08-08T02:11:53Z</time>
      </trkpt>
      <trkpt lat="25.71550425984699" lon="100.19458319608742">
        <ele>1939.33544921875</ele>
        <time>2026-08-08T02:12:10Z</time>
      </trkpt>
      <trkpt lat="25.715303382678457" lon="100.19472446287433">
        <ele>1939.818603515625</ele>
        <time>2026-08-08T02:12:19Z</time>
      </trkpt>
      <trkpt lat="25.7152655083635" lon="100.19481262701126">
        <ele>1937.6064453125</ele>
        <time>2026-08-08T02:12:22Z</time>
      </trkpt>
      <trkpt lat="25.715281113632532" lon="100.19517128892251">
        <ele>1936.77392578125</ele>
        <time>2026-08-08T02:12:31Z</time>
      </trkpt>
      <trkpt lat="25.7152332379712" lon="100.1952624580349">
        <ele>1937.35302734375</ele>
        <time>2026-08-08T02:12:34Z</time>
      </trkpt>
      <trkpt lat="25.714825307468583" lon="100.19544279977904">
        <ele>1940.43505859375</ele>
        <time>2026-08-08T02:12:44Z</time>
      </trkpt>
      <trkpt lat="25.714372400913636" lon="100.19565319705515">
        <ele>1938.46142578125</ele>
        <time>2026-08-08T02:12:56Z</time>
      </trkpt>
      <trkpt lat="25.71423450866537" lon="100.19576540599476">
        <ele>1938.408203125</ele>
        <time>2026-08-08T02:13:00Z</time>
      </trkpt>
      <trkpt lat="25.713922919149795" lon="100.19612106340298">
        <ele>1938.62744140625</ele>
        <time>2026-08-08T02:13:10Z</time>
      </trkpt>
      <trkpt lat="25.713521257198384" lon="100.19646469851615">
        <ele>1940.4287109375</ele>
        <time>2026-08-08T02:13:22Z</time>
      </trkpt>
      <trkpt lat="25.713182543513835" lon="100.19675623529886">
        <ele>1939.46826171875</ele>
        <time>2026-08-08T02:13:32Z</time>
      </trkpt>
      <trkpt lat="25.71277368808504" lon="100.19698565992978">
        <ele>1941.236572265625</ele>
        <time>2026-08-08T02:13:42Z</time>
      </trkpt>
      <trkpt lat="25.712376908389086" lon="100.19725816059943">
        <ele>1940.091552734375</ele>
        <time>2026-08-08T02:13:54Z</time>
      </trkpt>
      <trkpt lat="25.71195108850359" lon="100.1975166352014">
        <ele>1939.02587890625</ele>
        <time>2026-08-08T02:14:07Z</time>
      </trkpt>
      <trkpt lat="25.711877152339163" lon="100.19758175371378">
        <ele>1939.02099609375</ele>
        <time>2026-08-08T02:14:10Z</time>
      </trkpt>
      <trkpt lat="25.71156653554589" lon="100.19792737912985">
        <ele>1940.087646484375</ele>
        <time>2026-08-08T02:14:23Z</time>
      </trkpt>
      <trkpt lat="25.71118977687146" lon="100.19820888958654">
        <ele>1940.5302734375</ele>
        <time>2026-08-08T02:14:35Z</time>
      </trkpt>
      <trkpt lat="25.710813021538456" lon="100.19849340355614">
        <ele>1940.396484375</ele>
        <time>2026-08-08T02:14:48Z</time>
      </trkpt>
      <trkpt lat="25.710386179404402" lon="100.19874185326456">
        <ele>1939.3115234375</ele>
        <time>2026-08-08T02:15:01Z</time>
      </trkpt>
      <trkpt lat="25.710089214555694" lon="100.198868083173">
        <ele>1939.982421875</ele>
        <time>2026-08-08T02:15:09Z</time>
      </trkpt>
      <trkpt lat="25.70970845673452" lon="100.19915459641442">
        <ele>1940.40966796875</ele>
        <time>2026-08-08T02:15:22Z</time>
      </trkpt>
      <trkpt lat="25.709269510083367" lon="100.19934293739246">
        <ele>1942.38525390625</ele>
        <time>2026-08-08T02:15:37Z</time>
      </trkpt>
      <trkpt lat="25.70882731946028" lon="100.19937800966824">
        <ele>1941.46337890625</ele>
        <time>2026-08-08T02:15:48Z</time>
      </trkpt>
      <trkpt lat="25.70859927327863" lon="100.19942910466723">
        <ele>1941.103759765625</ele>
        <time>2026-08-08T02:15:54Z</time>
      </trkpt>
      <trkpt lat="25.708168395087775" lon="100.19965851584337">
        <ele>1942.209716796875</ele>
        <time>2026-08-08T02:16:06Z</time>
      </trkpt>
      <trkpt lat="25.707750479193272" lon="100.1998598766892">
        <ele>1940.59228515625</ele>
        <time>2026-08-08T02:16:20Z</time>
      </trkpt>
      <trkpt lat="25.707614541893186" lon="100.19994803320617">
        <ele>1939.83056640625</ele>
        <time>2026-08-08T02:16:30Z</time>
      </trkpt>
      <trkpt lat="25.7074247405387" lon="100.20014237488584">
        <ele>1939.34423828125</ele>
        <time>2026-08-08T02:16:53Z</time>
      </trkpt>
      <trkpt lat="25.707365836095292" lon="100.20022451850748">
        <ele>1939.54931640625</ele>
        <time>2026-08-08T02:16:57Z</time>
      </trkpt>
      <trkpt lat="25.70728205500974" lon="100.20039481479375">
        <ele>1938.4140625</ele>
        <time>2026-08-08T02:17:06Z</time>
      </trkpt>
      <trkpt lat="25.70722829773197" lon="100.20057011825654">
        <ele>1939.00390625</ele>
        <time>2026-08-08T02:17:13Z</time>
      </trkpt>
      <trkpt lat="25.707211603779225" lon="100.20077346820656">
        <ele>1938.44921875</ele>
        <time>2026-08-08T02:17:19Z</time>
      </trkpt>
      <trkpt lat="25.70721094565353" lon="100.20099484759893">
        <ele>1937.419921875</ele>
        <time>2026-08-08T02:17:25Z</time>
      </trkpt>
      <trkpt lat="25.707162056069617" lon="100.20108400124163">
        <ele>1937.026611328125</ele>
        <time>2026-08-08T02:17:28Z</time>
      </trkpt>
      <trkpt lat="25.707026139661938" lon="100.20118718076078">
        <ele>1937.74609375</ele>
        <time>2026-08-08T02:17:35Z</time>
      </trkpt>
      <trkpt lat="25.70697520082441" lon="100.20124528110212">
        <ele>1939.09521484375</ele>
        <time>2026-08-08T02:17:55Z</time>
      </trkpt>
      <trkpt lat="25.706816154277586" lon="100.20127233111737">
        <ele>1938.96533203125</ele>
        <time>2026-08-08T02:18:09Z</time>
      </trkpt>
      <trkpt lat="25.706513163402363" lon="100.20138753471772">
        <ele>1938.1123046875</ele>
        <time>2026-08-08T02:18:19Z</time>
      </trkpt>
      <trkpt lat="25.706062007404423" lon="100.20144864973221">
        <ele>1942.35888671875</ele>
        <time>2026-08-08T02:18:37Z</time>
      </trkpt>
      <trkpt lat="25.705578663223474" lon="100.20139857647638">
        <ele>1941.51708984375</ele>
        <time>2026-08-08T02:18:57Z</time>
      </trkpt>
      <trkpt lat="25.705078460556564" lon="100.20144667054906">
        <ele>1941.35498046875</ele>
        <time>2026-08-08T02:19:12Z</time>
      </trkpt>
      <trkpt lat="25.704675603087175" lon="100.2016850849747">
        <ele>1939.56396484375</ele>
        <time>2026-08-08T02:19:24Z</time>
      </trkpt>
      <trkpt lat="25.704242840842916" lon="100.20199762373181">
        <ele>1941.31103515625</ele>
        <time>2026-08-08T02:19:42Z</time>
      </trkpt>
      <trkpt lat="25.704115993131623" lon="100.20214387312697">
        <ele>1941.512939453125</ele>
        <time>2026-08-08T02:19:48Z</time>
      </trkpt>
      <trkpt lat="25.70393612634363" lon="100.20229713504841">
        <ele>1940.994140625</ele>
        <time>2026-08-08T02:19:54Z</time>
      </trkpt>
      <trkpt lat="25.703593516908263" lon="100.20268078541079">
        <ele>1941.80615234375</ele>
        <time>2026-08-08T02:20:09Z</time>
      </trkpt>
      <trkpt lat="25.703530578722443" lon="100.20274489385665">
        <ele>1941.288330078125</ele>
        <time>2026-08-08T02:20:12Z</time>
      </trkpt>
      <trkpt lat="25.70311477377039" lon="100.20302737383068">
        <ele>1940.760498046875</ele>
        <time>2026-08-08T02:20:27Z</time>
      </trkpt>
      <trkpt lat="25.70304683234842" lon="100.20309148182072">
        <ele>1941.33837890625</ele>
        <time>2026-08-08T02:20:30Z</time>
      </trkpt>
      <trkpt lat="25.702999929363692" lon="100.20317361903794">
        <ele>1941.89453125</ele>
        <time>2026-08-08T02:20:33Z</time>
      </trkpt>
      <trkpt lat="25.702990060060156" lon="100.20326477007063">
        <ele>1942.03076171875</ele>
        <time>2026-08-08T02:20:36Z</time>
      </trkpt>
      <trkpt lat="25.703032363962194" lon="100.20345307985997">
        <ele>1939.365478515625</ele>
        <time>2026-08-08T02:20:42Z</time>
      </trkpt>
      <trkpt lat="25.703073492362915" lon="100.20352419599288">
        <ele>1938.490966796875</ele>
        <time>2026-08-08T02:20:45Z</time>
      </trkpt>
      <trkpt lat="25.70313462422255" lon="100.20359030326426">
        <ele>1939.81103515625</ele>
        <time>2026-08-08T02:20:48Z</time>
      </trkpt>
      <trkpt lat="25.703183897904655" lon="100.20375657512598">
        <ele>1938.43603515625</ele>
        <time>2026-08-08T02:20:56Z</time>
      </trkpt>
      <trkpt lat="25.703183029348082" lon="100.20384572125165">
        <ele>1939.159912109375</ele>
        <time>2026-08-08T02:21:01Z</time>
      </trkpt>
      <trkpt lat="25.70325331359918" lon="100.20401199146585">
        <ele>1939.05224609375</ele>
        <time>2026-08-08T02:21:10Z</time>
      </trkpt>
      <trkpt lat="25.70330642258081" lon="100.20406607846371">
        <ele>1936.74853515625</ele>
        <time>2026-08-08T02:21:45Z</time>
      </trkpt>
      <trkpt lat="25.703199039643742" lon="100.20384672249831">
        <ele>1938.089111328125</ele>
        <time>2026-08-08T02:22:25Z</time>
      </trkpt>
      <trkpt lat="25.703160760484728" lon="100.20367243760492">
        <ele>1940.89208984375</ele>
        <time>2026-08-08T02:22:34Z</time>
      </trkpt>
      <trkpt lat="25.703074516744337" lon="100.20354022234802">
        <ele>1935.54833984375</ele>
        <time>2026-08-08T02:22:44Z</time>
      </trkpt>
      <trkpt lat="25.703025230277756" lon="100.20336593630999">
        <ele>1936.32763671875</ele>
        <time>2026-08-08T02:22:54Z</time>
      </trkpt>
      <trkpt lat="25.70297111239559" lon="100.2033068400585">
        <ele>1938.313720703125</ele>
        <time>2026-08-08T02:22:59Z</time>
      </trkpt>
      <trkpt lat="25.70289501523016" lon="100.20326978068772">
        <ele>1939.95458984375</ele>
        <time>2026-08-08T02:23:04Z</time>
      </trkpt>
      <trkpt lat="25.702443014415405" lon="100.20343606628902">
        <ele>1938.970703125</ele>
        <time>2026-08-08T02:23:25Z</time>
      </trkpt>
      <trkpt lat="25.701983019171017" lon="100.20360936288283">
        <ele>1939.69287109375</ele>
        <time>2026-08-08T02:23:48Z</time>
      </trkpt>
      <trkpt lat="25.70168901813422" lon="100.2037175478034">
        <ele>1939.41015625</ele>
        <time>2026-08-08T02:24:07Z</time>
      </trkpt>
      <trkpt lat="25.701438147197504" lon="100.20389784943">
        <ele>1940.390869140625</ele>
        <time>2026-08-08T02:24:23Z</time>
      </trkpt>
      <trkpt lat="25.701328261367127" lon="100.20401604534968">
        <ele>1940.335205078125</ele>
        <time>2026-08-08T02:24:31Z</time>
      </trkpt>
      <trkpt lat="25.701415263307037" lon="100.20398499248589">
        <ele>1939.3798828125</ele>
        <time>2026-08-08T02:24:48Z</time>
      </trkpt>
      <trkpt lat="25.701619132515482" lon="100.20382071869523">
        <ele>1938.89306640625</ele>
        <time>2026-08-08T02:24:57Z</time>
      </trkpt>
      <trkpt lat="25.70197708130488" lon="100.20365343545842">
        <ele>1939.716552734375</ele>
        <time>2026-08-08T02:25:08Z</time>
      </trkpt>
      <trkpt lat="25.702424082988987" lon="100.2034891542368">
        <ele>1937.96630859375</ele>
        <time>2026-08-08T02:25:23Z</time>
      </trkpt>
      <trkpt lat="25.702608084313145" lon="100.2034220391075">
        <ele>1938.258056640625</ele>
        <time>2026-08-08T02:25:29Z</time>
      </trkpt>
      <trkpt lat="25.72235854576076" lon="100.1912908152639">
        <ele>1938.615234375</ele>
        <time>2026-08-08T03:09:32Z</time>
      </trkpt>
      <trkpt lat="25.7223575451916" lon="100.1912908152887">
        <ele>1938.685546875</ele>
        <time>2026-08-08T03:09:34Z</time>
      </trkpt>
    </trkseg>
  </trk>
</gpx>