<?xml version="1.0" encoding="UTF-8"?>
<gpx xmlns="http://www.topografix.com/GPX/1/1" xmlns:gpxtpx="http://www.garmin.com/xmlschemas/TrackPointExtension/v1" xmlns:xsi="http://www.w3.org/2001/XMLSchema-instance" xsi:schemaLocation="http://www.topografix.com/GPX/1/1 http://www.topografix.com/GPX/1/1/gpx.xsd" version="1.1" creator="gpx.py -- https://github.com/tkrajina/gpxpy">
  <trk>
    <name>gpx from keep</name>
    <type>Walk</type>
    <trkseg>
      <trkpt lat="29.60243937689337" lon="106.31974077732332">
        <ele>256.4765625</ele>
        <time>2026-08-17T23:22:23Z</time>
      </trkpt>
      <trkpt lat="29.60242868901058" lon="106.31957917755115">
        <ele>256.72900390625</ele>
        <time>2026-08-17T23:22:35Z</time>
      </trkpt>
      <trkpt lat="29.60246981556259" lon="106.31950635508657">
        <ele>258.97332763671875</ele>
        <time>2026-08-17T23:22:41Z</time>
      </trkpt>
      <trkpt lat="29.6025248387472" lon="106.31948540354806">
        <ele>259.8837890625</ele>
        <time>2026-08-17T23:22:47Z</time>
      </trkpt>
      <trkpt lat="29.60277774996272" lon="106.31949137349793">
        <ele>261.5341796875</ele>
        <time>2026-08-17T23:23:11Z</time>
      </trkpt>
      <trkpt lat="29.60284175708056" lon="106.31947740415656">
        <ele>260.9639892578125</ele>
        <time>2026-08-17T23:23:17Z</time>
      </trkpt>
      <trkpt lat="29.60292291712481" lon="106.31938063840533">
        <ele>253.2991943359375</ele>
        <time>2026-08-17T23:23:29Z</time>
      </trkpt>
      <trkpt lat="29.60294019571078" lon="106.31923200461337">
        <ele>248.80133056640625</ele>
        <time>2026-08-17T23:23:41Z</time>
      </trkpt>
      <trkpt lat="29.602918923855242" lon="106.31885393950314">
        <ele>255.730712890625</ele>
        <time>2026-08-17T23:24:11Z</time>
      </trkpt>
      <trkpt lat="29.60291719080462" lon="106.31871428427247">
        <ele>258.2406005859375</ele>
        <time>2026-08-17T23:24:23Z</time>
      </trkpt>
      <trkpt lat="29.602939294401093" lon="106.31865642569625">
        <ele>257.84814453125</ele>
        <time>2026-08-17T23:24:29Z</time>
      </trkpt>
      <trkpt lat="29.602945433294725" lon="106.31858260743536">
        <ele>254.92108154296875</ele>
        <time>2026-08-17T23:24:35Z</time>
      </trkpt>
      <trkpt lat="29.602909735172755" lon="106.31842998600816">
        <ele>250.9111328125</ele>
        <time>2026-08-17T23:24:47Z</time>
      </trkpt>
      <trkpt lat="29.602911411276576" lon="106.31807486120826">
        <ele>253.6436767578125</ele>
        <time>2026-08-17T23:25:17Z</time>
      </trkpt>
      <trkpt lat="29.602920097912584" lon="106.31771275236757">
        <ele>256.6724853515625</ele>
        <time>2026-08-17T23:25:47Z</time>
      </trkpt>
      <trkpt lat="29.602924400205897" lon="106.31755314485989">
        <ele>256.49920654296875</ele>
        <time>2026-08-17T23:25:59Z</time>
      </trkpt>
      <trkpt lat="29.6029475335122" lon="106.31747932505446">
        <ele>255.82568359375</ele>
        <time>2026-08-17T23:26:05Z</time>
      </trkpt>
      <trkpt lat="29.602932833830003" lon="106.31732370862555">
        <ele>256.0234375</ele>
        <time>2026-08-17T23:26:17Z</time>
      </trkpt>
      <trkpt lat="29.602965095034115" lon="106.31718105732614">
        <ele>258.7991943359375</ele>
        <time>2026-08-17T23:26:29Z</time>
      </trkpt>
      <trkpt lat="29.602932514204497" lon="106.31696558865704">
        <ele>251.19000244140625</ele>
        <time>2026-08-17T23:26:47Z</time>
      </trkpt>
      <trkpt lat="29.602949632067713" lon="106.3169007468594">
        <ele>248.945556640625</ele>
        <time>2026-08-17T23:26:53Z</time>
      </trkpt>
      <trkpt lat="29.60294220024846" lon="106.31660247937704">
        <ele>246.776123046875</ele>
        <time>2026-08-17T23:27:17Z</time>
      </trkpt>
      <trkpt lat="29.602879486093077" lon="106.31646182814288">
        <ele>251.59967041015625</ele>
        <time>2026-08-17T23:27:29Z</time>
      </trkpt>
      <trkpt lat="29.602766624580397" lon="106.31640696946981">
        <ele>246.3319091796875</ele>
        <time>2026-08-17T23:27:41Z</time>
      </trkpt>
      <trkpt lat="29.602694644697362" lon="106.31640797136039">
        <ele>251.26806640625</ele>
        <time>2026-08-17T23:27:47Z</time>
      </trkpt>
      <trkpt lat="29.602631609144858" lon="106.31643690422791">
        <ele>251.491943359375</ele>
        <time>2026-08-17T23:27:53Z</time>
      </trkpt>
      <trkpt lat="29.6025314355492" lon="106.31654464605266">
        <ele>246.52685546875</ele>
        <time>2026-08-17T23:28:05Z</time>
      </trkpt>
      <trkpt lat="29.602511333877896" lon="106.31660150778323">
        <ele>247.5308837890625</ele>
        <time>2026-08-17T23:28:08Z</time>
      </trkpt>
      <trkpt lat="29.602518150152736" lon="106.31669727240192">
        <ele>249.039306640625</ele>
        <time>2026-08-17T23:28:14Z</time>
      </trkpt>
      <trkpt lat="29.60258856442712" lon="106.31699453833004">
        <ele>251.1925048828125</ele>
        <time>2026-08-17T23:28:38Z</time>
      </trkpt>
      <trkpt lat="29.602554129697836" lon="106.3172289644098">
        <ele>254.72113037109375</ele>
        <time>2026-08-17T23:28:56Z</time>
      </trkpt>
      <trkpt lat="29.602494882418775" lon="106.31736862464724">
        <ele>255.58758544921875</ele>
        <time>2026-08-17T23:29:08Z</time>
      </trkpt>
      <trkpt lat="29.60244478586894" lon="106.31742748293506">
        <ele>256.0811767578125</ele>
        <time>2026-08-17T23:29:14Z</time>
      </trkpt>
      <trkpt lat="29.60232171354504" lon="106.31748534805081">
        <ele>252.42059326171875</ele>
        <time>2026-08-17T23:29:26Z</time>
      </trkpt>
      <trkpt lat="29.602027725854864" lon="106.31752626516307">
        <ele>253.0662841796875</ele>
        <time>2026-08-17T23:29:56Z</time>
      </trkpt>
      <trkpt lat="29.601915691915963" lon="106.31756218356884">
        <ele>256.1390380859375</ele>
        <time>2026-08-17T23:30:08Z</time>
      </trkpt>
      <trkpt lat="29.60187242055396" lon="106.3177118179721">
        <ele>256.7491455078125</ele>
        <time>2026-08-17T23:30:20Z</time>
      </trkpt>
      <trkpt lat="29.601894138634545" lon="106.31785646058897">
        <ele>254.857666015625</ele>
        <time>2026-08-17T23:30:32Z</time>
      </trkpt>
      <trkpt lat="29.60188687119996" lon="106.31799811218661">
        <ele>251.873779296875</ele>
        <time>2026-08-17T23:30:44Z</time>
      </trkpt>
      <trkpt lat="29.601918185107532" lon="106.31835323517748">
        <ele>254.02716064453125</ele>
        <time>2026-08-17T23:31:14Z</time>
      </trkpt>
      <trkpt lat="29.60192277866479" lon="106.31856571092999">
        <ele>254.6651611328125</ele>
        <time>2026-08-17T23:31:32Z</time>
      </trkpt>
      <trkpt lat="29.601936650767723" lon="106.31863055014256">
        <ele>254.80096435546875</ele>
        <time>2026-08-17T23:31:38Z</time>
      </trkpt>
      <trkpt lat="29.601889989480288" lon="106.31898467894759">
        <ele>252.61962890625</ele>
        <time>2026-08-17T23:32:08Z</time>
      </trkpt>
      <trkpt lat="29.601885560466116" lon="106.3192101224371">
        <ele>254.979248046875</ele>
        <time>2026-08-17T23:32:26Z</time>
      </trkpt>
      <trkpt lat="29.601932287050513" lon="106.31934578443452">
        <ele>255.7288818359375</ele>
        <time>2026-08-17T23:32:38Z</time>
      </trkpt>
      <trkpt lat="29.601921575590538" lon="106.3197198603653">
        <ele>257.1114501953125</ele>
        <time>2026-08-17T23:33:08Z</time>
      </trkpt>
      <trkpt lat="29.60191931885018" lon="106.31985452743312">
        <ele>256.34423828125</ele>
        <time>2026-08-17T23:33:20Z</time>
      </trkpt>
      <trkpt lat="29.601939053394606" lon="106.31999019061912">
        <ele>255.3896484375</ele>
        <time>2026-08-17T23:33:32Z</time>
      </trkpt>
      <trkpt lat="29.601998985417147" lon="106.32001612283007">
        <ele>254.7977294921875</ele>
        <time>2026-08-17T23:33:38Z</time>
      </trkpt>
      <trkpt lat="29.602166020060086" lon="106.31997122381954">
        <ele>249.0335693359375</ele>
        <time>2026-08-17T23:33:56Z</time>
      </trkpt>
      <trkpt lat="29.602210935716972" lon="106.32000812978838">
        <ele>245.3148193359375</ele>
        <time>2026-08-17T23:34:02Z</time>
      </trkpt>
      <trkpt lat="29.602189850605395" lon="106.32005601258022">
        <ele>248.5792236328125</ele>
        <time>2026-08-17T23:34:05Z</time>
      </trkpt>
      <trkpt lat="29.602218582309014" lon="106.32019167509536">
        <ele>251.52276611328125</ele>
        <time>2026-08-17T23:34:17Z</time>
      </trkpt>
      <trkpt lat="29.602272479923922" lon="106.32023656073069">
        <ele>250.88739013671875</ele>
        <time>2026-08-17T23:34:23Z</time>
      </trkpt>
      <trkpt lat="29.602355519377618" lon="106.32020263967277">
        <ele>249.7943115234375</ele>
        <time>2026-08-17T23:35:08Z</time>
      </trkpt>
      <trkpt lat="29.602294524697797" lon="106.32020962606919">
        <ele>252.88936093045737</ele>
        <time>2026-08-17T23:35:35Z</time>
      </trkpt>
      <trkpt lat="29.602308405941855" lon="106.32026947707466">
        <ele>253.21013836938397</ele>
        <time>2026-08-17T23:36:29Z</time>
      </trkpt>
      <trkpt lat="29.602438335624747" lon="106.3202854297234">
        <ele>253.95067903875625</ele>
        <time>2026-08-17T23:36:44Z</time>
      </trkpt>
      <trkpt lat="29.602467244705668" lon="106.32032832178692">
        <ele>254.61124467959138</ele>
        <time>2026-08-17T23:37:02Z</time>
      </trkpt>
      <trkpt lat="29.602319488427526" lon="106.32022458752515">
        <ele>290.3568115234375</ele>
        <time>2026-08-17T23:37:23Z</time>
      </trkpt>
      <trkpt lat="29.60240245539077" lon="106.32022857264208">
        <ele>299.5960693359375</ele>
        <time>2026-08-17T23:37:39Z</time>
      </trkpt>
      <trkpt lat="29.602422453085754" lon="106.3202265763739">
        <ele>299.82952880859375</ele>
        <time>2026-08-17T23:38:05Z</time>
      </trkpt>
    </trkseg>
  </trk>
</gpx>