<?xml version="1.0" encoding="UTF-8"?>
<gpx xmlns="http://www.topografix.com/GPX/1/1" xmlns:gpxtpx="http://www.garmin.com/xmlschemas/TrackPointExtension/v1" xmlns:xsi="http://www.w3.org/2001/XMLSchema-instance" xsi:schemaLocation="http://www.topografix.com/GPX/1/1 http://www.topografix.com/GPX/1/1/gpx.xsd" version="1.1" creator="gpx.py -- https://github.com/tkrajina/gpxpy">
  <trk>
    <name>gpx from keep</name>
    <type>Walk</type>
    <trkseg>
      <trkpt lat="29.601872805406117" lon="106.31855972870662">
        <ele>258.8072509765625</ele>
        <time>2026-09-02T23:03:11Z</time>
      </trkpt>
      <trkpt lat="29.601864149701576" lon="106.31890487752793">
        <ele>261.13275146484375</ele>
        <time>2026-09-02T23:03:35Z</time>
      </trkpt>
      <trkpt lat="29.60186551137702" lon="106.31923905218143">
        <ele>261.2076416015625</ele>
        <time>2026-09-02T23:03:59Z</time>
      </trkpt>
      <trkpt lat="29.60190916076437" lon="106.31941561327025">
        <ele>259.804443359375</ele>
        <time>2026-09-02T23:04:11Z</time>
      </trkpt>
      <trkpt lat="29.601907566540675" lon="106.31972684394238">
        <ele>261.5308837890625</ele>
        <time>2026-09-02T23:04:35Z</time>
      </trkpt>
      <trkpt lat="29.60190521255694" lon="106.31991238516133">
        <ele>259.753173828125</ele>
        <time>2026-09-02T23:04:47Z</time>
      </trkpt>
      <trkpt lat="29.601884047374995" lon="106.32000216431977">
        <ele>257.6881103515625</ele>
        <time>2026-09-02T23:04:53Z</time>
      </trkpt>
      <trkpt lat="29.60193100626385" lon="106.32001612693145">
        <ele>258.234619140625</ele>
        <time>2026-09-02T23:04:59Z</time>
      </trkpt>
      <trkpt lat="29.601978129157406" lon="106.31994430179105">
        <ele>255.7052001953125</ele>
        <time>2026-09-02T23:05:05Z</time>
      </trkpt>
      <trkpt lat="29.60204119946581" lon="106.31989741397328">
        <ele>257.361572265625</ele>
        <time>2026-09-02T23:05:11Z</time>
      </trkpt>
      <trkpt lat="29.60232816303616" lon="106.31987046328712">
        <ele>260.9429931640625</ele>
        <time>2026-09-02T23:05:35Z</time>
      </trkpt>
      <trkpt lat="29.60239718386058" lon="106.3198485134088">
        <ele>259.418212890625</ele>
        <time>2026-09-02T23:05:41Z</time>
      </trkpt>
      <trkpt lat="29.60243230087984" lon="106.31978167660071">
        <ele>258.2772216796875</ele>
        <time>2026-09-02T23:05:47Z</time>
      </trkpt>
      <trkpt lat="29.602431583280218" lon="106.31963404173021">
        <ele>258.0386962890625</ele>
        <time>2026-09-02T23:05:59Z</time>
      </trkpt>
      <trkpt lat="29.602456716648074" lon="106.31956022271658">
        <ele>259.58135986328125</ele>
        <time>2026-09-02T23:06:05Z</time>
      </trkpt>
      <trkpt lat="29.602513775426736" lon="106.31952031791327">
        <ele>261.59320068359375</ele>
        <time>2026-09-02T23:06:11Z</time>
      </trkpt>
      <trkpt lat="29.60278571512817" lon="106.31950833109941">
        <ele>260.607177734375</ele>
        <time>2026-09-02T23:06:32Z</time>
      </trkpt>
      <trkpt lat="29.6028587671285" lon="106.31946942285556">
        <ele>259.162841796875</ele>
        <time>2026-09-02T23:06:38Z</time>
      </trkpt>
      <trkpt lat="29.602916865620426" lon="106.31940856974396">
        <ele>255.56011962890625</ele>
        <time>2026-09-02T23:06:44Z</time>
      </trkpt>
      <trkpt lat="29.602908494885742" lon="106.319080381048">
        <ele>250.5164794921875</ele>
        <time>2026-09-02T23:07:08Z</time>
      </trkpt>
      <trkpt lat="29.602908098442214" lon="106.31876416173908">
        <ele>254.65423583984375</ele>
        <time>2026-09-02T23:07:32Z</time>
      </trkpt>
      <trkpt lat="29.602907752891113" lon="106.31842100826566">
        <ele>250.35595703125</ele>
        <time>2026-09-02T23:08:02Z</time>
      </trkpt>
      <trkpt lat="29.602918329368634" lon="106.31811675756644">
        <ele>252.4862060546875</ele>
        <time>2026-09-02T23:08:26Z</time>
      </trkpt>
      <trkpt lat="29.602905479577647" lon="106.31803994757793">
        <ele>252.7037353515625</ele>
        <time>2026-09-02T23:08:32Z</time>
      </trkpt>
      <trkpt lat="29.602964093962" lon="106.31770776199173">
        <ele>249.639404296875</ele>
        <time>2026-09-02T23:08:56Z</time>
      </trkpt>
      <trkpt lat="29.60293478583425" lon="106.31734864719157">
        <ele>253.300048828125</ele>
        <time>2026-09-02T23:09:20Z</time>
      </trkpt>
      <trkpt lat="29.602943934705547" lon="106.31726884283704">
        <ele>253.0032958984375</ele>
        <time>2026-09-02T23:09:26Z</time>
      </trkpt>
      <trkpt lat="29.60297305469912" lon="106.31720100781395">
        <ele>253.4158935546875</ele>
        <time>2026-09-02T23:09:32Z</time>
      </trkpt>
      <trkpt lat="29.602988517929877" lon="106.31695461223183">
        <ele>253.901611328125</ele>
        <time>2026-09-02T23:09:50Z</time>
      </trkpt>
      <trkpt lat="29.602950178892833" lon="106.31661245442332">
        <ele>252.415283203125</ele>
        <time>2026-09-02T23:10:14Z</time>
      </trkpt>
      <trkpt lat="29.60292332896781" lon="106.31653763956989">
        <ele>253.2059326171875</ele>
        <time>2026-09-02T23:10:20Z</time>
      </trkpt>
      <trkpt lat="29.602879450174953" lon="106.31648078166634">
        <ele>254.45831298828125</ele>
        <time>2026-09-02T23:10:26Z</time>
      </trkpt>
      <trkpt lat="29.6027325914994" lon="106.31642991526597">
        <ele>255.21673583984375</ele>
        <time>2026-09-02T23:10:38Z</time>
      </trkpt>
      <trkpt lat="29.602649584738675" lon="106.31644687868487">
        <ele>255.4884033203125</ele>
        <time>2026-09-02T23:10:44Z</time>
      </trkpt>
      <trkpt lat="29.602585517349922" lon="106.31649277001804">
        <ele>254.0130615234375</ele>
        <time>2026-09-02T23:10:50Z</time>
      </trkpt>
      <trkpt lat="29.602520300864533" lon="106.3166174680861">
        <ele>252.49517822265625</ele>
        <time>2026-09-02T23:11:02Z</time>
      </trkpt>
      <trkpt lat="29.602516974497572" lon="106.31679004477844">
        <ele>253.44891357421875</ele>
        <time>2026-09-02T23:11:14Z</time>
      </trkpt>
      <trkpt lat="29.60256149883385" lon="106.31703344439786">
        <ele>254.25128173828125</ele>
        <time>2026-09-02T23:11:29Z</time>
      </trkpt>
      <trkpt lat="29.602549027004205" lon="106.31728382985287">
        <ele>256.6131591796875</ele>
        <time>2026-09-02T23:11:47Z</time>
      </trkpt>
      <trkpt lat="29.60240273046639" lon="106.3174633971472">
        <ele>255.83953857421875</ele>
        <time>2026-09-02T23:12:02Z</time>
      </trkpt>
      <trkpt lat="29.602110698523287" lon="106.31752725770835">
        <ele>255.0897216796875</ele>
        <time>2026-09-02T23:12:26Z</time>
      </trkpt>
      <trkpt lat="29.60197870863495" lon="106.31754322639924">
        <ele>257.64837646484375</ele>
        <time>2026-09-02T23:12:38Z</time>
      </trkpt>
      <trkpt lat="29.601878581869133" lon="106.31762602872335">
        <ele>259.5169677734375</ele>
        <time>2026-09-02T23:12:47Z</time>
      </trkpt>
      <trkpt lat="29.6018554997615" lon="106.31767291473976">
        <ele>259.1912841796875</ele>
        <time>2026-09-02T23:12:50Z</time>
      </trkpt>
      <trkpt lat="29.6018421545824" lon="106.31785646372246">
        <ele>258.1978759765625</ele>
        <time>2026-09-02T23:13:02Z</time>
      </trkpt>
      <trkpt lat="29.601851826866525" lon="106.31802704304111">
        <ele>256.6268310546875</ele>
        <time>2026-09-02T23:13:14Z</time>
      </trkpt>
      <trkpt lat="29.601830700369298" lon="106.31809687229043">
        <ele>256.51751708984375</ele>
        <time>2026-09-02T23:13:20Z</time>
      </trkpt>
      <trkpt lat="29.601830371721068" lon="106.31826944703218">
        <ele>256.9404296875</ele>
        <time>2026-09-02T23:13:32Z</time>
      </trkpt>
      <trkpt lat="29.601866100320933" lon="106.31840610796569">
        <ele>257.3941650390625</ele>
        <time>2026-09-02T23:13:41Z</time>
      </trkpt>
      <trkpt lat="29.601855401709475" lon="106.31877420060118">
        <ele>256.743408203125</ele>
        <time>2026-09-02T23:14:05Z</time>
      </trkpt>
      <trkpt lat="29.601833753485288" lon="106.31911735471165">
        <ele>261.65496826171875</ele>
        <time>2026-09-02T23:14:29Z</time>
      </trkpt>
      <trkpt lat="29.601816434996035" lon="106.31928693684492">
        <ele>260.2191162109375</ele>
        <time>2026-09-02T23:14:41Z</time>
      </trkpt>
      <trkpt lat="29.60185509921768" lon="106.31945651544906">
        <ele>259.382080078125</ele>
        <time>2026-09-02T23:14:53Z</time>
      </trkpt>
      <trkpt lat="29.601852785435337" lon="106.31962110870849">
        <ele>260.4595947265625</ele>
        <time>2026-09-02T23:15:05Z</time>
      </trkpt>
      <trkpt lat="29.601887631761425" lon="106.31969592161583">
        <ele>260.72149658203125</ele>
        <time>2026-09-02T23:15:11Z</time>
      </trkpt>
      <trkpt lat="29.601878100704376" lon="106.31997523131805">
        <ele>256.09735107421875</ele>
        <time>2026-09-02T23:15:32Z</time>
      </trkpt>
      <trkpt lat="29.60192898208443" lon="106.32002909496583">
        <ele>256.6761474609375</ele>
        <time>2026-09-02T23:15:38Z</time>
      </trkpt>
      <trkpt lat="29.60207298752944" lon="106.32000315045231">
        <ele>255.29302978515625</ele>
        <time>2026-09-02T23:15:50Z</time>
      </trkpt>
      <trkpt lat="29.60212103384602" lon="106.31997122653365">
        <ele>257.0126953125</ele>
        <time>2026-09-02T23:15:56Z</time>
      </trkpt>
      <trkpt lat="29.60217501158231" lon="106.31997421587286">
        <ele>254.5274658203125</ele>
        <time>2026-09-02T23:16:02Z</time>
      </trkpt>
      <trkpt lat="29.602166857650573" lon="106.32005601396749">
        <ele>257.15997314453125</ele>
        <time>2026-09-02T23:16:08Z</time>
      </trkpt>
    </trkseg>
  </trk>
</gpx>