<?xml version="1.0" encoding="UTF-8"?>
<gpx xmlns="http://www.topografix.com/GPX/1/1" xmlns:gpxtpx="http://www.garmin.com/xmlschemas/TrackPointExtension/v1" xmlns:xsi="http://www.w3.org/2001/XMLSchema-instance" xsi:schemaLocation="http://www.topografix.com/GPX/1/1 http://www.topografix.com/GPX/1/1/gpx.xsd" version="1.1" creator="gpx.py -- https://github.com/tkrajina/gpxpy">
  <trk>
    <name>gpx from keep</name>
    <type>Walk</type>
    <trkseg>
      <trkpt lat="29.602934584884828" lon="106.31745438717398">
        <ele>242.6883544921875</ele>
        <time>2026-07-24T23:06:56Z</time>
      </trkpt>
      <trkpt lat="29.602944228369488" lon="106.31711422282166">
        <ele>249.57843017578125</ele>
        <time>2026-07-24T23:07:20Z</time>
      </trkpt>
      <trkpt lat="29.602959375305016" lon="106.31703441797166">
        <ele>248.572021484375</ele>
        <time>2026-07-24T23:07:26Z</time>
      </trkpt>
      <trkpt lat="29.602942993764955" lon="106.3167112125323">
        <ele>250.8837890625</ele>
        <time>2026-07-24T23:07:50Z</time>
      </trkpt>
      <trkpt lat="29.60294611202452" lon="106.31664836655918">
        <ele>251.48138427734375</ele>
        <time>2026-07-24T23:07:56Z</time>
      </trkpt>
      <trkpt lat="29.602923204160014" lon="106.31660347807426">
        <ele>251.8900146484375</ele>
        <time>2026-07-24T23:07:59Z</time>
      </trkpt>
      <trkpt lat="29.60289546797292" lon="106.31646881005663">
        <ele>252.0238037109375</ele>
        <time>2026-07-24T23:08:11Z</time>
      </trkpt>
      <trkpt lat="29.60282556685946" lon="106.3164279145566">
        <ele>250.8411865234375</ele>
        <time>2026-07-24T23:08:17Z</time>
      </trkpt>
      <trkpt lat="29.602685611536796" lon="106.31642692543394">
        <ele>249.20159912109375</ele>
        <time>2026-07-24T23:08:29Z</time>
      </trkpt>
      <trkpt lat="29.60261556678002" lon="106.31646184404262">
        <ele>249.2645263671875</ele>
        <time>2026-07-24T23:08:35Z</time>
      </trkpt>
      <trkpt lat="29.602563474921876" lon="106.3165187077368">
        <ele>248.884033203125</ele>
        <time>2026-07-24T23:08:41Z</time>
      </trkpt>
      <trkpt lat="29.602517260172043" lon="106.31663941442537">
        <ele>249.96514892578125</ele>
        <time>2026-07-24T23:08:53Z</time>
      </trkpt>
      <trkpt lat="29.60250914155516" lon="106.31670325825671">
        <ele>247.7095947265625</ele>
        <time>2026-07-24T23:08:59Z</time>
      </trkpt>
      <trkpt lat="29.602540969048416" lon="106.31678904578138">
        <ele>248.3218994140625</ele>
        <time>2026-07-24T23:09:05Z</time>
      </trkpt>
      <trkpt lat="29.602581526803093" lon="106.31701548729843">
        <ele>250.35107421875</ele>
        <time>2026-07-24T23:09:23Z</time>
      </trkpt>
      <trkpt lat="29.60254500548595" lon="106.31729580066742">
        <ele>249.67230224609375</ele>
        <time>2026-07-24T23:09:47Z</time>
      </trkpt>
      <trkpt lat="29.602511884800297" lon="106.31736463343398">
        <ele>251.11993408203125</ele>
        <time>2026-07-24T23:09:53Z</time>
      </trkpt>
      <trkpt lat="29.602404750710853" lon="106.31745242401381">
        <ele>252.00848388671875</ele>
        <time>2026-07-24T23:10:05Z</time>
      </trkpt>
      <trkpt lat="29.602267665604852" lon="106.31751926787936">
        <ele>252.96099853515625</ele>
        <time>2026-07-24T23:10:17Z</time>
      </trkpt>
      <trkpt lat="29.602007714917146" lon="106.3175352442833">
        <ele>255.69287109375</ele>
        <time>2026-07-24T23:10:41Z</time>
      </trkpt>
      <trkpt lat="29.60188663821818" lon="106.3175951043279">
        <ele>251.75592041015625</ele>
        <time>2026-07-24T23:10:53Z</time>
      </trkpt>
      <trkpt lat="29.601862507100403" lon="106.31766792659202">
        <ele>253.8497314453125</ele>
        <time>2026-07-24T23:10:59Z</time>
      </trkpt>
      <trkpt lat="29.601891016167038" lon="106.31792130111293">
        <ele>251.8782958984375</ele>
        <time>2026-07-24T23:11:23Z</time>
      </trkpt>
      <trkpt lat="29.601872476637034" lon="106.31820759692711">
        <ele>251.40924072265625</ele>
        <time>2026-07-24T23:11:47Z</time>
      </trkpt>
      <trkpt lat="29.601890313415858" lon="106.31829039178234">
        <ele>250.9862060546875</ele>
        <time>2026-07-24T23:11:53Z</time>
      </trkpt>
      <trkpt lat="29.601838131717336" lon="106.31839413916711">
        <ele>250.0281982421875</ele>
        <time>2026-07-24T23:12:02Z</time>
      </trkpt>
      <trkpt lat="29.601855407416583" lon="106.31877120798623">
        <ele>253.02264404296875</ele>
        <time>2026-07-24T23:12:32Z</time>
      </trkpt>
      <trkpt lat="29.601853720697328" lon="106.31913131901472">
        <ele>249.30987548828125</ele>
        <time>2026-07-24T23:13:02Z</time>
      </trkpt>
      <trkpt lat="29.60190930362631" lon="106.31934079814546">
        <ele>251.44036865234375</ele>
        <time>2026-07-24T23:13:20Z</time>
      </trkpt>
      <trkpt lat="29.601926610272436" lon="106.31970090693076">
        <ele>253.2183837890625</ele>
        <time>2026-07-24T23:13:50Z</time>
      </trkpt>
      <trkpt lat="29.601932036470494" lon="106.32000016636084">
        <ele>251.2293701171875</ele>
        <time>2026-07-24T23:14:14Z</time>
      </trkpt>
      <trkpt lat="29.601982955993332" lon="106.32003407936773">
        <ele>250.22967529296875</ele>
        <time>2026-07-24T23:14:20Z</time>
      </trkpt>
      <trkpt lat="29.60207213466971" lon="106.31992634054151">
        <ele>249.441650390625</ele>
        <time>2026-07-24T23:14:32Z</time>
      </trkpt>
      <trkpt lat="29.602377037447862" lon="106.31992831721061">
        <ele>251.376220703125</ele>
        <time>2026-07-24T23:15:02Z</time>
      </trkpt>
      <trkpt lat="29.602426106348112" lon="106.3198844228315">
        <ele>251.149169921875</ele>
        <time>2026-07-24T23:15:08Z</time>
      </trkpt>
      <trkpt lat="29.602455227119208" lon="106.31981658886406">
        <ele>251.84954833984375</ele>
        <time>2026-07-24T23:15:14Z</time>
      </trkpt>
      <trkpt lat="29.602475687968344" lon="106.31957219197903">
        <ele>250.88671875</ele>
        <time>2026-07-24T23:15:35Z</time>
      </trkpt>
      <trkpt lat="29.602501767665494" lon="106.31952630384232">
        <ele>249.7578125</ele>
        <time>2026-07-24T23:15:41Z</time>
      </trkpt>
      <trkpt lat="29.602567797015915" lon="106.31950036397089">
        <ele>247.31732177734375</ele>
        <time>2026-07-24T23:15:47Z</time>
      </trkpt>
      <trkpt lat="29.602721723255865" lon="106.31951432016459">
        <ele>253.60321044921875</ele>
        <time>2026-07-24T23:15:59Z</time>
      </trkpt>
      <trkpt lat="29.6028677186539" lon="106.3194933631394">
        <ele>254.01239013671875</ele>
        <time>2026-07-24T23:16:11Z</time>
      </trkpt>
      <trkpt lat="29.60291777387341" lon="106.31945645134877">
        <ele>254.59765625</ele>
        <time>2026-07-24T23:16:17Z</time>
      </trkpt>
      <trkpt lat="29.602954478933395" lon="106.31908137581107">
        <ele>251.7216796875</ele>
        <time>2026-07-24T23:16:53Z</time>
      </trkpt>
      <trkpt lat="29.602959601135723" lon="106.31901653562193">
        <ele>251.57891845703125</ele>
        <time>2026-07-24T23:16:59Z</time>
      </trkpt>
      <trkpt lat="29.602923876661745" lon="106.31887788010785">
        <ele>250.4093017578125</ele>
        <time>2026-07-24T23:17:11Z</time>
      </trkpt>
      <trkpt lat="29.602921012667377" lon="106.31880705509857">
        <ele>250.5406494140625</ele>
        <time>2026-07-24T23:17:17Z</time>
      </trkpt>
      <trkpt lat="29.602872115145637" lon="106.31876117129431">
        <ele>254.2091064453125</ele>
        <time>2026-07-24T23:17:23Z</time>
      </trkpt>
      <trkpt lat="29.602847413787252" lon="106.31860854936521">
        <ele>257.0196533203125</ele>
        <time>2026-07-24T23:17:35Z</time>
      </trkpt>
      <trkpt lat="29.602898664395912" lon="106.31846889073871">
        <ele>253.5865478515625</ele>
        <time>2026-07-24T23:17:47Z</time>
      </trkpt>
      <trkpt lat="29.602921109991552" lon="106.31823147470274">
        <ele>251.1187744140625</ele>
        <time>2026-07-24T23:18:05Z</time>
      </trkpt>
      <trkpt lat="29.602912262820226" lon="106.31815266944494">
        <ele>251.09320068359375</ele>
        <time>2026-07-24T23:18:11Z</time>
      </trkpt>
      <trkpt lat="29.602936409338675" lon="106.31807186707401">
        <ele>251.02178955078125</ele>
        <time>2026-07-24T23:18:17Z</time>
      </trkpt>
      <trkpt lat="29.602922660465293" lon="106.3179421873343">
        <ele>251.41424560546875</ele>
        <time>2026-07-24T23:18:29Z</time>
      </trkpt>
      <trkpt lat="29.602944071608732" lon="106.31772272636982">
        <ele>249.36260986328125</ele>
        <time>2026-07-24T23:18:47Z</time>
      </trkpt>
      <trkpt lat="29.602931195106986" lon="106.31765988181677">
        <ele>249.3287353515625</ele>
        <time>2026-07-24T23:18:53Z</time>
      </trkpt>
      <trkpt lat="29.602959461582273" lon="106.31751523599968">
        <ele>249.949462890625</ele>
        <time>2026-07-24T23:19:05Z</time>
      </trkpt>
      <trkpt lat="29.602934884391132" lon="106.31729677471868">
        <ele>248.302490234375</ele>
        <time>2026-07-24T23:19:23Z</time>
      </trkpt>
      <trkpt lat="29.6029490127651" lon="106.31722694551628">
        <ele>248.69647216796875</ele>
        <time>2026-07-24T23:19:29Z</time>
      </trkpt>
      <trkpt lat="29.602940449277984" lon="106.31699850732522">
        <ele>244.77490234375</ele>
        <time>2026-07-24T23:19:47Z</time>
      </trkpt>
      <trkpt lat="29.602956078706015" lon="106.31666432679587">
        <ele>249.15667724609375</ele>
        <time>2026-07-24T23:20:17Z</time>
      </trkpt>
      <trkpt lat="29.60290536282734" lon="106.31652267735286">
        <ele>250.99102783203125</ele>
        <time>2026-07-24T23:20:32Z</time>
      </trkpt>
      <trkpt lat="29.602808583394655" lon="106.31642193025505">
        <ele>252.13507080078125</ele>
        <time>2026-07-24T23:20:47Z</time>
      </trkpt>
      <trkpt lat="29.602748635751638" lon="106.31640397789072">
        <ele>252.34515380859375</ele>
        <time>2026-07-24T23:20:53Z</time>
      </trkpt>
      <trkpt lat="29.60268864653156" lon="106.31640797172173">
        <ele>252.4132080078125</ele>
        <time>2026-07-24T23:20:59Z</time>
      </trkpt>
      <trkpt lat="29.6025865491827" lon="106.31647581154368">
        <ele>251.9061279296875</ele>
        <time>2026-07-24T23:21:11Z</time>
      </trkpt>
      <trkpt lat="29.60254647255866" lon="106.31652269897464">
        <ele>253.3065185546875</ele>
        <time>2026-07-24T23:21:17Z</time>
      </trkpt>
      <trkpt lat="29.602515018631358" lon="106.31676710121384">
        <ele>251.9859619140625</ele>
        <time>2026-07-24T23:21:35Z</time>
      </trkpt>
      <trkpt lat="29.602577444701602" lon="106.31705937972211">
        <ele>254.1556396484375</ele>
        <time>2026-07-24T23:22:00Z</time>
      </trkpt>
      <trkpt lat="29.602555036539588" lon="106.31727784420423">
        <ele>252.24615478515625</ele>
        <time>2026-07-24T23:22:18Z</time>
      </trkpt>
      <trkpt lat="29.60253191280129" lon="106.317346676377">
        <ele>250.98260498046875</ele>
        <time>2026-07-24T23:22:24Z</time>
      </trkpt>
      <trkpt lat="29.602376704293707" lon="106.31748135455119">
        <ele>246.836181640625</ele>
        <time>2026-07-24T23:22:42Z</time>
      </trkpt>
      <trkpt lat="29.602313674276648" lon="106.31750729455281">
        <ele>248.87176513671875</ele>
        <time>2026-07-24T23:22:48Z</time>
      </trkpt>
      <trkpt lat="29.601993759033046" lon="106.31751429665714">
        <ele>255.89202880859375</ele>
        <time>2026-07-24T23:23:15Z</time>
      </trkpt>
      <trkpt lat="29.60187261785317" lon="106.31760807326495">
        <ele>252.44244384765625</ele>
        <time>2026-07-24T23:23:27Z</time>
      </trkpt>
      <trkpt lat="29.601837499590836" lon="106.31767590845983">
        <ele>252.51739501953125</ele>
        <time>2026-07-24T23:23:33Z</time>
      </trkpt>
      <trkpt lat="29.601870887499544" lon="106.31799212789251">
        <ele>249.0830078125</ele>
        <time>2026-07-24T23:23:57Z</time>
      </trkpt>
      <trkpt lat="29.601868217544762" lon="106.3183442603236">
        <ele>252.12939453125</ele>
        <time>2026-07-24T23:24:27Z</time>
      </trkpt>
      <trkpt lat="29.60189795174113" lon="106.31847892647595">
        <ele>253.4967041015625</ele>
        <time>2026-07-24T23:24:39Z</time>
      </trkpt>
      <trkpt lat="29.601870659595736" lon="106.31863653935572">
        <ele>252.9443359375</ele>
        <time>2026-07-24T23:24:51Z</time>
      </trkpt>
      <trkpt lat="29.601874066707985" lon="106.31894677349777">
        <ele>254.8914794921875</ele>
        <time>2026-07-24T23:25:15Z</time>
      </trkpt>
      <trkpt lat="29.601888487184727" lon="106.319248028616">
        <ele>252.2225341796875</ele>
        <time>2026-07-24T23:25:39Z</time>
      </trkpt>
      <trkpt lat="29.60191834848249" lon="106.31931585922133">
        <ele>252.22113037109375</ele>
        <time>2026-07-24T23:25:45Z</time>
      </trkpt>
      <trkpt lat="29.601927775775874" lon="106.31961412144923">
        <ele>251.79986572265625</ele>
        <time>2026-07-24T23:26:09Z</time>
      </trkpt>
      <trkpt lat="29.60191163393182" lon="106.31969093250147">
        <ele>254.25164794921875</ele>
        <time>2026-07-24T23:26:15Z</time>
      </trkpt>
      <trkpt lat="29.60192833515601" lon="106.31984455156393">
        <ele>254.609375</ele>
        <time>2026-07-24T23:26:27Z</time>
      </trkpt>
      <trkpt lat="29.601961042835644" lon="106.31999218435615">
        <ele>253.80767822265625</ele>
        <time>2026-07-24T23:26:39Z</time>
      </trkpt>
      <trkpt lat="29.601959913456856" lon="106.3200600165795">
        <ele>254.120361328125</ele>
        <time>2026-07-24T23:26:45Z</time>
      </trkpt>
      <trkpt lat="29.601921011237117" lon="106.32001513000274">
        <ele>249.9569091796875</ele>
        <time>2026-07-24T23:26:54Z</time>
      </trkpt>
      <trkpt lat="29.6019800694299" lon="106.31997522516609">
        <ele>252.24114990234375</ele>
        <time>2026-07-24T23:26:57Z</time>
      </trkpt>
      <trkpt lat="29.602161960261135" lon="106.32000314508431">
        <ele>250.201171875</ele>
        <time>2026-07-24T23:27:06Z</time>
      </trkpt>
      <trkpt lat="29.602179893719686" lon="106.32003506501741">
        <ele>248.08642578125</ele>
        <time>2026-07-24T23:27:09Z</time>
      </trkpt>
    </trkseg>
  </trk>
</gpx>