<?xml version="1.0" encoding="UTF-8"?>
<gpx xmlns="http://www.topografix.com/GPX/1/1" xmlns:gpxtpx="http://www.garmin.com/xmlschemas/TrackPointExtension/v1" xmlns:xsi="http://www.w3.org/2001/XMLSchema-instance" xsi:schemaLocation="http://www.topografix.com/GPX/1/1 http://www.topografix.com/GPX/1/1/gpx.xsd" version="1.1" creator="gpx.py -- https://github.com/tkrajina/gpxpy">
  <trk>
    <name>gpx from keep</name>
    <type>Walk</type>
    <trkseg>
      <trkpt lat="29.602424126026577" lon="106.31987444762727">
        <ele>260.82794189453125</ele>
        <time>2026-09-07T22:59:37Z</time>
      </trkpt>
      <trkpt lat="29.60246519927564" lon="106.31982955618676">
        <ele>266.11175537109375</ele>
        <time>2026-09-07T22:59:43Z</time>
      </trkpt>
      <trkpt lat="29.60244057099726" lon="106.3196390288558">
        <ele>267.408203125</ele>
        <time>2026-09-07T22:59:58Z</time>
      </trkpt>
      <trkpt lat="29.602465719610837" lon="106.31955722957167">
        <ele>266.202392578125</ele>
        <time>2026-09-07T23:00:04Z</time>
      </trkpt>
      <trkpt lat="29.60251882915114" lon="106.31949138911635">
        <ele>265.85498046875</ele>
        <time>2026-09-07T23:00:10Z</time>
      </trkpt>
      <trkpt lat="29.602590828086832" lon="106.31948041189591">
        <ele>268.400634765625</ele>
        <time>2026-09-07T23:00:16Z</time>
      </trkpt>
      <trkpt lat="29.602743726058325" lon="106.31950933116646">
        <ele>269.06396484375</ele>
        <time>2026-09-07T23:00:28Z</time>
      </trkpt>
      <trkpt lat="29.60288176391281" lon="106.31946742639958">
        <ele>263.7801513671875</ele>
        <time>2026-09-07T23:00:40Z</time>
      </trkpt>
      <trkpt lat="29.60293386804814" lon="106.31940457857954">
        <ele>261.6973876953125</ele>
        <time>2026-09-07T23:00:46Z</time>
      </trkpt>
      <trkpt lat="29.60294801234536" lon="106.3193267700025">
        <ele>260.6885986328125</ele>
        <time>2026-09-07T23:00:52Z</time>
      </trkpt>
      <trkpt lat="29.602940159529133" lon="106.31925095779148">
        <ele>259.6771240234375</ele>
        <time>2026-09-07T23:00:58Z</time>
      </trkpt>
      <trkpt lat="29.602973560695403" lon="106.31903548797818">
        <ele>254.2813720703125</ele>
        <time>2026-09-07T23:01:16Z</time>
      </trkpt>
      <trkpt lat="29.602931822840866" lon="106.31890481314106">
        <ele>254.85113525390625</ele>
        <time>2026-09-07T23:01:28Z</time>
      </trkpt>
      <trkpt lat="29.602924534779607" lon="106.31853273172403">
        <ele>251.7801513671875</ele>
        <time>2026-09-07T23:01:58Z</time>
      </trkpt>
      <trkpt lat="29.602924941557784" lon="106.31831925809223">
        <ele>251.5023193359375</ele>
        <time>2026-09-07T23:02:16Z</time>
      </trkpt>
      <trkpt lat="29.602939064594587" lon="106.31825242198859">
        <ele>251.02850341796875</ele>
        <time>2026-09-07T23:02:22Z</time>
      </trkpt>
      <trkpt lat="29.60293332858617" lon="106.3181147615779">
        <ele>248.9061279296875</ele>
        <time>2026-09-07T23:02:34Z</time>
      </trkpt>
      <trkpt lat="29.60299991977813" lon="106.31779354866013">
        <ele>245.1689453125</ele>
        <time>2026-09-07T23:03:04Z</time>
      </trkpt>
      <trkpt lat="29.602981454864306" lon="106.3175152346741">
        <ele>248.117919921875</ele>
        <time>2026-09-07T23:03:28Z</time>
      </trkpt>
      <trkpt lat="29.60298613030037" lon="106.31715910999095">
        <ele>247.74285888671875</ele>
        <time>2026-09-07T23:03:58Z</time>
      </trkpt>
      <trkpt lat="29.602980698315374" lon="106.31686084296206">
        <ele>244.8673095703125</ele>
        <time>2026-09-07T23:04:22Z</time>
      </trkpt>
      <trkpt lat="29.602993063624563" lon="106.31666631967204">
        <ele>250.215087890625</ele>
        <time>2026-09-07T23:04:40Z</time>
      </trkpt>
      <trkpt lat="29.602972217563547" lon="106.31658851182948">
        <ele>250.3768310546875</ele>
        <time>2026-09-07T23:05:04Z</time>
      </trkpt>
      <trkpt lat="29.60290632470591" lon="106.31654262836042">
        <ele>252.0692138671875</ele>
        <time>2026-09-07T23:05:10Z</time>
      </trkpt>
      <trkpt lat="29.602840522581754" lon="106.31644886228982">
        <ele>255.13397216796875</ele>
        <time>2026-09-07T23:05:22Z</time>
      </trkpt>
      <trkpt lat="29.602792597734304" lon="106.3164169434473">
        <ele>254.17022705078125</ele>
        <time>2026-09-07T23:05:28Z</time>
      </trkpt>
      <trkpt lat="29.602721628883792" lon="106.31641195995171">
        <ele>254.7889404296875</ele>
        <time>2026-09-07T23:05:34Z</time>
      </trkpt>
      <trkpt lat="29.602608525440477" lon="106.31648478820293">
        <ele>255.028564453125</ele>
        <time>2026-09-07T23:05:46Z</time>
      </trkpt>
      <trkpt lat="29.602533310126866" lon="106.3166104844337">
        <ele>254.404541015625</ele>
        <time>2026-09-07T23:05:58Z</time>
      </trkpt>
      <trkpt lat="29.602524055612946" lon="106.31674615208625">
        <ele>253.81158447265625</ele>
        <time>2026-09-07T23:06:10Z</time>
      </trkpt>
      <trkpt lat="29.60261138884938" lon="106.31708331885855">
        <ele>253.353515625</ele>
        <time>2026-09-07T23:06:40Z</time>
      </trkpt>
      <trkpt lat="29.602579031094304" lon="106.31727684521042">
        <ele>253.70391845703125</ele>
        <time>2026-09-07T23:06:58Z</time>
      </trkpt>
      <trkpt lat="29.6025138045706" lon="106.31740653029276">
        <ele>254.02587890625</ele>
        <time>2026-09-07T23:07:10Z</time>
      </trkpt>
      <trkpt lat="29.60239667162544" lon="106.317495318996">
        <ele>251.73736572265625</ele>
        <time>2026-09-07T23:07:22Z</time>
      </trkpt>
      <trkpt lat="29.602198675357773" lon="106.31752525731387">
        <ele>251.1295166015625</ele>
        <time>2026-09-07T23:07:40Z</time>
      </trkpt>
      <trkpt lat="29.60199976098652" lon="106.31751230120312">
        <ele>254.88525390625</ele>
        <time>2026-09-07T23:07:58Z</time>
      </trkpt>
      <trkpt lat="29.601937726894267" lon="106.31754023623137">
        <ele>253.1124267578125</ele>
        <time>2026-09-07T23:08:04Z</time>
      </trkpt>
      <trkpt lat="29.601889644885226" lon="106.3175911139643">
        <ele>252.948974609375</ele>
        <time>2026-09-07T23:08:10Z</time>
      </trkpt>
      <trkpt lat="29.601865515666" lon="106.31766293868515">
        <ele>252.6201171875</ele>
        <time>2026-09-07T23:08:16Z</time>
      </trkpt>
      <trkpt lat="29.60187580811207" lon="106.31803302685175">
        <ele>253.1845703125</ele>
        <time>2026-09-07T23:08:46Z</time>
      </trkpt>
      <trkpt lat="29.60190355831621" lon="106.31815971304981">
        <ele>252.97998046875</ele>
        <time>2026-09-07T23:08:58Z</time>
      </trkpt>
      <trkpt lat="29.601904903967526" lon="106.31850286701328">
        <ele>251.798095703125</ele>
        <time>2026-09-07T23:09:28Z</time>
      </trkpt>
      <trkpt lat="29.601858223850055" lon="106.31886697145819">
        <ele>253.5472412109375</ele>
        <time>2026-09-07T23:09:58Z</time>
      </trkpt>
      <trkpt lat="29.60186554946197" lon="106.31921910146572">
        <ele>254.89007568359375</ele>
        <time>2026-09-07T23:10:28Z</time>
      </trkpt>
      <trkpt lat="29.60189742158006" lon="106.31928094674801">
        <ele>254.88531494140625</ele>
        <time>2026-09-07T23:10:34Z</time>
      </trkpt>
      <trkpt lat="29.601905725348885" lon="106.3196440487875">
        <ele>255.1297607421875</ele>
        <time>2026-09-07T23:11:04Z</time>
      </trkpt>
      <trkpt lat="29.60191903092121" lon="106.32000515480452">
        <ele>257.802978515625</ele>
        <time>2026-09-07T23:11:34Z</time>
      </trkpt>
      <trkpt lat="29.601941936140523" lon="106.32005103988013">
        <ele>257.06903076171875</ele>
        <time>2026-09-07T23:11:40Z</time>
      </trkpt>
      <trkpt lat="29.602071928715375" lon="106.3200340739997">
        <ele>257.2684326171875</ele>
        <time>2026-09-07T23:11:52Z</time>
      </trkpt>
      <trkpt lat="29.60219500736319" lon="106.31997321713455">
        <ele>255.346923828125</ele>
        <time>2026-09-07T23:12:04Z</time>
      </trkpt>
      <trkpt lat="29.60229068616085" lon="106.32012583369348">
        <ele>248.559326171875</ele>
        <time>2026-09-07T23:12:19Z</time>
      </trkpt>
    </trkseg>
  </trk>
</gpx>