<?xml version="1.0" encoding="UTF-8"?>
<gpx xmlns="http://www.topografix.com/GPX/1/1" xmlns:gpxtpx="http://www.garmin.com/xmlschemas/TrackPointExtension/v1" xmlns:xsi="http://www.w3.org/2001/XMLSchema-instance" xsi:schemaLocation="http://www.topografix.com/GPX/1/1 http://www.topografix.com/GPX/1/1/gpx.xsd" version="1.1" creator="gpx.py -- https://github.com/tkrajina/gpxpy">
  <trk>
    <name>gpx from keep</name>
    <type>Walk</type>
    <trkseg>
      <trkpt lat="29.572076974218742" lon="106.56598814703639">
        <ele>159.1982421875</ele>
        <time>2026-10-09T23:55:40Z</time>
      </trkpt>
      <trkpt lat="29.572287156967487" lon="106.56619331834816">
        <ele>155.74322509765625</ele>
        <time>2026-10-09T23:55:58Z</time>
      </trkpt>
      <trkpt lat="29.57258320745768" lon="106.56631641014367">
        <ele>158.054443359375</ele>
        <time>2026-10-09T23:56:22Z</time>
      </trkpt>
      <trkpt lat="29.57266817831607" lon="106.56631640515833">
        <ele>157.06610107421875</ele>
        <time>2026-10-09T23:56:28Z</time>
      </trkpt>
      <trkpt lat="29.572780059666382" lon="106.56625134100051">
        <ele>162.2218017578125</ele>
        <time>2026-10-09T23:56:40Z</time>
      </trkpt>
      <trkpt lat="29.57285701102613" lon="106.56623332049878">
        <ele>162.37408447265625</ele>
        <time>2026-10-09T23:56:49Z</time>
      </trkpt>
      <trkpt lat="29.573035009397913" lon="106.56628135265035">
        <ele>162.781494140625</ele>
        <time>2026-10-09T23:57:07Z</time>
      </trkpt>
      <trkpt lat="29.57308903040959" lon="106.56631337781278">
        <ele>163.51849365234375</ele>
        <time>2026-10-09T23:57:13Z</time>
      </trkpt>
      <trkpt lat="29.573145983753083" lon="106.56629135499853">
        <ele>165.194091796875</ele>
        <time>2026-10-09T23:57:19Z</time>
      </trkpt>
      <trkpt lat="29.573215893074543" lon="106.56623730299626">
        <ele>165.7713623046875</ele>
        <time>2026-10-09T23:57:25Z</time>
      </trkpt>
      <trkpt lat="29.573265861124707" lon="106.56622528939985">
        <ele>167.0245361328125</ele>
        <time>2026-10-09T23:57:34Z</time>
      </trkpt>
      <trkpt lat="29.573357921108183" lon="106.5662993496474">
        <ele>173.0931396484375</ele>
        <time>2026-10-09T23:57:49Z</time>
      </trkpt>
      <trkpt lat="29.57340888144854" lon="106.56628133071425">
        <ele>176.6109619140625</ele>
        <time>2026-10-09T23:57:58Z</time>
      </trkpt>
      <trkpt lat="29.573407800189038" lon="106.56621527217904">
        <ele>179.25445556640625</ele>
        <time>2026-10-09T23:58:07Z</time>
      </trkpt>
      <trkpt lat="29.573443848482988" lon="106.56626431359012">
        <ele>179.09417724609375</ele>
        <time>2026-10-09T23:58:22Z</time>
      </trkpt>
      <trkpt lat="29.57374984881467" lon="106.56634937085225">
        <ele>182.90228271484375</ele>
        <time>2026-10-09T23:58:52Z</time>
      </trkpt>
      <trkpt lat="29.574050710343585" lon="106.56632032757862">
        <ele>190.2548828125</ele>
        <time>2026-10-09T23:59:22Z</time>
      </trkpt>
      <trkpt lat="29.57419660378112" lon="106.56627427829082">
        <ele>187.5614013671875</ele>
        <time>2026-10-09T23:59:34Z</time>
      </trkpt>
      <trkpt lat="29.574357452427773" lon="106.56619619954813">
        <ele>183.6907958984375</ele>
        <time>2026-10-09T23:59:52Z</time>
      </trkpt>
      <trkpt lat="29.574414431770204" lon="106.56619519531428">
        <ele>185.361572265625</ele>
        <time>2026-10-10T00:00:01Z</time>
      </trkpt>
      <trkpt lat="29.574518494070055" lon="106.56627425940381">
        <ele>190.632568359375</ele>
        <time>2026-10-10T00:00:16Z</time>
      </trkpt>
      <trkpt lat="29.57457948565098" lon="106.56628426468806">
        <ele>192.52972412109375</ele>
        <time>2026-10-10T00:00:22Z</time>
      </trkpt>
      <trkpt lat="29.574639509651863" lon="106.56632029303088">
        <ele>191.803466796875</ele>
        <time>2026-10-10T00:00:28Z</time>
      </trkpt>
      <trkpt lat="29.574627733793676" lon="106.56649945118532">
        <ele>192.2967529296875</ele>
        <time>2026-10-10T00:00:40Z</time>
      </trkpt>
      <trkpt lat="29.574688742431395" lon="106.56652346859461">
        <ele>189.66644287109375</ele>
        <time>2026-10-10T00:00:46Z</time>
      </trkpt>
      <trkpt lat="29.574963642769173" lon="106.56651844809468">
        <ele>197.492919921875</ele>
        <time>2026-10-10T00:01:31Z</time>
      </trkpt>
      <trkpt lat="29.575074535163537" lon="106.56646139167708">
        <ele>205.5299072265625</ele>
        <time>2026-10-10T00:01:43Z</time>
      </trkpt>
      <trkpt lat="29.575208452802595" lon="106.56643135748422">
        <ele>209.17041015625</ele>
        <time>2026-10-10T00:01:55Z</time>
      </trkpt>
      <trkpt lat="29.575249366323643" lon="106.56637230315798">
        <ele>204.772705078125</ele>
        <time>2026-10-10T00:02:04Z</time>
      </trkpt>
      <trkpt lat="29.575265277081492" lon="106.56630424215909">
        <ele>206.8681640625</ele>
        <time>2026-10-10T00:02:10Z</time>
      </trkpt>
      <trkpt lat="29.57529333783774" lon="106.56636129087732">
        <ele>208.9090576171875</ele>
        <time>2026-10-10T00:02:19Z</time>
      </trkpt>
      <trkpt lat="29.57526349181083" lon="106.56647839549292">
        <ele>206.5738525390625</ele>
        <time>2026-10-10T00:02:31Z</time>
      </trkpt>
      <trkpt lat="29.575302530037266" lon="106.56652042995871">
        <ele>205.8450927734375</ele>
        <time>2026-10-10T00:02:37Z</time>
      </trkpt>
      <trkpt lat="29.575412515952067" lon="106.56653944010372">
        <ele>205.52069091796875</ele>
        <time>2026-10-10T00:02:50Z</time>
      </trkpt>
      <trkpt lat="29.57552144223021" lon="106.56650940749583">
        <ele>205.3175048828125</ele>
        <time>2026-10-10T00:03:02Z</time>
      </trkpt>
      <trkpt lat="29.575658433714338" lon="106.56654042654738">
        <ele>565.214599609375</ele>
        <time>2026-10-10T00:03:11Z</time>
      </trkpt>
      <trkpt lat="29.575624521030985" lon="106.56660248257037">
        <ele>386.409423828125</ele>
        <time>2026-10-10T00:03:23Z</time>
      </trkpt>
      <trkpt lat="29.5756256474409" lon="106.56670657270247">
        <ele>314.0074462890625</ele>
        <time>2026-10-10T00:03:29Z</time>
      </trkpt>
      <trkpt lat="29.57569765220723" lon="106.56673058921461">
        <ele>283.6375732421875</ele>
        <time>2026-10-10T00:03:38Z</time>
      </trkpt>
      <trkpt lat="29.57574761701855" lon="106.56671557332572">
        <ele>268.720458984375</ele>
        <time>2026-10-10T00:03:44Z</time>
      </trkpt>
      <trkpt lat="29.575880613262253" lon="106.56674959487545">
        <ele>264.62872314453125</ele>
        <time>2026-10-10T00:03:56Z</time>
      </trkpt>
      <trkpt lat="29.576065681519434" lon="106.56685767686719">
        <ele>254.4581298828125</ele>
        <time>2026-10-10T00:04:14Z</time>
      </trkpt>
      <trkpt lat="29.576138688245905" lon="106.566883694848">
        <ele>251.85345458984375</ele>
        <time>2026-10-10T00:04:20Z</time>
      </trkpt>
      <trkpt lat="29.57623066677459" lon="106.56689169629487">
        <ele>246.22125244140625</ele>
        <time>2026-10-10T00:04:26Z</time>
      </trkpt>
      <trkpt lat="29.576320620608247" lon="106.56687867989417">
        <ele>242.84320068359375</ele>
        <time>2026-10-10T00:04:32Z</time>
      </trkpt>
      <trkpt lat="29.57654427051313" lon="106.56665247203597">
        <ele>250.472900390625</ele>
        <time>2026-10-10T00:04:47Z</time>
      </trkpt>
      <trkpt lat="29.57658619532087" lon="106.56660242614254">
        <ele>248.4981689453125</ele>
        <time>2026-10-10T00:04:50Z</time>
      </trkpt>
      <trkpt lat="29.57668194608153" lon="106.5664252657506">
        <ele>228.9378662109375</ele>
        <time>2026-10-10T00:04:56Z</time>
      </trkpt>
      <trkpt lat="29.576846772194937" lon="106.5663291714692">
        <ele>227.74359130859375</ele>
        <time>2026-10-10T00:05:08Z</time>
      </trkpt>
      <trkpt lat="29.576998723349337" lon="106.56633116432008">
        <ele>230.880615234375</ele>
        <time>2026-10-10T00:05:20Z</time>
      </trkpt>
      <trkpt lat="29.57705676167007" lon="106.56637820239142">
        <ele>230.822509765625</ele>
        <time>2026-10-10T00:05:26Z</time>
      </trkpt>
      <trkpt lat="29.577256763065662" lon="106.5664342399286">
        <ele>228.304931640625</ele>
        <time>2026-10-10T00:05:44Z</time>
      </trkpt>
      <trkpt lat="29.57731966066406" lon="106.56636817814875">
        <ele>229.5833740234375</ele>
        <time>2026-10-10T00:05:50Z</time>
      </trkpt>
      <trkpt lat="29.577450588187638" lon="106.56634515017072">
        <ele>225.33880615234375</ele>
        <time>2026-10-10T00:05:59Z</time>
      </trkpt>
      <trkpt lat="29.577583595099874" lon="106.56638717940596">
        <ele>222.288330078125</ele>
        <time>2026-10-10T00:06:08Z</time>
      </trkpt>
      <trkpt lat="29.577721521559884" lon="106.56636515192126">
        <ele>221.99871826171875</ele>
        <time>2026-10-10T00:06:20Z</time>
      </trkpt>
      <trkpt lat="29.577786447930833" lon="106.56632311102405">
        <ele>225.31964111328125</ele>
        <time>2026-10-10T00:06:26Z</time>
      </trkpt>
      <trkpt lat="29.57791440240043" lon="106.56632110174705">
        <ele>226.6484375</ele>
        <time>2026-10-10T00:06:35Z</time>
      </trkpt>
      <trkpt lat="29.577963403180963" lon="106.56633511124532">
        <ele>225.3778076171875</ele>
        <time>2026-10-10T00:06:38Z</time>
      </trkpt>
      <trkpt lat="29.578085330099157" lon="106.5663090811025">
        <ele>223.93218994140625</ele>
        <time>2026-10-10T00:06:44Z</time>
      </trkpt>
      <trkpt lat="29.578212331804107" lon="106.56634510546975">
        <ele>222.65142822265625</ele>
        <time>2026-10-10T00:06:53Z</time>
      </trkpt>
      <trkpt lat="29.57833024037585" lon="106.56630306142054">
        <ele>221.2437744140625</ele>
        <time>2026-10-10T00:07:05Z</time>
      </trkpt>
      <trkpt lat="29.578490203927025" lon="106.56631706441983">
        <ele>232.0906982421875</ele>
        <time>2026-10-10T00:07:17Z</time>
      </trkpt>
      <trkpt lat="29.57854415001706" lon="106.56628803558507">
        <ele>233.8287353515625</ele>
        <time>2026-10-10T00:07:23Z</time>
      </trkpt>
      <trkpt lat="29.578662106721968" lon="106.56628502600499">
        <ele>238.4588623046875</ele>
        <time>2026-10-10T00:07:38Z</time>
      </trkpt>
      <trkpt lat="29.578709123046846" lon="106.56631104626537">
        <ele>238.4749755859375</ele>
        <time>2026-10-10T00:07:44Z</time>
      </trkpt>
    </trkseg>
  </trk>
</gpx>