<?xml version="1.0" encoding="UTF-8"?>
<gpx xmlns="http://www.topografix.com/GPX/1/1" xmlns:gpxtpx="http://www.garmin.com/xmlschemas/TrackPointExtension/v1" xmlns:xsi="http://www.w3.org/2001/XMLSchema-instance" xsi:schemaLocation="http://www.topografix.com/GPX/1/1 http://www.topografix.com/GPX/1/1/gpx.xsd" version="1.1" creator="gpx.py -- https://github.com/tkrajina/gpxpy">
  <trk>
    <name>gpx from keep</name>
    <type>Walk</type>
    <trkseg>
      <trkpt lat="29.602436381623683" lon="106.31973878243792">
        <ele>258.674560546875</ele>
        <time>2026-08-16T23:03:02Z</time>
      </trkpt>
      <trkpt lat="29.602424688329055" lon="106.31958017532632">
        <ele>257.39056396484375</ele>
        <time>2026-08-16T23:03:14Z</time>
      </trkpt>
      <trkpt lat="29.602467757108133" lon="106.31953727876876">
        <ele>256.67254638671875</ele>
        <time>2026-08-16T23:03:20Z</time>
      </trkpt>
      <trkpt lat="29.60253277152005" lon="106.31951931923325">
        <ele>257.61456298828125</ele>
        <time>2026-08-16T23:03:26Z</time>
      </trkpt>
      <trkpt lat="29.602734665931447" lon="106.31954225033836">
        <ele>257.9786376953125</ele>
        <time>2026-08-16T23:03:44Z</time>
      </trkpt>
      <trkpt lat="29.602805657571864" lon="106.3195352633177">
        <ele>259.0411376953125</ele>
        <time>2026-08-16T23:03:50Z</time>
      </trkpt>
      <trkpt lat="29.602918809764656" lon="106.31943749813077">
        <ele>257.535888671875</ele>
        <time>2026-08-16T23:04:02Z</time>
      </trkpt>
      <trkpt lat="29.60294648708742" lon="106.31907838368372">
        <ele>250.4862060546875</ele>
        <time>2026-08-16T23:04:32Z</time>
      </trkpt>
      <trkpt lat="29.60291990832795" lon="106.31886191974527">
        <ele>252.22802734375</ele>
        <time>2026-08-16T23:04:50Z</time>
      </trkpt>
      <trkpt lat="29.602935046441107" lon="106.31878710349162">
        <ele>254.08038330078125</ele>
        <time>2026-08-16T23:04:56Z</time>
      </trkpt>
      <trkpt lat="29.60292267417461" lon="106.31845991143113">
        <ele>253.14794921875</ele>
        <time>2026-08-16T23:05:20Z</time>
      </trkpt>
      <trkpt lat="29.602917394250383" lon="106.31808284118658">
        <ele>252.2562255859375</ele>
        <time>2026-08-16T23:05:50Z</time>
      </trkpt>
      <trkpt lat="29.602942076014372" lon="106.3177207314007">
        <ele>255.4542236328125</ele>
        <time>2026-08-16T23:06:20Z</time>
      </trkpt>
      <trkpt lat="29.602948743648312" lon="106.31736859729413">
        <ele>251.8248291015625</ele>
        <time>2026-08-16T23:06:50Z</time>
      </trkpt>
      <trkpt lat="29.602946445552085" lon="106.31699950451365">
        <ele>253.98712158203125</ele>
        <time>2026-08-16T23:07:20Z</time>
      </trkpt>
      <trkpt lat="29.60295698003013" lon="106.31671619944903">
        <ele>252.578857421875</ele>
        <time>2026-08-16T23:07:44Z</time>
      </trkpt>
      <trkpt lat="29.602980114882158" lon="106.31664138164362">
        <ele>252.98883056640625</ele>
        <time>2026-08-16T23:07:50Z</time>
      </trkpt>
      <trkpt lat="29.602946399462397" lon="106.31649673849077">
        <ele>251.7786865234375</ele>
        <time>2026-08-16T23:08:02Z</time>
      </trkpt>
      <trkpt lat="29.60290051181381" lon="106.31644486846001">
        <ele>251.95831298828125</ele>
        <time>2026-08-16T23:08:08Z</time>
      </trkpt>
      <trkpt lat="29.60276561732582" lon="106.31641095974747">
        <ele>253.1390380859375</ele>
        <time>2026-08-16T23:08:20Z</time>
      </trkpt>
      <trkpt lat="29.602698635914376" lon="106.31641196133688">
        <ele>253.4005126953125</ele>
        <time>2026-08-16T23:08:26Z</time>
      </trkpt>
      <trkpt lat="29.602578337969444" lon="106.31658853555994">
        <ele>254.87225341796875</ele>
        <time>2026-08-16T23:08:44Z</time>
      </trkpt>
      <trkpt lat="29.60256005973766" lon="106.31673816950348">
        <ele>254.6976318359375</ele>
        <time>2026-08-16T23:08:56Z</time>
      </trkpt>
      <trkpt lat="29.602591429056694" lon="106.31706536417529">
        <ele>254.76812744140625</ele>
        <time>2026-08-16T23:09:20Z</time>
      </trkpt>
      <trkpt lat="29.602597270008577" lon="106.31714816038945">
        <ele>254.640380859375</ele>
        <time>2026-08-16T23:09:26Z</time>
      </trkpt>
      <trkpt lat="29.602555956635555" lon="106.31731974114878">
        <ele>256.4500732421875</ele>
        <time>2026-08-16T23:09:38Z</time>
      </trkpt>
      <trkpt lat="29.602515853247148" lon="106.31738059394846">
        <ele>255.8516845703125</ele>
        <time>2026-08-16T23:09:44Z</time>
      </trkpt>
      <trkpt lat="29.602346685033357" lon="106.31749631955493">
        <ele>255.6641845703125</ele>
        <time>2026-08-16T23:10:02Z</time>
      </trkpt>
      <trkpt lat="29.60229157670722" lon="106.31756216091387">
        <ele>258.12615966796875</ele>
        <time>2026-08-16T23:10:08Z</time>
      </trkpt>
      <trkpt lat="29.602153558277625" lon="106.3175940906946">
        <ele>260.953369140625</ele>
        <time>2026-08-16T23:10:20Z</time>
      </trkpt>
      <trkpt lat="29.601948590754937" lon="106.31761006377693">
        <ele>263.95123291015625</ele>
        <time>2026-08-16T23:10:38Z</time>
      </trkpt>
      <trkpt lat="29.601890416931205" lon="106.31771081934258">
        <ele>261.261474609375</ele>
        <time>2026-08-16T23:10:50Z</time>
      </trkpt>
      <trkpt lat="29.6018797499138" lon="106.31806295289209">
        <ele>256.78106689453125</ele>
        <time>2026-08-16T23:11:20Z</time>
      </trkpt>
      <trkpt lat="29.601866185849698" lon="106.31836121863786">
        <ele>257.16455078125</ele>
        <time>2026-08-16T23:11:44Z</time>
      </trkpt>
      <trkpt lat="29.60188203648883" lon="106.31843703075333">
        <ele>257.19970703125</ele>
        <time>2026-08-16T23:11:50Z</time>
      </trkpt>
      <trkpt lat="29.60185849400061" lon="106.31872532103642">
        <ele>255.814453125</ele>
        <time>2026-08-16T23:12:14Z</time>
      </trkpt>
      <trkpt lat="29.60188582701129" lon="106.31907046736032">
        <ele>256.16400146484375</ele>
        <time>2026-08-16T23:12:44Z</time>
      </trkpt>
      <trkpt lat="29.601886539213314" lon="106.31922109527122">
        <ele>256.22271728515625</ele>
        <time>2026-08-16T23:12:56Z</time>
      </trkpt>
      <trkpt lat="29.601946017967826" lon="106.31948444092828">
        <ele>252.7352294921875</ele>
        <time>2026-08-16T23:13:20Z</time>
      </trkpt>
      <trkpt lat="29.601889785522395" lon="106.3196151212746">
        <ele>255.03985595703125</ele>
        <time>2026-08-16T23:13:32Z</time>
      </trkpt>
      <trkpt lat="29.601914062967012" lon="106.31998919459498">
        <ele>256.90283203125</ele>
        <time>2026-08-16T23:14:02Z</time>
      </trkpt>
      <trkpt lat="29.601953951533485" lon="106.32004106383917">
        <ele>256.9635009765625</ele>
        <time>2026-08-16T23:14:08Z</time>
      </trkpt>
      <trkpt lat="29.60210713157223" lon="106.31992234830143">
        <ele>259.85040283203125</ele>
        <time>2026-08-16T23:14:26Z</time>
      </trkpt>
      <trkpt lat="29.60216106545081" lon="106.3199482808825">
        <ele>260.749267578125</ele>
        <time>2026-08-16T23:14:32Z</time>
      </trkpt>
      <trkpt lat="29.602180893413372" lon="106.32003506495708">
        <ele>259.938232421875</ele>
        <time>2026-08-16T23:14:38Z</time>
      </trkpt>
      <trkpt lat="29.60221474948979" lon="106.3201048901184">
        <ele>261.424560546875</ele>
        <time>2026-08-16T23:14:44Z</time>
      </trkpt>
      <trkpt lat="29.602255658727824" lon="106.3201457864306">
        <ele>260.494384765625</ele>
        <time>2026-08-16T23:14:50Z</time>
      </trkpt>
      <trkpt lat="29.602286649235623" lon="106.32014578456072">
        <ele>260.3873291015625</ele>
        <time>2026-08-16T23:14:53Z</time>
      </trkpt>
    </trkseg>
  </trk>
</gpx>