<?xml version="1.0" encoding="UTF-8"?>
<gpx xmlns="http://www.topografix.com/GPX/1/1" xmlns:gpxtpx="http://www.garmin.com/xmlschemas/TrackPointExtension/v1" xmlns:xsi="http://www.w3.org/2001/XMLSchema-instance" xsi:schemaLocation="http://www.topografix.com/GPX/1/1 http://www.topografix.com/GPX/1/1/gpx.xsd" version="1.1" creator="gpx.py -- https://github.com/tkrajina/gpxpy">
  <trk>
    <name>gpx from keep</name>
    <type>Walk</type>
    <trkseg>
      <trkpt lat="29.60238624060888" lon="106.31982058315658">
        <ele>267.26007080078125</ele>
        <time>2026-08-26T23:01:04Z</time>
      </trkpt>
      <trkpt lat="29.602433186189288" lon="106.31984152850904">
        <ele>260.03753662109375</ele>
        <time>2026-08-26T23:01:10Z</time>
      </trkpt>
      <trkpt lat="29.602423583822535" lon="106.31963503974633">
        <ele>259.5225830078125</ele>
        <time>2026-08-26T23:01:31Z</time>
      </trkpt>
      <trkpt lat="29.60245168768936" lon="106.31957618356226">
        <ele>260.52191162109375</ele>
        <time>2026-08-26T23:01:37Z</time>
      </trkpt>
      <trkpt lat="29.602502757832607" lon="106.31953129145306">
        <ele>261.1343994140625</ele>
        <time>2026-08-26T23:01:43Z</time>
      </trkpt>
      <trkpt lat="29.60280370581726" lon="106.31951032508255">
        <ele>265.6943359375</ele>
        <time>2026-08-26T23:02:13Z</time>
      </trkpt>
      <trkpt lat="29.602895877749397" lon="106.3194055784058">
        <ele>265.7965087890625</ele>
        <time>2026-08-26T23:02:25Z</time>
      </trkpt>
      <trkpt lat="29.602911404493256" lon="106.3191272650795">
        <ele>265.228271484375</ele>
        <time>2026-08-26T23:02:49Z</time>
      </trkpt>
      <trkpt lat="29.60294066213471" lon="106.31898760819469">
        <ele>260.65771484375</ele>
        <time>2026-08-26T23:03:01Z</time>
      </trkpt>
      <trkpt lat="29.60291336319928" lon="106.31862450601379">
        <ele>256.0010986328125</ele>
        <time>2026-08-26T23:03:31Z</time>
      </trkpt>
      <trkpt lat="29.602909060456764" lon="106.31825940658638">
        <ele>259.96954345703125</ele>
        <time>2026-08-26T23:04:01Z</time>
      </trkpt>
      <trkpt lat="29.602886327746415" lon="106.31812274474842">
        <ele>259.5087890625</ele>
        <time>2026-08-26T23:04:13Z</time>
      </trkpt>
      <trkpt lat="29.602921569635384" lon="106.31799006946876">
        <ele>257.98101806640625</ele>
        <time>2026-08-26T23:04:25Z</time>
      </trkpt>
      <trkpt lat="29.602922252869703" lon="106.31763095354445">
        <ele>259.80291748046875</ele>
        <time>2026-08-26T23:04:55Z</time>
      </trkpt>
      <trkpt lat="29.602934893866983" lon="106.31729178697991">
        <ele>255.688232421875</ele>
        <time>2026-08-26T23:05:25Z</time>
      </trkpt>
      <trkpt lat="29.602957582298654" lon="106.31692568514025">
        <ele>249.78485107421875</ele>
        <time>2026-08-26T23:05:55Z</time>
      </trkpt>
      <trkpt lat="29.602942272110457" lon="106.31656457236318">
        <ele>251.3515625</ele>
        <time>2026-08-26T23:06:25Z</time>
      </trkpt>
      <trkpt lat="29.602882494628435" lon="106.31645684019239">
        <ele>251.267333984375</ele>
        <time>2026-08-26T23:06:37Z</time>
      </trkpt>
      <trkpt lat="29.602828584844175" lon="106.31641793883347">
        <ele>251.88525390625</ele>
        <time>2026-08-26T23:06:43Z</time>
      </trkpt>
      <trkpt lat="29.602704658650577" lon="106.31639899276853">
        <ele>253.66497802734375</ele>
        <time>2026-08-26T23:06:55Z</time>
      </trkpt>
      <trkpt lat="29.602594582653676" lon="106.31645685753753">
        <ele>252.07769775390625</ele>
        <time>2026-08-26T23:07:07Z</time>
      </trkpt>
      <trkpt lat="29.602529392669364" lon="106.31656758989713">
        <ele>250.63616943359375</ele>
        <time>2026-08-26T23:07:19Z</time>
      </trkpt>
      <trkpt lat="29.602521109506302" lon="106.31671822081448">
        <ele>250.1561279296875</ele>
        <time>2026-08-26T23:07:31Z</time>
      </trkpt>
      <trkpt lat="29.60259055434789" lon="106.31699952595906">
        <ele>251.875244140625</ele>
        <time>2026-08-26T23:07:55Z</time>
      </trkpt>
      <trkpt lat="29.602569142163105" lon="106.31721998557177">
        <ele>252.78778076171875</ele>
        <time>2026-08-26T23:08:13Z</time>
      </trkpt>
      <trkpt lat="29.602471787086877" lon="106.31742249357404">
        <ele>254.6397705078125</ele>
        <time>2026-08-26T23:08:31Z</time>
      </trkpt>
      <trkpt lat="29.6023566762835" lon="106.31749931159148">
        <ele>253.06298828125</ele>
        <time>2026-08-26T23:08:43Z</time>
      </trkpt>
      <trkpt lat="29.602043700090213" lon="106.31753723720645">
        <ele>249.6387939453125</ele>
        <time>2026-08-26T23:09:13Z</time>
      </trkpt>
      <trkpt lat="29.60197369120248" lon="106.31755320216065">
        <ele>252.29052734375</ele>
        <time>2026-08-26T23:09:19Z</time>
      </trkpt>
      <trkpt lat="29.60188252942337" lon="106.31765296220807">
        <ele>256.34259033203125</ele>
        <time>2026-08-26T23:09:31Z</time>
      </trkpt>
      <trkpt lat="29.60187030162262" lon="106.31777466340888">
        <ele>254.53875732421875</ele>
        <time>2026-08-26T23:09:43Z</time>
      </trkpt>
      <trkpt lat="29.60189416710559" lon="106.31784149742893">
        <ele>254.4512939453125</ele>
        <time>2026-08-26T23:09:49Z</time>
      </trkpt>
      <trkpt lat="29.6018915240033" lon="106.31817966461185">
        <ele>257.85333251953125</ele>
        <time>2026-08-26T23:10:19Z</time>
      </trkpt>
      <trkpt lat="29.60185126836829" lon="106.31832032036583">
        <ele>259.1435546875</ele>
        <time>2026-08-26T23:10:31Z</time>
      </trkpt>
      <trkpt lat="29.60186098399964" lon="106.31846795576531">
        <ele>257.2935791015625</ele>
        <time>2026-08-26T23:10:43Z</time>
      </trkpt>
      <trkpt lat="29.601846560450163" lon="106.31869240298322">
        <ele>255.8070068359375</ele>
        <time>2026-08-26T23:11:01Z</time>
      </trkpt>
      <trkpt lat="29.60188490345923" lon="106.31903056595053">
        <ele>253.34490966796875</ele>
        <time>2026-08-26T23:11:31Z</time>
      </trkpt>
      <trkpt lat="29.601883530612188" lon="106.31922608313116">
        <ele>251.51739501953125</ele>
        <time>2026-08-26T23:11:49Z</time>
      </trkpt>
      <trkpt lat="29.60191413827632" lon="106.31942658585128">
        <ele>255.245361328125</ele>
        <time>2026-08-26T23:12:07Z</time>
      </trkpt>
      <trkpt lat="29.601926459685924" lon="106.31977971205117">
        <ele>256.47637939453125</ele>
        <time>2026-08-26T23:12:37Z</time>
      </trkpt>
      <trkpt lat="29.6019080457365" lon="106.31999917027645">
        <ele>256.781982421875</ele>
        <time>2026-08-26T23:12:55Z</time>
      </trkpt>
      <trkpt lat="29.60195697731404" lon="106.3200270982134">
        <ele>255.5982666015625</ele>
        <time>2026-08-26T23:13:01Z</time>
      </trkpt>
      <trkpt lat="29.60216698542803" lon="106.31998917933552">
        <ele>251.98443603515625</ele>
        <time>2026-08-26T23:13:19Z</time>
      </trkpt>
      <trkpt lat="29.6021968599047" lon="106.32005002696793">
        <ele>251.15606689453125</ele>
        <time>2026-08-26T23:13:25Z</time>
      </trkpt>
      <trkpt lat="29.602234598393203" lon="106.32018070128845">
        <ele>251.166015625</ele>
        <time>2026-08-26T23:13:37Z</time>
      </trkpt>
      <trkpt lat="29.602256555410367" lon="106.32019965305145">
        <ele>250.01422119140625</ele>
        <time>2026-08-26T23:13:40Z</time>
      </trkpt>
    </trkseg>
  </trk>
</gpx>