<?xml version="1.0" encoding="UTF-8"?>
<gpx xmlns="http://www.topografix.com/GPX/1/1" xmlns:gpxtpx="http://www.garmin.com/xmlschemas/TrackPointExtension/v1" xmlns:xsi="http://www.w3.org/2001/XMLSchema-instance" xsi:schemaLocation="http://www.topografix.com/GPX/1/1 http://www.topografix.com/GPX/1/1/gpx.xsd" version="1.1" creator="gpx.py -- https://github.com/tkrajina/gpxpy">
  <trk>
    <name>gpx from keep</name>
    <type>Walk</type>
    <trkseg>
      <trkpt lat="29.602445415085995" lon="106.31971982876415">
        <ele>276.39105224609375</ele>
        <time>2026-07-28T22:58:59Z</time>
      </trkpt>
      <trkpt lat="29.602428567046093" lon="106.31964301971406">
        <ele>260.85125732421875</ele>
        <time>2026-07-28T22:59:32Z</time>
      </trkpt>
      <trkpt lat="29.60244872100144" lon="106.31955922566496">
        <ele>260.983642578125</ele>
        <time>2026-07-28T22:59:38Z</time>
      </trkpt>
      <trkpt lat="29.602502782602524" lon="106.31951832350809">
        <ele>260.1392822265625</ele>
        <time>2026-07-28T22:59:44Z</time>
      </trkpt>
      <trkpt lat="29.602781714445186" lon="106.31950932887493">
        <ele>264.978759765625</ele>
        <time>2026-07-28T23:00:11Z</time>
      </trkpt>
      <trkpt lat="29.602838706555293" lon="106.31950433776606">
        <ele>262.3599853515625</ele>
        <time>2026-07-28T23:00:17Z</time>
      </trkpt>
      <trkpt lat="29.60288776017487" lon="106.31946842357229">
        <ele>261.20050048828125</ele>
        <time>2026-07-28T23:00:23Z</time>
      </trkpt>
      <trkpt lat="29.602917882459334" lon="106.31939959187012">
        <ele>258.373779296875</ele>
        <time>2026-07-28T23:00:29Z</time>
      </trkpt>
      <trkpt lat="29.602925588678065" lon="106.3190285081144">
        <ele>254.07037353515625</ele>
        <time>2026-07-28T23:01:00Z</time>
      </trkpt>
      <trkpt lat="29.602916867382707" lon="106.3188838657559">
        <ele>251.91845703125</ele>
        <time>2026-07-28T23:01:12Z</time>
      </trkpt>
      <trkpt lat="29.602935989060843" lon="106.31881702957492">
        <ele>248.1971435546875</ele>
        <time>2026-07-28T23:01:18Z</time>
      </trkpt>
      <trkpt lat="29.602936259181064" lon="106.3186753791163">
        <ele>253.093994140625</ele>
        <time>2026-07-28T23:01:30Z</time>
      </trkpt>
      <trkpt lat="29.602910643621186" lon="106.31847786787581">
        <ele>253.8624267578125</ele>
        <time>2026-07-28T23:01:48Z</time>
      </trkpt>
      <trkpt lat="29.602913317599956" lon="106.31812374066337">
        <ele>255.77001953125</ele>
        <time>2026-07-28T23:02:18Z</time>
      </trkpt>
      <trkpt lat="29.60290559350972" lon="106.31798009500211">
        <ele>255.9730224609375</ele>
        <time>2026-07-28T23:02:30Z</time>
      </trkpt>
      <trkpt lat="29.602946822085556" lon="106.31785340450254">
        <ele>256.09564208984375</ele>
        <time>2026-07-28T23:02:42Z</time>
      </trkpt>
      <trkpt lat="29.602924474167498" lon="106.31751424056233">
        <ele>254.8785400390625</ele>
        <time>2026-07-28T23:03:12Z</time>
      </trkpt>
      <trkpt lat="29.602908611785825" lon="106.3174444132738">
        <ele>255.646484375</ele>
        <time>2026-07-28T23:03:18Z</time>
      </trkpt>
      <trkpt lat="29.602952292219165" lon="106.31707930811888">
        <ele>254.10302734375</ele>
        <time>2026-07-28T23:03:48Z</time>
      </trkpt>
      <trkpt lat="29.602963004683804" lon="106.31670223335912">
        <ele>253.5557861328125</ele>
        <time>2026-07-28T23:04:18Z</time>
      </trkpt>
      <trkpt lat="29.602916450216064" lon="106.31647479411504">
        <ele>254.12176513671875</ele>
        <time>2026-07-28T23:04:36Z</time>
      </trkpt>
      <trkpt lat="29.602813629118124" lon="106.31639699109515">
        <ele>253.5325927734375</ele>
        <time>2026-07-28T23:04:48Z</time>
      </trkpt>
      <trkpt lat="29.60274866977094" lon="106.31638602191032">
        <ele>253.6806640625</ele>
        <time>2026-07-28T23:04:54Z</time>
      </trkpt>
      <trkpt lat="29.602682671045848" lon="106.3163960014301">
        <ele>251.962890625</ele>
        <time>2026-07-28T23:05:00Z</time>
      </trkpt>
      <trkpt lat="29.60255643357485" lon="106.316541651887">
        <ele>251.59185791015625</ele>
        <time>2026-07-28T23:05:18Z</time>
      </trkpt>
      <trkpt lat="29.60252721928305" lon="106.3166593648731">
        <ele>250.77978515625</ele>
        <time>2026-07-28T23:05:30Z</time>
      </trkpt>
      <trkpt lat="29.602528963257395" lon="106.31679403426132">
        <ele>250.9630126953125</ele>
        <time>2026-07-28T23:05:42Z</time>
      </trkpt>
      <trkpt lat="29.602582405293923" lon="106.3170793304084">
        <ele>253.4434814453125</ele>
        <time>2026-07-28T23:06:06Z</time>
      </trkpt>
      <trkpt lat="29.602582272701525" lon="106.31714915884191">
        <ele>253.57952880859375</ele>
        <time>2026-07-28T23:06:12Z</time>
      </trkpt>
      <trkpt lat="29.60253890876463" lon="106.31734767350265">
        <ele>253.42071533203125</ele>
        <time>2026-07-28T23:06:30Z</time>
      </trkpt>
      <trkpt lat="29.602497818944162" lon="106.31740154352178">
        <ele>254.4052734375</ele>
        <time>2026-07-28T23:06:36Z</time>
      </trkpt>
      <trkpt lat="29.602310671402478" lon="106.31750928982613">
        <ele>253.2757568359375</ele>
        <time>2026-07-28T23:06:54Z</time>
      </trkpt>
      <trkpt lat="29.602172730730278" lon="106.31750032022407">
        <ele>253.48046875</ele>
        <time>2026-07-28T23:07:06Z</time>
      </trkpt>
      <trkpt lat="29.601974757272064" lon="106.31751828798684">
        <ele>251.23333740234375</ele>
        <time>2026-07-28T23:07:24Z</time>
      </trkpt>
      <trkpt lat="29.60190769247246" lon="106.31756318159677">
        <ele>252.31793212890625</ele>
        <time>2026-07-28T23:07:30Z</time>
      </trkpt>
      <trkpt lat="29.60186356939683" lon="106.31763500753628">
        <ele>254.39666748046875</ele>
        <time>2026-07-28T23:07:36Z</time>
      </trkpt>
      <trkpt lat="29.601857282836946" lon="106.31778663472568">
        <ele>258.2420654296875</ele>
        <time>2026-07-28T23:07:48Z</time>
      </trkpt>
      <trkpt lat="29.60187984296509" lon="106.31801407329617">
        <ele>257.6513671875</ele>
        <time>2026-07-28T23:08:06Z</time>
      </trkpt>
      <trkpt lat="29.60186370924037" lon="106.31808689487734">
        <ele>257.15374755859375</ele>
        <time>2026-07-28T23:08:12Z</time>
      </trkpt>
      <trkpt lat="29.601871009447578" lon="106.31845299206027">
        <ele>258.26531982421875</ele>
        <time>2026-07-28T23:08:42Z</time>
      </trkpt>
      <trkpt lat="29.601872873854948" lon="106.31852381727865">
        <ele>258.6171875</ele>
        <time>2026-07-28T23:08:48Z</time>
      </trkpt>
      <trkpt lat="29.601848611189727" lon="106.3186654693135">
        <ele>258.63763427734375</ele>
        <time>2026-07-28T23:09:00Z</time>
      </trkpt>
      <trkpt lat="29.601872086352184" lon="106.31893679824478">
        <ele>257.02838134765625</ele>
        <time>2026-07-28T23:09:24Z</time>
      </trkpt>
      <trkpt lat="29.60186554755776" lon="106.31922009900156">
        <ele>256.060791015625</ele>
        <time>2026-07-28T23:09:48Z</time>
      </trkpt>
      <trkpt lat="29.601939987417996" lon="106.31950139937499">
        <ele>255.9693603515625</ele>
        <time>2026-07-28T23:10:12Z</time>
      </trkpt>
      <trkpt lat="29.601944294025785" lon="106.31986350371874">
        <ele>257.82470703125</ele>
        <time>2026-07-28T23:10:42Z</time>
      </trkpt>
      <trkpt lat="29.601960005001054" lon="106.32001213505487">
        <ele>256.14935302734375</ele>
        <time>2026-07-28T23:10:54Z</time>
      </trkpt>
      <trkpt lat="29.601995932936507" lon="106.32004405390113">
        <ele>250.132080078125</ele>
        <time>2026-07-28T23:11:00Z</time>
      </trkpt>
      <trkpt lat="29.60214292031122" lon="106.32002708699481">
        <ele>249.9866943359375</ele>
        <time>2026-07-28T23:11:15Z</time>
      </trkpt>
    </trkseg>
  </trk>
</gpx>