<?xml version="1.0" encoding="UTF-8"?>
<gpx xmlns="http://www.topografix.com/GPX/1/1" xmlns:gpxtpx="http://www.garmin.com/xmlschemas/TrackPointExtension/v1" xmlns:xsi="http://www.w3.org/2001/XMLSchema-instance" xsi:schemaLocation="http://www.topografix.com/GPX/1/1 http://www.topografix.com/GPX/1/1/gpx.xsd" version="1.1" creator="gpx.py -- https://github.com/tkrajina/gpxpy">
  <trk>
    <name>gpx from keep</name>
    <type>Walk</type>
    <trkseg>
      <trkpt lat="29.60198767363472" lon="106.31756018413883">
        <ele>257.7447509765625</ele>
        <time>2026-09-09T22:46:46Z</time>
      </trkpt>
      <trkpt lat="29.60190052390346" lon="106.3176529611235">
        <ele>260.857421875</ele>
        <time>2026-09-09T22:46:58Z</time>
      </trkpt>
      <trkpt lat="29.601880315634858" lon="106.3177656849056">
        <ele>260.6485595703125</ele>
        <time>2026-09-09T22:47:10Z</time>
      </trkpt>
      <trkpt lat="29.60188160685255" lon="106.31813776845006">
        <ele>255.58465576171875</ele>
        <time>2026-09-09T22:47:46Z</time>
      </trkpt>
      <trkpt lat="29.6018938807237" lon="106.3185168332343">
        <ele>256.66595458984375</ele>
        <time>2026-09-09T22:48:16Z</time>
      </trkpt>
      <trkpt lat="29.601876627326654" lon="106.31865249961899">
        <ele>256.4566650390625</ele>
        <time>2026-09-09T22:48:28Z</time>
      </trkpt>
      <trkpt lat="29.601896994946703" lon="106.31898068837707">
        <ele>254.4005126953125</ele>
        <time>2026-09-09T22:48:58Z</time>
      </trkpt>
      <trkpt lat="29.601902564773777" lon="106.31920513373261">
        <ele>253.55181884765625</ele>
        <time>2026-09-09T22:49:16Z</time>
      </trkpt>
      <trkpt lat="29.601953120603564" lon="106.31942957610381">
        <ele>254.431884765625</ele>
        <time>2026-09-09T22:49:34Z</time>
      </trkpt>
      <trkpt lat="29.601929435890263" lon="106.31979168226563">
        <ele>255.9268798828125</ele>
        <time>2026-09-09T22:50:04Z</time>
      </trkpt>
      <trkpt lat="29.60193203837754" lon="106.31999916882891">
        <ele>256.15472412109375</ele>
        <time>2026-09-09T22:50:22Z</time>
      </trkpt>
      <trkpt lat="29.601994057510403" lon="106.31997921444984">
        <ele>254.77886962890625</ele>
        <time>2026-09-09T22:50:31Z</time>
      </trkpt>
      <trkpt lat="29.60204714614469" lon="106.31992434698476">
        <ele>256.59332275390625</ele>
        <time>2026-09-09T22:50:37Z</time>
      </trkpt>
      <trkpt lat="29.60219616150974" lon="106.31989241696284">
        <ele>254.937255859375</ele>
        <time>2026-09-09T22:50:49Z</time>
      </trkpt>
      <trkpt lat="29.602296111819633" lon="106.31990238625569">
        <ele>255.8507080078125</ele>
        <time>2026-09-09T22:50:55Z</time>
      </trkpt>
      <trkpt lat="29.602339041452232" lon="106.3199323096315">
        <ele>255.169189453125</ele>
        <time>2026-09-09T22:50:58Z</time>
      </trkpt>
      <trkpt lat="29.602384029584936" lon="106.31993130938515">
        <ele>255.93536376953125</ele>
        <time>2026-09-09T22:51:01Z</time>
      </trkpt>
      <trkpt lat="29.60244916604114" lon="106.31984950780526">
        <ele>256.94036865234375</ele>
        <time>2026-09-09T22:51:07Z</time>
      </trkpt>
      <trkpt lat="29.60246833180224" lon="106.3197597287034">
        <ele>256.5023193359375</ele>
        <time>2026-09-09T22:51:13Z</time>
      </trkpt>
      <trkpt lat="29.602469676465134" lon="106.31957917507866">
        <ele>258.016845703125</ele>
        <time>2026-09-09T22:51:25Z</time>
      </trkpt>
      <trkpt lat="29.60253675695892" lon="106.3195263017317">
        <ele>256.6571044921875</ele>
        <time>2026-09-09T22:51:31Z</time>
      </trkpt>
      <trkpt lat="29.602757716063618" lon="106.31951232292508">
        <ele>259.66668701171875</ele>
        <time>2026-09-09T22:51:49Z</time>
      </trkpt>
      <trkpt lat="29.602807681730866" lon="106.31952229525248">
        <ele>256.94659423828125</ele>
        <time>2026-09-09T22:51:52Z</time>
      </trkpt>
      <trkpt lat="29.602868725969437" lon="106.31948937294153">
        <ele>254.28900146484375</ele>
        <time>2026-09-09T22:51:58Z</time>
      </trkpt>
      <trkpt lat="29.602903791485215" lon="106.3194494694509">
        <ele>252.45526123046875</ele>
        <time>2026-09-09T22:52:01Z</time>
      </trkpt>
      <trkpt lat="29.602947366844333" lon="106.31914122841664">
        <ele>250.318603515625</ele>
        <time>2026-09-09T22:52:22Z</time>
      </trkpt>
      <trkpt lat="29.602890823945877" lon="106.31891080083801">
        <ele>247.66314697265625</ele>
        <time>2026-09-09T22:52:40Z</time>
      </trkpt>
      <trkpt lat="29.602892390532265" lon="106.3186135343487">
        <ele>250.74298095703125</ele>
        <time>2026-09-09T22:53:04Z</time>
      </trkpt>
      <trkpt lat="29.602888941151388" lon="106.31832524550788">
        <ele>247.8291015625</ele>
        <time>2026-09-09T22:53:28Z</time>
      </trkpt>
      <trkpt lat="29.602934242804015" lon="106.31815965091302">
        <ele>245.1639404296875</ele>
        <time>2026-09-09T22:53:40Z</time>
      </trkpt>
      <trkpt lat="29.60294676134403" lon="106.3178853259055">
        <ele>244.93994140625</ele>
        <time>2026-09-09T22:53:55Z</time>
      </trkpt>
      <trkpt lat="29.602978049841365" lon="106.31772870958977">
        <ele>245.0389404296875</ele>
        <time>2026-09-09T22:54:04Z</time>
      </trkpt>
      <trkpt lat="29.602976750262318" lon="106.31736061522905">
        <ele>245.8094482421875</ele>
        <time>2026-09-09T22:54:28Z</time>
      </trkpt>
      <trkpt lat="29.60296048671985" lon="106.3169755624712">
        <ele>246.0999755859375</ele>
        <time>2026-09-09T22:54:52Z</time>
      </trkpt>
      <trkpt lat="29.602965004073063" lon="106.31670223323866">
        <ele>249.18212890625</ele>
        <time>2026-09-09T22:55:10Z</time>
      </trkpt>
      <trkpt lat="29.602953191215477" lon="106.31660547137304">
        <ele>252.71148681640625</ele>
        <time>2026-09-09T22:55:17Z</time>
      </trkpt>
      <trkpt lat="29.60288847578234" lon="106.31646581781654">
        <ele>255.000732421875</ele>
        <time>2026-09-09T22:55:26Z</time>
      </trkpt>
      <trkpt lat="29.60281659796111" lon="106.31641295178464">
        <ele>256.248291015625</ele>
        <time>2026-09-09T22:55:32Z</time>
      </trkpt>
      <trkpt lat="29.602743665629365" lon="106.31638901487501">
        <ele>256.016845703125</ele>
        <time>2026-09-09T22:55:38Z</time>
      </trkpt>
      <trkpt lat="29.602664672768885" lon="106.31639799762307">
        <ele>255.937255859375</ele>
        <time>2026-09-09T22:55:44Z</time>
      </trkpt>
      <trkpt lat="29.60259160247422" lon="106.31644688217797">
        <ele>256.26416015625</ele>
        <time>2026-09-09T22:55:50Z</time>
      </trkpt>
      <trkpt lat="29.60254049141033" lon="106.3165137213544">
        <ele>253.26611328125</ele>
        <time>2026-09-09T22:55:56Z</time>
      </trkpt>
      <trkpt lat="29.60251533832785" lon="106.31659851488368">
        <ele>253.7335205078125</ele>
        <time>2026-09-09T22:56:02Z</time>
      </trkpt>
      <trkpt lat="29.602511981704087" lon="106.31678705242525">
        <ele>252.85186767578125</ele>
        <time>2026-09-09T22:56:14Z</time>
      </trkpt>
      <trkpt lat="29.602579264147096" lon="106.31715414676654">
        <ele>252.0885009765625</ele>
        <time>2026-09-09T22:56:38Z</time>
      </trkpt>
      <trkpt lat="29.602592163549797" lon="106.31720502096097">
        <ele>251.9560546875</ele>
        <time>2026-09-09T22:56:41Z</time>
      </trkpt>
      <trkpt lat="29.60250482628135" lon="106.31739655536487">
        <ele>254.91741943359375</ele>
        <time>2026-09-09T22:56:53Z</time>
      </trkpt>
      <trkpt lat="29.602444717613523" lon="106.31746339461667">
        <ele>253.7159423828125</ele>
        <time>2026-09-09T22:56:59Z</time>
      </trkpt>
      <trkpt lat="29.602378671445827" lon="106.3174983127196">
        <ele>251.25537109375</ele>
        <time>2026-09-09T22:57:05Z</time>
      </trkpt>
      <trkpt lat="29.602075739589942" lon="106.31751129907776">
        <ele>252.23431396484375</ele>
        <time>2026-09-09T22:57:29Z</time>
      </trkpt>
      <trkpt lat="29.6019227314935" lon="106.31754023713513">
        <ele>253.6751708984375</ele>
        <time>2026-09-09T22:57:41Z</time>
      </trkpt>
      <trkpt lat="29.60187261405948" lon="106.31761006835617">
        <ele>254.7100830078125</ele>
        <time>2026-09-09T22:57:47Z</time>
      </trkpt>
      <trkpt lat="29.601854448842605" lon="106.31769984851726">
        <ele>254.379150390625</ele>
        <time>2026-09-09T22:57:53Z</time>
      </trkpt>
      <trkpt lat="29.601873787836364" lon="106.31804399994279">
        <ele>255.764404296875</ele>
        <time>2026-09-09T22:58:17Z</time>
      </trkpt>
      <trkpt lat="29.60187812325067" lon="106.31839214167508">
        <ele>257.0601806640625</ele>
        <time>2026-09-09T22:58:41Z</time>
      </trkpt>
      <trkpt lat="29.601871377778412" lon="106.31878417501945">
        <ele>255.78765869140625</ele>
        <time>2026-09-09T22:59:08Z</time>
      </trkpt>
      <trkpt lat="29.601868771307103" lon="106.31910238955503">
        <ele>251.1971435546875</ele>
        <time>2026-09-09T22:59:32Z</time>
      </trkpt>
      <trkpt lat="29.601865623723086" lon="106.31918019756397">
        <ele>250.05438232421875</ele>
        <time>2026-09-09T22:59:38Z</time>
      </trkpt>
      <trkpt lat="29.60188346967464" lon="106.31925800427405">
        <ele>250.98577880859375</ele>
        <time>2026-09-09T22:59:44Z</time>
      </trkpt>
      <trkpt lat="29.601919336748274" lon="106.3193218443729">
        <ele>250.37347412109375</ele>
        <time>2026-09-09T22:59:50Z</time>
      </trkpt>
      <trkpt lat="29.60192770526228" lon="106.31965103019617">
        <ele>252.38946533203125</ele>
        <time>2026-09-09T23:00:14Z</time>
      </trkpt>
      <trkpt lat="29.601944103349894" lon="106.31996325695249">
        <ele>253.0433349609375</ele>
        <time>2026-09-09T23:00:38Z</time>
      </trkpt>
      <trkpt lat="29.601962948774293" lon="106.32004106329634">
        <ele>253.3524169921875</ele>
        <time>2026-09-09T23:00:44Z</time>
      </trkpt>
      <trkpt lat="29.602032988345535" lon="106.32000913805628">
        <ele>250.852294921875</ele>
        <time>2026-09-09T23:00:50Z</time>
      </trkpt>
      <trkpt lat="29.60218396115035" lon="106.31999915362971">
        <ele>252.78472900390625</ele>
        <time>2026-09-09T23:01:02Z</time>
      </trkpt>
      <trkpt lat="29.602244889069304" lon="106.32002708084265">
        <ele>253.8765869140625</ele>
        <time>2026-09-09T23:01:08Z</time>
      </trkpt>
      <trkpt lat="29.60224668055897" lon="106.3201358116607">
        <ele>249.41278076171875</ele>
        <time>2026-09-09T23:01:17Z</time>
      </trkpt>
    </trkseg>
  </trk>
</gpx>