<?xml version="1.0" encoding="UTF-8"?>
<gpx xmlns="http://www.topografix.com/GPX/1/1" xmlns:gpxtpx="http://www.garmin.com/xmlschemas/TrackPointExtension/v1" xmlns:xsi="http://www.w3.org/2001/XMLSchema-instance" xsi:schemaLocation="http://www.topografix.com/GPX/1/1 http://www.topografix.com/GPX/1/1/gpx.xsd" version="1.1" creator="gpx.py -- https://github.com/tkrajina/gpxpy">
  <trk>
    <name>gpx from keep</name>
    <type>Walk</type>
    <trkseg>
      <trkpt lat="29.602602418117097" lon="106.31706935371018">
        <ele>255.48687744140625</ele>
        <time>2026-09-13T00:00:18Z</time>
      </trkpt>
      <trkpt lat="29.6025499205635" lon="106.31733969246059">
        <ele>250.6876220703125</ele>
        <time>2026-09-13T00:00:42Z</time>
      </trkpt>
      <trkpt lat="29.602516813131682" lon="106.31740154237704">
        <ele>250.58270263671875</ele>
        <time>2026-09-13T00:00:48Z</time>
      </trkpt>
      <trkpt lat="29.602455735104197" lon="106.31745242094104">
        <ele>249.109375</ele>
        <time>2026-09-13T00:00:54Z</time>
      </trkpt>
      <trkpt lat="29.60212769141828" lon="106.31752825423021">
        <ele>249.6875</ele>
        <time>2026-09-13T00:01:24Z</time>
      </trkpt>
      <trkpt lat="29.601889567114068" lon="106.31763201333337">
        <ele>254.6580810546875</ele>
        <time>2026-09-13T00:01:48Z</time>
      </trkpt>
      <trkpt lat="29.60187332537217" lon="106.31776169514913">
        <ele>253.6041259765625</ele>
        <time>2026-09-13T00:02:00Z</time>
      </trkpt>
      <trkpt lat="29.60188819172159" lon="106.3178295272614">
        <ele>254.0960693359375</ele>
        <time>2026-09-13T00:02:06Z</time>
      </trkpt>
      <trkpt lat="29.601881460578088" lon="106.31821457917647">
        <ele>252.241455078125</ele>
        <time>2026-09-13T00:02:36Z</time>
      </trkpt>
      <trkpt lat="29.601894865206944" lon="106.31852481349235">
        <ele>250.604248046875</ele>
        <time>2026-09-13T00:03:00Z</time>
      </trkpt>
      <trkpt lat="29.60188454308981" lon="106.31869539330887">
        <ele>250.033447265625</ele>
        <time>2026-09-13T00:03:12Z</time>
      </trkpt>
      <trkpt lat="29.60189711103696" lon="106.31891983860129">
        <ele>251.084228515625</ele>
        <time>2026-09-13T00:03:30Z</time>
      </trkpt>
      <trkpt lat="29.601888557641953" lon="106.3192111197921">
        <ele>250.8214111328125</ele>
        <time>2026-09-13T00:03:54Z</time>
      </trkpt>
      <trkpt lat="29.60192629841365" lon="106.3193407971204">
        <ele>252.46710205078125</ele>
        <time>2026-09-13T00:04:06Z</time>
      </trkpt>
      <trkpt lat="29.60191866228068" lon="106.3196749715441">
        <ele>250.89483642578125</ele>
        <time>2026-09-13T00:04:36Z</time>
      </trkpt>
      <trkpt lat="29.60192909078646" lon="106.3199722356459">
        <ele>253.69989013671875</ele>
        <time>2026-09-13T00:05:00Z</time>
      </trkpt>
      <trkpt lat="29.601959982115716" lon="106.32002410543704">
        <ele>253.8489990234375</ele>
        <time>2026-09-13T00:05:06Z</time>
      </trkpt>
      <trkpt lat="29.6020591577214" lon="106.3199163660026">
        <ele>253.217041015625</ele>
        <time>2026-09-13T00:05:18Z</time>
      </trkpt>
      <trkpt lat="29.602188169680154" lon="106.31988942484804">
        <ele>251.87567138671875</ele>
        <time>2026-09-13T00:05:30Z</time>
      </trkpt>
      <trkpt lat="29.602369093285844" lon="106.3199003867881">
        <ele>254.3570556640625</ele>
        <time>2026-09-13T00:05:48Z</time>
      </trkpt>
      <trkpt lat="29.602428122895894" lon="106.31987544491852">
        <ele>254.31707763671875</ele>
        <time>2026-09-13T00:05:54Z</time>
      </trkpt>
      <trkpt lat="29.602465225965904" lon="106.31981559072815">
        <ele>254.85614013671875</ele>
        <time>2026-09-13T00:06:00Z</time>
      </trkpt>
      <trkpt lat="29.602478338273766" lon="106.31975474043495">
        <ele>255.26043701171875</ele>
        <time>2026-09-13T00:06:06Z</time>
      </trkpt>
      <trkpt lat="29.60245246059514" lon="106.31969489000906">
        <ele>255.1812744140625</ele>
        <time>2026-09-13T00:06:12Z</time>
      </trkpt>
      <trkpt lat="29.602445605676774" lon="106.31962007541392">
        <ele>255.315185546875</ele>
        <time>2026-09-13T00:06:18Z</time>
      </trkpt>
      <trkpt lat="29.602473726690587" lon="106.31955224141886">
        <ele>256.45526123046875</ele>
        <time>2026-09-13T00:06:24Z</time>
      </trkpt>
      <trkpt lat="29.602525792714676" lon="106.31950934431256">
        <ele>256.2679443359375</ele>
        <time>2026-09-13T00:06:30Z</time>
      </trkpt>
      <trkpt lat="29.602796746061962" lon="106.31949037481778">
        <ele>255.498046875</ele>
        <time>2026-09-13T00:06:54Z</time>
      </trkpt>
      <trkpt lat="29.602861749065326" lon="106.31947840048495">
        <ele>254.998046875</ele>
        <time>2026-09-13T00:07:00Z</time>
      </trkpt>
      <trkpt lat="29.60292079581836" lon="106.31944448075268">
        <ele>248.4901123046875</ele>
        <time>2026-09-13T00:07:27Z</time>
      </trkpt>
      <trkpt lat="29.602961891880547" lon="106.31938761879819">
        <ele>248.4119873046875</ele>
        <time>2026-09-13T00:07:33Z</time>
      </trkpt>
      <trkpt lat="29.602961990928254" lon="106.31933574697526">
        <ele>251.26123046875</ele>
        <time>2026-09-13T00:07:39Z</time>
      </trkpt>
      <trkpt lat="29.602932262896545" lon="106.31919808887743">
        <ele>252.77484130859375</ele>
        <time>2026-09-13T00:08:06Z</time>
      </trkpt>
      <trkpt lat="29.602949863012867" lon="106.3188808711534">
        <ele>251.15484619140625</ele>
        <time>2026-09-13T00:08:30Z</time>
      </trkpt>
      <trkpt lat="29.602923175657168" lon="106.31872126668101">
        <ele>251.87640380859375</ele>
        <time>2026-09-13T00:08:42Z</time>
      </trkpt>
      <trkpt lat="29.60296077852144" lon="106.31839905918156">
        <ele>251.349853515625</ele>
        <time>2026-09-13T00:09:06Z</time>
      </trkpt>
      <trkpt lat="29.602950348085926" lon="106.3181017925034">
        <ele>248.7320556640625</ele>
        <time>2026-09-13T00:09:30Z</time>
      </trkpt>
      <trkpt lat="29.602939621098923" lon="106.31796014208936">
        <ele>249.16461181640625</ele>
        <time>2026-09-13T00:09:42Z</time>
      </trkpt>
      <trkpt lat="29.602963025959284" lon="106.31774367366447">
        <ele>247.8458251953125</ele>
        <time>2026-09-13T00:10:00Z</time>
      </trkpt>
      <trkpt lat="29.60294346646843" lon="106.31751523696373">
        <ele>247.546142578125</ele>
        <time>2026-09-13T00:10:18Z</time>
      </trkpt>
      <trkpt lat="29.60296814526882" lon="106.31715412333168">
        <ele>247.47088623046875</ele>
        <time>2026-09-13T00:10:48Z</time>
      </trkpt>
      <trkpt lat="29.6029587561352" lon="106.31683391041032">
        <ele>248.62603759765625</ele>
        <time>2026-09-13T00:11:12Z</time>
      </trkpt>
      <trkpt lat="29.602962196031964" lon="106.31660148061958">
        <ele>252.3018798828125</ele>
        <time>2026-09-13T00:11:31Z</time>
      </trkpt>
      <trkpt lat="29.602933346712426" lon="106.31652666588028">
        <ele>251.12298583984375</ele>
        <time>2026-09-13T00:11:37Z</time>
      </trkpt>
      <trkpt lat="29.6028844770042" lon="106.31646581805744">
        <ele>256.409423828125</ele>
        <time>2026-09-13T00:11:43Z</time>
      </trkpt>
      <trkpt lat="29.60275962104956" lon="106.31640996255447">
        <ele>258.0250244140625</ele>
        <time>2026-09-13T00:11:55Z</time>
      </trkpt>
      <trkpt lat="29.602676650200085" lon="106.31640797244444">
        <ele>257.53369140625</ele>
        <time>2026-09-13T00:12:01Z</time>
      </trkpt>
      <trkpt lat="29.60258556272156" lon="106.31646882872684">
        <ele>251.511962890625</ele>
        <time>2026-09-13T00:12:13Z</time>
      </trkpt>
      <trkpt lat="29.602524328009867" lon="106.3166025045531">
        <ele>251.31890869140625</ele>
        <time>2026-09-13T00:12:25Z</time>
      </trkpt>
      <trkpt lat="29.60253487626044" lon="106.31683892370572">
        <ele>250.557861328125</ele>
        <time>2026-09-13T00:12:43Z</time>
      </trkpt>
      <trkpt lat="29.602574583856605" lon="106.31698655877379">
        <ele>253.614990234375</ele>
        <time>2026-09-13T00:12:55Z</time>
      </trkpt>
      <trkpt lat="29.602562049559044" lon="106.31726986339922">
        <ele>250.732177734375</ele>
        <time>2026-09-13T00:13:19Z</time>
      </trkpt>
      <trkpt lat="29.602536918853627" lon="106.31734268588612">
        <ele>250.50921630859375</ele>
        <time>2026-09-13T00:13:25Z</time>
      </trkpt>
      <trkpt lat="29.602493812584857" lon="106.31740553395076">
        <ele>248.7410888671875</ele>
        <time>2026-09-13T00:13:31Z</time>
      </trkpt>
      <trkpt lat="29.602305688103687" lon="106.31750130975698">
        <ele>246.021484375</ele>
        <time>2026-09-13T00:13:49Z</time>
      </trkpt>
      <trkpt lat="29.602173654568755" lon="106.31754022201191">
        <ele>248.1651611328125</ele>
        <time>2026-09-13T00:14:01Z</time>
      </trkpt>
      <trkpt lat="29.602034664918133" lon="106.31755718866913">
        <ele>253.740478515625</ele>
        <time>2026-09-13T00:14:13Z</time>
      </trkpt>
      <trkpt lat="29.60191655693761" lon="106.31763300925196">
        <ele>255.25213623046875</ele>
        <time>2026-09-13T00:14:25Z</time>
      </trkpt>
      <trkpt lat="29.60187634532574" lon="106.31775072197759">
        <ele>254.690185546875</ele>
        <time>2026-09-13T00:14:37Z</time>
      </trkpt>
      <trkpt lat="29.601867689020956" lon="106.3180968700606">
        <ele>254.27490234375</ele>
        <time>2026-09-13T00:15:07Z</time>
      </trkpt>
      <trkpt lat="29.601876015517956" lon="106.31844900159807">
        <ele>251.79534912109375</ele>
        <time>2026-09-13T00:15:37Z</time>
      </trkpt>
      <trkpt lat="29.60185775676453" lon="106.31858766071612">
        <ele>251.56805419921875</ele>
        <time>2026-09-13T00:15:49Z</time>
      </trkpt>
      <trkpt lat="29.601866074870763" lon="106.31894378136805">
        <ele>252.65142822265625</ele>
        <time>2026-09-13T00:16:19Z</time>
      </trkpt>
      <trkpt lat="29.60187152667532" lon="106.31923007399786">
        <ele>252.966796875</ele>
        <time>2026-09-13T00:16:43Z</time>
      </trkpt>
      <trkpt lat="29.60189741777115" lon="106.31928294181903">
        <ele>253.7657470703125</ele>
        <time>2026-09-13T00:16:49Z</time>
      </trkpt>
      <trkpt lat="29.601956315880866" lon="106.31932682981828">
        <ele>252.4739990234375</ele>
        <time>2026-09-13T00:16:55Z</time>
      </trkpt>
      <trkpt lat="29.60191076764847" lon="106.31962110521084">
        <ele>252.9554443359375</ele>
        <time>2026-09-13T00:17:19Z</time>
      </trkpt>
      <trkpt lat="29.601935496957903" lon="106.3197587633148">
        <ele>251.42950439453125</ele>
        <time>2026-09-13T00:17:31Z</time>
      </trkpt>
      <trkpt lat="29.60192809872088" lon="106.31996824557795">
        <ele>255.87890625</ele>
        <time>2026-09-13T00:17:49Z</time>
      </trkpt>
      <trkpt lat="29.601976028702005" lon="106.31999717111123">
        <ele>254.43408203125</ele>
        <time>2026-09-13T00:17:55Z</time>
      </trkpt>
      <trkpt lat="29.602071186458605" lon="106.31989940722873">
        <ele>252.6202392578125</ele>
        <time>2026-09-13T00:18:07Z</time>
      </trkpt>
      <trkpt lat="29.602133133140192" lon="106.31991735907182">
        <ele>248.82098388671875</ele>
        <time>2026-09-13T00:18:13Z</time>
      </trkpt>
      <trkpt lat="29.60239507579449" lon="106.31990537288185">
        <ele>249.8876953125</ele>
        <time>2026-09-13T00:18:37Z</time>
      </trkpt>
      <trkpt lat="29.602447130428217" lon="106.31986846104495">
        <ele>251.2540283203125</ele>
        <time>2026-09-13T00:18:43Z</time>
      </trkpt>
      <trkpt lat="29.60248124013465" lon="106.31980561443505">
        <ele>250.98388671875</ele>
        <time>2026-09-13T00:18:49Z</time>
      </trkpt>
      <trkpt lat="29.602506609882052" lon="106.31960810132993">
        <ele>248.006103515625</ele>
        <time>2026-09-13T00:19:07Z</time>
      </trkpt>
      <trkpt lat="29.602547698336615" lon="106.31955522955859">
        <ele>250.865234375</ele>
        <time>2026-09-13T00:19:13Z</time>
      </trkpt>
      <trkpt lat="29.602845635823407" lon="106.31954024857629">
        <ele>256.1771240234375</ele>
        <time>2026-09-13T00:19:43Z</time>
      </trkpt>
      <trkpt lat="29.602903677172648" lon="106.31950932151787">
        <ele>252.773193359375</ele>
        <time>2026-09-13T00:19:49Z</time>
      </trkpt>
      <trkpt lat="29.602947802813002" lon="106.31943649884735">
        <ele>252.17352294921875</ele>
        <time>2026-09-13T00:19:55Z</time>
      </trkpt>
      <trkpt lat="29.602966955116848" lon="106.31935370230636">
        <ele>253.25311279296875</ele>
        <time>2026-09-13T00:20:01Z</time>
      </trkpt>
      <trkpt lat="29.602972597165977" lon="106.31901653483814">
        <ele>250.8848876953125</ele>
        <time>2026-09-13T00:20:25Z</time>
      </trkpt>
      <trkpt lat="29.60295931111545" lon="106.31864445402265">
        <ele>252.67620849609375</ele>
        <time>2026-09-13T00:20:55Z</time>
      </trkpt>
      <trkpt lat="29.602963730086127" lon="106.31842399751126">
        <ele>251.5662841796875</ele>
        <time>2026-09-13T00:21:13Z</time>
      </trkpt>
      <trkpt lat="29.60294997382894" lon="106.31829830822335">
        <ele>249.6761474609375</ele>
        <time>2026-09-13T00:21:25Z</time>
      </trkpt>
      <trkpt lat="29.602899183205807" lon="106.31819656207138">
        <ele>250.76025390625</ele>
        <time>2026-09-13T00:21:37Z</time>
      </trkpt>
      <trkpt lat="29.60290286209669" lon="106.31783944153817">
        <ele>247.94622802734375</ele>
        <time>2026-09-13T00:22:07Z</time>
      </trkpt>
      <trkpt lat="29.60293555424223" lon="106.31747034785904">
        <ele>248.5457763671875</ele>
        <time>2026-09-13T00:22:37Z</time>
      </trkpt>
      <trkpt lat="29.602962181199334" lon="106.31713616781443">
        <ele>251.03662109375</ele>
        <time>2026-09-13T00:23:04Z</time>
      </trkpt>
      <trkpt lat="29.602957868092812" lon="106.31677505494274">
        <ele>250.13482666015625</ele>
        <time>2026-09-13T00:23:34Z</time>
      </trkpt>
      <trkpt lat="29.602958286133862" lon="106.31655459586771">
        <ele>248.83270263671875</ele>
        <time>2026-09-13T00:23:52Z</time>
      </trkpt>
      <trkpt lat="29.602926392336272" lon="106.31650372257081">
        <ele>250.192138671875</ele>
        <time>2026-09-13T00:23:58Z</time>
      </trkpt>
      <trkpt lat="29.602809600099985" lon="106.31641295220622">
        <ele>251.55792236328125</ele>
        <time>2026-09-13T00:24:10Z</time>
      </trkpt>
      <trkpt lat="29.602677613982493" lon="106.31642692591575">
        <ele>252.27044677734375</ele>
        <time>2026-09-13T00:24:22Z</time>
      </trkpt>
      <trkpt lat="29.6025865208252" lon="106.31649077485038">
        <ele>251.6282958984375</ele>
        <time>2026-09-13T00:24:34Z</time>
      </trkpt>
      <trkpt lat="29.60252732330972" lon="106.31660449947813">
        <ele>252.8055419921875</ele>
        <time>2026-09-13T00:24:46Z</time>
      </trkpt>
      <trkpt lat="29.602524102912852" lon="106.31672121328968">
        <ele>254.1746826171875</ele>
        <time>2026-09-13T00:24:58Z</time>
      </trkpt>
      <trkpt lat="29.602584546715104" lon="106.31700451406984">
        <ele>253.4212646484375</ele>
        <time>2026-09-13T00:25:22Z</time>
      </trkpt>
      <trkpt lat="29.602541993137194" lon="106.31730278368227">
        <ele>252.75323486328125</ele>
        <time>2026-09-13T00:25:46Z</time>
      </trkpt>
      <trkpt lat="29.602510881315098" lon="106.31736662858876">
        <ele>253.15625</ele>
        <time>2026-09-13T00:25:52Z</time>
      </trkpt>
      <trkpt lat="29.60240873811047" lon="106.31745840905266">
        <ele>251.9715576171875</ele>
        <time>2026-09-13T00:26:04Z</time>
      </trkpt>
      <trkpt lat="29.602104707947323" lon="106.31752326788518">
        <ele>253.4776611328125</ele>
        <time>2026-09-13T00:26:34Z</time>
      </trkpt>
      <trkpt lat="29.601976690282797" lon="106.31755320197989">
        <ele>255.12860107421875</ele>
        <time>2026-09-13T00:26:46Z</time>
      </trkpt>
      <trkpt lat="29.601917645782798" lon="106.3175861245485">
        <ele>254.87890625</ele>
        <time>2026-09-13T00:26:52Z</time>
      </trkpt>
      <trkpt lat="29.601873553050954" lon="106.31764198975158">
        <ele>255.652587890625</ele>
        <time>2026-09-13T00:26:58Z</time>
      </trkpt>
      <trkpt lat="29.60185243996939" lon="106.31770483636267">
        <ele>255.89501953125</ele>
        <time>2026-09-13T00:27:04Z</time>
      </trkpt>
      <trkpt lat="29.601853807263364" lon="106.31803701834875">
        <ele>254.81134033203125</ele>
        <time>2026-09-13T00:27:34Z</time>
      </trkpt>
      <trkpt lat="29.601862420807315" lon="106.31823852131966">
        <ele>253.93060302734375</ele>
        <time>2026-09-13T00:27:52Z</time>
      </trkpt>
      <trkpt lat="29.601852287064816" lon="106.3183103448952">
        <ele>252.63726806640625</ele>
        <time>2026-09-13T00:27:58Z</time>
      </trkpt>
      <trkpt lat="29.601878864409738" lon="106.31852780707604">
        <ele>251.7308349609375</ele>
        <time>2026-09-13T00:28:16Z</time>
      </trkpt>
      <trkpt lat="29.601853583029104" lon="106.31867943455663">
        <ele>252.99609375</ele>
        <time>2026-09-13T00:28:28Z</time>
      </trkpt>
      <trkpt lat="29.601868310208655" lon="106.31882008657355">
        <ele>254.8778076171875</ele>
        <time>2026-09-13T00:28:40Z</time>
      </trkpt>
      <trkpt lat="29.601862655107517" lon="106.31916423716741">
        <ele>254.263427734375</ele>
        <time>2026-09-13T00:29:10Z</time>
      </trkpt>
      <trkpt lat="29.6018734156088" lon="106.31928793094353">
        <ele>254.453125</ele>
        <time>2026-09-13T00:29:22Z</time>
      </trkpt>
      <trkpt lat="29.60190729471613" lon="106.31934578594195">
        <ele>254.80914306640625</ele>
        <time>2026-09-13T00:29:28Z</time>
      </trkpt>
      <trkpt lat="29.60189863410619" lon="106.31969292835228">
        <ele>255.8428955078125</ele>
        <time>2026-09-13T00:29:58Z</time>
      </trkpt>
      <trkpt lat="29.601910519873087" lon="106.3197507845577">
        <ele>254.8583984375</ele>
        <time>2026-09-13T00:30:04Z</time>
      </trkpt>
      <trkpt lat="29.60194140552191" lon="106.31980564700233">
        <ele>252.74530029296875</ele>
        <time>2026-09-13T00:30:10Z</time>
      </trkpt>
      <trkpt lat="29.601939146834482" lon="106.31994131154667">
        <ele>253.81536865234375</ele>
        <time>2026-09-13T00:30:22Z</time>
      </trkpt>
      <trkpt lat="29.601951038273317" lon="106.31999617508713">
        <ele>253.669677734375</ele>
        <time>2026-09-13T00:30:28Z</time>
      </trkpt>
      <trkpt lat="29.602173989004804" lon="106.31998618631738">
        <ele>254.399658203125</ele>
        <time>2026-09-13T00:30:52Z</time>
      </trkpt>
      <trkpt lat="29.602219911982502" lon="106.32001910209601">
        <ele>252.2305908203125</ele>
        <time>2026-09-13T00:30:58Z</time>
      </trkpt>
      <trkpt lat="29.60223465371345" lon="106.32015177288473">
        <ele>249.90142822265625</ele>
        <time>2026-09-13T00:31:10Z</time>
      </trkpt>
      <trkpt lat="29.602263530374227" lon="106.32021162300103">
        <ele>247.22027587890625</ele>
        <time>2026-09-13T00:31:16Z</time>
      </trkpt>
      <trkpt lat="29.602313486448832" lon="106.32022658294888">
        <ele>244.43756103515625</ele>
        <time>2026-09-13T00:31:22Z</time>
      </trkpt>
      <trkpt lat="29.60236150991018" lon="106.3202066294348">
        <ele>243.347412109375</ele>
        <time>2026-09-13T00:31:28Z</time>
      </trkpt>
      <trkpt lat="29.602359569660276" lon="106.32017570609298">
        <ele>242.87298583984375</ele>
        <time>2026-09-13T00:31:31Z</time>
      </trkpt>
    </trkseg>
  </trk>
</gpx>