<?xml version="1.0" encoding="UTF-8"?>
<gpx xmlns="http://www.topografix.com/GPX/1/1" xmlns:gpxtpx="http://www.garmin.com/xmlschemas/TrackPointExtension/v1" xmlns:xsi="http://www.w3.org/2001/XMLSchema-instance" xsi:schemaLocation="http://www.topografix.com/GPX/1/1 http://www.topografix.com/GPX/1/1/gpx.xsd" version="1.1" creator="gpx.py -- https://github.com/tkrajina/gpxpy">
  <trk>
    <name>gpx from keep</name>
    <type>Walk</type>
    <trkseg>
      <trkpt lat="29.60181699926813" lon="106.32003807950707">
        <ele>262.8790283203125</ele>
        <time>2026-10-08T13:04:08Z</time>
      </trkpt>
      <trkpt lat="29.60208799056121" lon="106.3199991594199">
        <ele>247.6180419921875</ele>
        <time>2026-10-08T13:04:14Z</time>
      </trkpt>
      <trkpt lat="29.602027117951454" lon="106.31994230377134">
        <ele>250.42779541015625</ele>
        <time>2026-10-08T13:04:29Z</time>
      </trkpt>
      <trkpt lat="29.60212320484554" lon="106.31988144850858">
        <ele>248.02783203125</ele>
        <time>2026-10-08T13:04:38Z</time>
      </trkpt>
      <trkpt lat="29.602348257959406" lon="106.31981759285007">
        <ele>251.615966796875</ele>
        <time>2026-10-08T13:04:56Z</time>
      </trkpt>
      <trkpt lat="29.60247722420081" lon="106.31981459247163">
        <ele>249.796875</ele>
        <time>2026-10-08T13:05:05Z</time>
      </trkpt>
      <trkpt lat="29.602512325965915" lon="106.31975573591752">
        <ele>251.78900146484375</ele>
        <time>2026-10-08T13:05:11Z</time>
      </trkpt>
      <trkpt lat="29.6025034411796" lon="106.31969688200012">
        <ele>254.2724609375</ele>
        <time>2026-10-08T13:05:17Z</time>
      </trkpt>
      <trkpt lat="29.602471584381238" lon="106.31962705658209">
        <ele>254.2833251953125</ele>
        <time>2026-10-08T13:05:23Z</time>
      </trkpt>
      <trkpt lat="29.60247971342192" lon="106.31955822626148">
        <ele>254.68359375</ele>
        <time>2026-10-08T13:05:29Z</time>
      </trkpt>
      <trkpt lat="29.602521780600924" lon="106.3195163272938">
        <ele>255.69781494140625</ele>
        <time>2026-10-08T13:05:35Z</time>
      </trkpt>
      <trkpt lat="29.602741734290845" lon="106.31950534114982">
        <ele>253.07275390625</ele>
        <time>2026-10-08T13:05:59Z</time>
      </trkpt>
      <trkpt lat="29.60285563467381" lon="106.31953925043909">
        <ele>248.038818359375</ele>
        <time>2026-10-08T13:06:11Z</time>
      </trkpt>
      <trkpt lat="29.602982854989765" lon="106.31940357808993">
        <ele>242.23583984375</ele>
        <time>2026-10-08T13:06:29Z</time>
      </trkpt>
      <trkpt lat="29.60299112872072" lon="106.31925893500126">
        <ele>244.38446044921875</ele>
        <time>2026-10-08T13:06:38Z</time>
      </trkpt>
      <trkpt lat="29.603009760963392" lon="106.31892475918812">
        <ele>250.9677734375</ele>
        <time>2026-10-08T13:06:59Z</time>
      </trkpt>
      <trkpt lat="29.603033027931946" lon="106.3187811123543">
        <ele>243.59576416015625</ele>
        <time>2026-10-08T13:07:11Z</time>
      </trkpt>
      <trkpt lat="29.602998371472502" lon="106.31860654518427">
        <ele>241.96649169921875</ele>
        <time>2026-10-08T13:07:23Z</time>
      </trkpt>
      <trkpt lat="29.60300966661745" lon="106.31844993078543">
        <ele>241.36297607421875</ele>
        <time>2026-10-08T13:07:35Z</time>
      </trkpt>
      <trkpt lat="29.602952324683052" lon="106.31811376289053">
        <ele>245.78302001953125</ele>
        <time>2026-10-08T13:07:59Z</time>
      </trkpt>
      <trkpt lat="29.602960981027643" lon="106.31776761485521">
        <ele>250.02685546875</ele>
        <time>2026-10-08T13:08:23Z</time>
      </trkpt>
      <trkpt lat="29.60293159148912" lon="106.3174513947148">
        <ele>253.6829833984375</ele>
        <time>2026-10-08T13:08:47Z</time>
      </trkpt>
      <trkpt lat="29.602917876316777" lon="106.3173037585769">
        <ele>252.4339599609375</ele>
        <time>2026-10-08T13:08:59Z</time>
      </trkpt>
      <trkpt lat="29.602941159197304" lon="106.31715113231199">
        <ele>252.263671875</ele>
        <time>2026-10-08T13:09:11Z</time>
      </trkpt>
      <trkpt lat="29.602909625354236" lon="106.31691072477459">
        <ele>257.361572265625</ele>
        <time>2026-10-08T13:09:29Z</time>
      </trkpt>
      <trkpt lat="29.602915293593426" lon="106.31655759111717">
        <ele>260.85284423828125</ele>
        <time>2026-10-08T13:10:02Z</time>
      </trkpt>
      <trkpt lat="29.602904400946354" lon="106.3165027263422">
        <ele>262.4989013671875</ele>
        <time>2026-10-08T13:10:05Z</time>
      </trkpt>
      <trkpt lat="29.60285154757478" lon="106.31643389831582">
        <ele>265.48455810546875</ele>
        <time>2026-10-08T13:10:11Z</time>
      </trkpt>
      <trkpt lat="29.602669572953044" lon="106.3164498701425">
        <ele>257.822509765625</ele>
        <time>2026-10-08T13:10:29Z</time>
      </trkpt>
      <trkpt lat="29.602617526469334" lon="106.31648279255334">
        <ele>255.78204345703125</ele>
        <time>2026-10-08T13:10:35Z</time>
      </trkpt>
      <trkpt lat="29.60250425090875" lon="106.31664639807623">
        <ele>250.68505859375</ele>
        <time>2026-10-08T13:10:53Z</time>
      </trkpt>
      <trkpt lat="29.602515870716754" lon="106.31684491015648">
        <ele>247.67694091796875</ele>
        <time>2026-10-08T13:11:11Z</time>
      </trkpt>
      <trkpt lat="29.60257442668014" lon="106.31706935539694">
        <ele>251.98406982421875</ele>
        <time>2026-10-08T13:11:29Z</time>
      </trkpt>
      <trkpt lat="29.602569109951336" lon="106.3172369438917">
        <ele>253.1920166015625</ele>
        <time>2026-10-08T13:11:41Z</time>
      </trkpt>
      <trkpt lat="29.60250886297105" lon="106.31737660418149">
        <ele>255.48095703125</ele>
        <time>2026-10-08T13:11:53Z</time>
      </trkpt>
      <trkpt lat="29.602410712849256" lon="106.31747137703766">
        <ele>254.2880859375</ele>
        <time>2026-10-08T13:12:05Z</time>
      </trkpt>
      <trkpt lat="29.602152636347032" lon="106.3175531913755">
        <ele>253.44610595703125</ele>
        <time>2026-10-08T13:12:26Z</time>
      </trkpt>
      <trkpt lat="29.602080700130053" lon="106.31753124970048">
        <ele>254.5885009765625</ele>
        <time>2026-10-08T13:12:32Z</time>
      </trkpt>
      <trkpt lat="29.60196467120258" lon="106.31756517325422">
        <ele>254.35797119140625</ele>
        <time>2026-10-08T13:12:44Z</time>
      </trkpt>
      <trkpt lat="29.601923623078743" lon="106.31759709718992">
        <ele>254.83416748046875</ele>
        <time>2026-10-08T13:12:50Z</time>
      </trkpt>
      <trkpt lat="29.601888510509497" lon="106.31766193975405">
        <ele>252.7591552734375</ele>
        <time>2026-10-08T13:12:59Z</time>
      </trkpt>
      <trkpt lat="29.60191993133319" lon="106.31796120110134">
        <ele>255.9136962890625</ele>
        <time>2026-10-08T13:13:23Z</time>
      </trkpt>
      <trkpt lat="29.60188032598351" lon="106.31828540467902">
        <ele>256.467041015625</ele>
        <time>2026-10-08T13:13:53Z</time>
      </trkpt>
      <trkpt lat="29.6018808733028" lon="106.31852281925666">
        <ele>254.8148193359375</ele>
        <time>2026-10-08T13:14:17Z</time>
      </trkpt>
      <trkpt lat="29.601851722474304" lon="106.3186066143252">
        <ele>253.0968017578125</ele>
        <time>2026-10-08T13:14:23Z</time>
      </trkpt>
      <trkpt lat="29.601862536522457" lon="106.31870237740624">
        <ele>252.64739990234375</ele>
        <time>2026-10-08T13:14:41Z</time>
      </trkpt>
      <trkpt lat="29.601788597261606" lon="106.3186824310914">
        <ele>254.29339599609375</ele>
        <time>2026-10-08T13:14:47Z</time>
      </trkpt>
      <trkpt lat="29.60171343385917" lon="106.31878019439107">
        <ele>251.9212646484375</ele>
        <time>2026-10-08T13:14:59Z</time>
      </trkpt>
      <trkpt lat="29.60161346074783" lon="106.31878219549586">
        <ele>250.065185546875</ele>
        <time>2026-10-08T13:15:11Z</time>
      </trkpt>
      <trkpt lat="29.601520283818587" lon="106.31888993520198">
        <ele>252.75396728515625</ele>
        <time>2026-10-08T13:15:23Z</time>
      </trkpt>
      <trkpt lat="29.60148208805233" lon="106.31899866906419">
        <ele>257.08447265625</ele>
        <time>2026-10-08T13:15:35Z</time>
      </trkpt>
      <trkpt lat="29.601461189663603" lon="106.31894879347081">
        <ele>257.5325927734375</ele>
        <time>2026-10-08T13:15:47Z</time>
      </trkpt>
      <trkpt lat="29.601511425480645" lon="106.31881711548058">
        <ele>262.82257080078125</ele>
        <time>2026-10-08T13:15:53Z</time>
      </trkpt>
      <trkpt lat="29.601518564108495" lon="106.3187432972258">
        <ele>264.709228515625</ele>
        <time>2026-10-08T13:15:56Z</time>
      </trkpt>
      <trkpt lat="29.60156349702533" lon="106.31877122558866">
        <ele>258.3638916015625</ele>
        <time>2026-10-08T13:16:11Z</time>
      </trkpt>
      <trkpt lat="29.601689414590474" lon="106.31879416137316">
        <ele>252.1441650390625</ele>
        <time>2026-10-08T13:16:23Z</time>
      </trkpt>
      <trkpt lat="29.601746347633522" lon="106.31882009392817">
        <ele>251.080322265625</ele>
        <time>2026-10-08T13:16:29Z</time>
      </trkpt>
      <trkpt lat="29.601791238693316" lon="106.31886996811059">
        <ele>249.4725341796875</ele>
        <time>2026-10-08T13:16:35Z</time>
      </trkpt>
      <trkpt lat="29.601852239009563" lon="106.3188599890553">
        <ele>248.83160400390625</ele>
        <time>2026-10-08T13:16:41Z</time>
      </trkpt>
      <trkpt lat="29.60188894981755" lon="106.31900562728609">
        <ele>249.57269287109375</ele>
        <time>2026-10-08T13:16:53Z</time>
      </trkpt>
      <trkpt lat="29.60189153196734" lon="106.3192240875772">
        <ele>253.16571044921875</ele>
        <time>2026-10-08T13:17:11Z</time>
      </trkpt>
      <trkpt lat="29.601920414527385" lon="106.3192809453612">
        <ele>254.0904541015625</ele>
        <time>2026-10-08T13:17:17Z</time>
      </trkpt>
      <trkpt lat="29.601946132274744" lon="106.3194245888522">
        <ele>256.3243408203125</ele>
        <time>2026-10-08T13:17:29Z</time>
      </trkpt>
      <trkpt lat="29.60192251428735" lon="106.31975178136712">
        <ele>259.684326171875</ele>
        <time>2026-10-08T13:17:54Z</time>
      </trkpt>
      <trkpt lat="29.60191221231723" lon="106.3199113872068">
        <ele>259.942138671875</ele>
        <time>2026-10-08T13:18:06Z</time>
      </trkpt>
      <trkpt lat="29.601926034496056" lon="106.32000216178659">
        <ele>261.1395263671875</ele>
        <time>2026-10-08T13:18:12Z</time>
      </trkpt>
      <trkpt lat="29.602005962293124" lon="106.32002709525798">
        <ele>262.13299560546875</ele>
        <time>2026-10-08T13:18:18Z</time>
      </trkpt>
      <trkpt lat="29.602182961456652" lon="106.31999915369002">
        <ele>260.639404296875</ele>
        <time>2026-10-08T13:18:33Z</time>
      </trkpt>
      <trkpt lat="29.60222689267453" lon="106.32002807946012">
        <ele>256.2935791015625</ele>
        <time>2026-10-08T13:18:39Z</time>
      </trkpt>
      <trkpt lat="29.602213742166445" lon="106.32010888030445">
        <ele>254.874755859375</ele>
        <time>2026-10-08T13:18:45Z</time>
      </trkpt>
      <trkpt lat="29.602220677076307" lon="106.3201417984167">
        <ele>254.7801513671875</ele>
        <time>2026-10-08T13:18:48Z</time>
      </trkpt>
    </trkseg>
  </trk>
</gpx>