<?xml version="1.0" encoding="UTF-8"?>
<gpx xmlns="http://www.topografix.com/GPX/1/1" xmlns:gpxtpx="http://www.garmin.com/xmlschemas/TrackPointExtension/v1" xmlns:xsi="http://www.w3.org/2001/XMLSchema-instance" xsi:schemaLocation="http://www.topografix.com/GPX/1/1 http://www.topografix.com/GPX/1/1/gpx.xsd" version="1.1" creator="gpx.py -- https://github.com/tkrajina/gpxpy">
  <trk>
    <name>gpx from keep</name>
    <type>Walk</type>
    <trkseg>
      <trkpt lat="29.602602666271657" lon="106.31956320651427">
        <ele>263.83251953125</ele>
        <time>2026-07-29T23:03:45Z</time>
        <extensions>
          <gpxtpx:TrackPointExtension>
            <gpxtpx:hr>114</gpxtpx:hr>
          </gpxtpx:TrackPointExtension>
        </extensions>
      </trkpt>
      <trkpt lat="29.60269274545775" lon="106.31950733917333">
        <ele>258.44561767578125</ele>
        <time>2026-07-29T23:03:57Z</time>
        <extensions>
          <gpxtpx:TrackPointExtension>
            <gpxtpx:hr>114</gpxtpx:hr>
          </gpxtpx:TrackPointExtension>
        </extensions>
      </trkpt>
      <trkpt lat="29.60276968000514" lon="106.31952928028355">
        <ele>259.175537109375</ele>
        <time>2026-07-29T23:04:03Z</time>
        <extensions>
          <gpxtpx:TrackPointExtension>
            <gpxtpx:hr>114</gpxtpx:hr>
          </gpxtpx:TrackPointExtension>
        </extensions>
      </trkpt>
      <trkpt lat="29.602819689496446" lon="106.31951630932335">
        <ele>258.5194091796875</ele>
        <time>2026-07-29T23:04:06Z</time>
      </trkpt>
      <trkpt lat="29.602887836378603" lon="106.31942852218795">
        <ele>257.1663818359375</ele>
        <time>2026-07-29T23:04:12Z</time>
      </trkpt>
      <trkpt lat="29.602924034911887" lon="106.3193187911676">
        <ele>257.78851318359375</ele>
        <time>2026-07-29T23:04:18Z</time>
      </trkpt>
      <trkpt lat="29.60293269312657" lon="106.31897264562029">
        <ele>254.40924072265625</ele>
        <time>2026-07-29T23:04:42Z</time>
      </trkpt>
      <trkpt lat="29.602910042661883" lon="106.31879309022789">
        <ele>252.66998291015625</ele>
        <time>2026-07-29T23:04:54Z</time>
      </trkpt>
      <trkpt lat="29.602919190193777" lon="106.31871428415191">
        <ele>250.6151123046875</ele>
        <time>2026-07-29T23:05:00Z</time>
      </trkpt>
      <trkpt lat="29.602891788190643" lon="106.31840504858347">
        <ele>248.30450439453125</ele>
        <time>2026-07-29T23:05:21Z</time>
      </trkpt>
      <trkpt lat="29.60292691624211" lon="106.31833222600396">
        <ele>251.85638427734375</ele>
        <time>2026-07-29T23:05:27Z</time>
      </trkpt>
      <trkpt lat="29.602925581704987" lon="106.31798308642614">
        <ele>253.2945556640625</ele>
        <time>2026-07-29T23:05:51Z</time>
      </trkpt>
      <trkpt lat="29.602974830617743" lon="106.31784442491943">
        <ele>252.2567138671875</ele>
        <time>2026-07-29T23:06:00Z</time>
      </trkpt>
      <trkpt lat="29.60296094117566" lon="106.3177885632885">
        <ele>251.2877197265625</ele>
        <time>2026-07-29T23:06:03Z</time>
      </trkpt>
      <trkpt lat="29.602982606250404" lon="106.31743543089458">
        <ele>249.99267578125</ele>
        <time>2026-07-29T23:06:27Z</time>
      </trkpt>
      <trkpt lat="29.60294529625087" lon="106.31707831099128">
        <ele>255.883056640625</ele>
        <time>2026-07-29T23:06:51Z</time>
      </trkpt>
      <trkpt lat="29.60295563591428" lon="106.31689775384615">
        <ele>253.73486328125</ele>
        <time>2026-07-29T23:07:03Z</time>
      </trkpt>
      <trkpt lat="29.602942800764335" lon="106.31681296279937">
        <ele>253.3095703125</ele>
        <time>2026-07-29T23:07:09Z</time>
      </trkpt>
      <trkpt lat="29.602959121294813" lon="106.31664138290849">
        <ele>255.7711181640625</ele>
        <time>2026-07-29T23:07:21Z</time>
      </trkpt>
      <trkpt lat="29.602949281318544" lon="106.31655858662258">
        <ele>256.2825927734375</ele>
        <time>2026-07-29T23:07:27Z</time>
      </trkpt>
      <trkpt lat="29.602910419910152" lon="106.31649175289054">
        <ele>255.3927001953125</ele>
        <time>2026-07-29T23:07:33Z</time>
      </trkpt>
      <trkpt lat="29.602853539402922" lon="106.31643788841194">
        <ele>255.60455322265625</ele>
        <time>2026-07-29T23:07:39Z</time>
      </trkpt>
      <trkpt lat="29.60278261402067" lon="106.3164099611693">
        <ele>256.3140869140625</ele>
        <time>2026-07-29T23:07:45Z</time>
      </trkpt>
      <trkpt lat="29.6027086441978" lon="106.31640597540849">
        <ele>256.1798095703125</ele>
        <time>2026-07-29T23:07:51Z</time>
      </trkpt>
      <trkpt lat="29.60263661895721" lon="106.31643091860181">
        <ele>255.87506103515625</ele>
        <time>2026-07-29T23:07:57Z</time>
      </trkpt>
      <trkpt lat="29.602540449813812" lon="106.31653566753053">
        <ele>255.70037841796875</ele>
        <time>2026-07-29T23:08:09Z</time>
      </trkpt>
      <trkpt lat="29.602514304591296" lon="106.31661647089473">
        <ele>256.3515625</ele>
        <time>2026-07-29T23:08:15Z</time>
      </trkpt>
      <trkpt lat="29.602516978282214" lon="106.31678804967554">
        <ele>258.9803466796875</ele>
        <time>2026-07-29T23:08:27Z</time>
      </trkpt>
      <trkpt lat="29.602580551725534" lon="106.31700251921107">
        <ele>261.3668212890625</ele>
        <time>2026-07-29T23:08:42Z</time>
      </trkpt>
      <trkpt lat="29.602575132748953" lon="106.31722397540341">
        <ele>259.67626953125</ele>
        <time>2026-07-29T23:08:57Z</time>
      </trkpt>
      <trkpt lat="29.602545978647047" lon="106.31730976627505">
        <ele>259.2174072265625</ele>
        <time>2026-07-29T23:09:03Z</time>
      </trkpt>
      <trkpt lat="29.602498848969535" lon="106.3173855827084">
        <ele>257.904296875</ele>
        <time>2026-07-29T23:09:09Z</time>
      </trkpt>
      <trkpt lat="29.602431744344134" lon="106.31745142484037">
        <ele>254.62152099609375</ele>
        <time>2026-07-29T23:09:15Z</time>
      </trkpt>
      <trkpt lat="29.602355693655813" lon="106.31749033373437">
        <ele>254.51806640625</ele>
        <time>2026-07-29T23:09:21Z</time>
      </trkpt>
      <trkpt lat="29.602200670952367" lon="106.31752725228569">
        <ele>257.12078857421875</ele>
        <time>2026-07-29T23:09:33Z</time>
      </trkpt>
      <trkpt lat="29.602126699310304" lon="106.31752426410581">
        <ele>256.1396484375</ele>
        <time>2026-07-29T23:09:39Z</time>
      </trkpt>
      <trkpt lat="29.60198062077728" lon="106.31758911338981">
        <ele>256.37646484375</ele>
        <time>2026-07-29T23:09:51Z</time>
      </trkpt>
      <trkpt lat="29.601917514896414" lon="106.31765495518978">
        <ele>255.61474609375</ele>
        <time>2026-07-29T23:09:57Z</time>
      </trkpt>
      <trkpt lat="29.60189237647199" lon="106.31773176766387">
        <ele>253.749755859375</ele>
        <time>2026-07-29T23:10:03Z</time>
      </trkpt>
      <trkpt lat="29.60188374488885" lon="106.31806494773626">
        <ele>252.0845947265625</ele>
        <time>2026-07-29T23:10:27Z</time>
      </trkpt>
      <trkpt lat="29.60186658865861" lon="106.31814973985932">
        <ele>253.12103271484375</ele>
        <time>2026-07-29T23:10:33Z</time>
      </trkpt>
      <trkpt lat="29.60187823538269" lon="106.31833328677106">
        <ele>253.90716552734375</ele>
        <time>2026-07-29T23:10:45Z</time>
      </trkpt>
      <trkpt lat="29.601859708610725" lon="106.31861259907856">
        <ele>256.441162109375</ele>
        <time>2026-07-29T23:11:03Z</time>
      </trkpt>
      <trkpt lat="29.60188422729281" lon="106.318860984664">
        <ele>254.4656982421875</ele>
        <time>2026-07-29T23:11:21Z</time>
      </trkpt>
      <trkpt lat="29.601897587252466" lon="106.31919416113871">
        <ele>251.82037353515625</ele>
        <time>2026-07-29T23:11:45Z</time>
      </trkpt>
      <trkpt lat="29.601907426131373" lon="106.31927695600298">
        <ele>253.2904052734375</ele>
        <time>2026-07-29T23:11:51Z</time>
      </trkpt>
      <trkpt lat="29.601953267278965" lon="106.3193527659143">
        <ele>254.55657958984375</ele>
        <time>2026-07-29T23:11:57Z</time>
      </trkpt>
      <trkpt lat="29.601939798776108" lon="106.31960015525199">
        <ele>250.90899658203125</ele>
        <time>2026-07-29T23:12:15Z</time>
      </trkpt>
      <trkpt lat="29.601921648019243" lon="106.31968195409752">
        <ele>253.6622314453125</ele>
        <time>2026-07-29T23:12:21Z</time>
      </trkpt>
      <trkpt lat="29.60199232125476" lon="106.31984155510607">
        <ele>253.59423828125</ele>
        <time>2026-07-29T23:12:33Z</time>
      </trkpt>
      <trkpt lat="29.60202401398871" lon="106.31999716821615">
        <ele>252.158203125</ele>
        <time>2026-07-29T23:12:45Z</time>
      </trkpt>
      <trkpt lat="29.602092935630463" lon="106.32002709001057">
        <ele>254.9168701171875</ele>
        <time>2026-07-29T23:12:51Z</time>
      </trkpt>
      <trkpt lat="29.602165930429518" lon="106.32001810782118">
        <ele>255.96417236328125</ele>
        <time>2026-07-29T23:12:57Z</time>
      </trkpt>
      <trkpt lat="29.602210849895098" lon="106.32005301871858">
        <ele>256.2752685546875</ele>
        <time>2026-07-29T23:13:03Z</time>
      </trkpt>
    </trkseg>
  </trk>
</gpx>