<?xml version="1.0" encoding="UTF-8"?>
<gpx xmlns="http://www.topografix.com/GPX/1/1" xmlns:gpxtpx="http://www.garmin.com/xmlschemas/TrackPointExtension/v1" xmlns:xsi="http://www.w3.org/2001/XMLSchema-instance" xsi:schemaLocation="http://www.topografix.com/GPX/1/1 http://www.topografix.com/GPX/1/1/gpx.xsd" version="1.1" creator="gpx.py -- https://github.com/tkrajina/gpxpy">
  <trk>
    <name>gpx from keep</name>
    <type>Walk</type>
    <trkseg>
      <trkpt lat="29.602984502134177" lon="106.31906441588005">
        <ele>259.54974365234375</ele>
        <time>2026-09-11T23:35:22Z</time>
        <extensions>
          <gpxtpx:TrackPointExtension>
            <gpxtpx:hr>108</gpxtpx:hr>
          </gpxtpx:TrackPointExtension>
        </extensions>
      </trkpt>
      <trkpt lat="29.602931725785997" lon="106.31895568754813">
        <ele>256.1376953125</ele>
        <time>2026-09-11T23:35:31Z</time>
        <extensions>
          <gpxtpx:TrackPointExtension>
            <gpxtpx:hr>108</gpxtpx:hr>
          </gpxtpx:TrackPointExtension>
        </extensions>
      </trkpt>
      <trkpt lat="29.60292609674923" lon="106.31876216557727">
        <ele>258.31298828125</ele>
        <time>2026-09-11T23:35:49Z</time>
      </trkpt>
      <trkpt lat="29.602938446841645" lon="106.31857662262084">
        <ele>257.0531005859375</ele>
        <time>2026-09-11T23:36:07Z</time>
      </trkpt>
      <trkpt lat="29.602905133877513" lon="106.3182215002515">
        <ele>255.3995361328125</ele>
        <time>2026-09-11T23:36:37Z</time>
      </trkpt>
      <trkpt lat="29.60291441985614" lon="106.31806987331481">
        <ele>253.02349853515625</ele>
        <time>2026-09-11T23:36:49Z</time>
      </trkpt>
      <trkpt lat="29.602897700375518" lon="106.3179252306027">
        <ele>253.8348388671875</ele>
        <time>2026-09-11T23:37:01Z</time>
      </trkpt>
      <trkpt lat="29.602902845014285" lon="106.31784841943424">
        <ele>253.9630126953125</ele>
        <time>2026-09-11T23:37:07Z</time>
      </trkpt>
      <trkpt lat="29.60292698571802" lon="106.31777060953755">
        <ele>253.22998046875</ele>
        <time>2026-09-11T23:37:13Z</time>
      </trkpt>
      <trkpt lat="29.60293666011104" lon="106.3174144851825">
        <ele>252.61785888671875</ele>
        <time>2026-09-11T23:37:43Z</time>
      </trkpt>
      <trkpt lat="29.60293691789275" lon="106.31727881873778">
        <ele>250.315185546875</ele>
        <time>2026-09-11T23:37:55Z</time>
      </trkpt>
      <trkpt lat="29.602917443047662" lon="106.31700549155974">
        <ele>251.23687744140625</ele>
        <time>2026-09-11T23:38:19Z</time>
      </trkpt>
      <trkpt lat="29.602953833360743" lon="106.31679400866157">
        <ele>246.88043212890625</ele>
        <time>2026-09-11T23:38:37Z</time>
      </trkpt>
      <trkpt lat="29.60291444893647" lon="106.31647579178933">
        <ele>252.927001953125</ele>
        <time>2026-09-11T23:39:07Z</time>
      </trkpt>
      <trkpt lat="29.602834607581794" lon="106.31640497026575">
        <ele>252.0240478515625</ele>
        <time>2026-09-11T23:39:19Z</time>
      </trkpt>
      <trkpt lat="29.602780671330688" lon="106.31638003465578">
        <ele>249.4512939453125</ele>
        <time>2026-09-11T23:39:25Z</time>
      </trkpt>
      <trkpt lat="29.602721685582996" lon="106.31638203331816">
        <ele>249.36138916015625</ele>
        <time>2026-09-11T23:39:31Z</time>
      </trkpt>
      <trkpt lat="29.602607612703284" lon="106.31643890078159">
        <ele>251.27191162109375</ele>
        <time>2026-09-11T23:39:43Z</time>
      </trkpt>
      <trkpt lat="29.602534432740654" lon="106.31654564342527">
        <ele>249.4644775390625</ele>
        <time>2026-09-11T23:39:55Z</time>
      </trkpt>
      <trkpt lat="29.60252429207564" lon="106.3166214580561">
        <ele>250.30108642578125</ele>
        <time>2026-09-11T23:40:01Z</time>
      </trkpt>
      <trkpt lat="29.602555985275515" lon="106.31677807181151">
        <ele>252.27764892578125</ele>
        <time>2026-09-11T23:40:13Z</time>
      </trkpt>
      <trkpt lat="29.602551836992593" lon="106.31685687859981">
        <ele>249.93621826171875</ele>
        <time>2026-09-11T23:40:19Z</time>
      </trkpt>
      <trkpt lat="29.602585423315976" lon="106.31706935473429">
        <ele>250.7003173828125</ele>
        <time>2026-09-11T23:40:37Z</time>
      </trkpt>
      <trkpt lat="29.602576153285423" lon="106.31721300231183">
        <ele>251.80999755859375</ele>
        <time>2026-09-11T23:40:49Z</time>
      </trkpt>
      <trkpt lat="29.602487816316266" lon="106.31740453676528">
        <ele>250.2935791015625</ele>
        <time>2026-09-11T23:41:07Z</time>
      </trkpt>
      <trkpt lat="29.602379722336963" lon="106.31747137890545">
        <ele>248.68597412109375</ele>
        <time>2026-09-11T23:41:19Z</time>
      </trkpt>
      <trkpt lat="29.6023237205175" lon="106.31748135774451">
        <ele>246.1651611328125</ele>
        <time>2026-09-11T23:41:25Z</time>
      </trkpt>
      <trkpt lat="29.60225764591012" lon="106.31753123903587">
        <ele>246.942626953125</ele>
        <time>2026-09-11T23:41:31Z</time>
      </trkpt>
      <trkpt lat="29.602120699252193" lon="106.3175252620135">
        <ele>255.0264892578125</ele>
        <time>2026-09-11T23:41:43Z</time>
      </trkpt>
      <trkpt lat="29.601929672450257" lon="106.31757016309247">
        <ele>253.03662109375</ele>
        <time>2026-09-11T23:42:01Z</time>
      </trkpt>
      <trkpt lat="29.60187658817327" lon="106.31762303620735">
        <ele>249.629150390625</ele>
        <time>2026-09-11T23:42:07Z</time>
      </trkpt>
      <trkpt lat="29.601898983338263" lon="106.31793726132649">
        <ele>253.922607421875</ele>
        <time>2026-09-11T23:42:31Z</time>
      </trkpt>
      <trkpt lat="29.601936510204784" lon="106.31817966189979">
        <ele>258.088134765625</ele>
        <time>2026-09-11T23:42:49Z</time>
      </trkpt>
      <trkpt lat="29.601925372987886" lon="106.31825348064464">
        <ele>259.13494873046875</ele>
        <time>2026-09-11T23:42:55Z</time>
      </trkpt>
      <trkpt lat="29.601894241878373" lon="106.31832730056105">
        <ele>257.964599609375</ele>
        <time>2026-09-11T23:43:01Z</time>
      </trkpt>
      <trkpt lat="29.601882518976335" lon="106.31870836143284">
        <ele>249.58441162109375</ele>
        <time>2026-09-11T23:43:31Z</time>
      </trkpt>
      <trkpt lat="29.60189087877755" lon="106.31904253603074">
        <ele>252.73760986328125</ele>
        <time>2026-09-11T23:43:55Z</time>
      </trkpt>
      <trkpt lat="29.601892484053757" lon="106.31924902591052">
        <ele>255.17034912109375</ele>
        <time>2026-09-11T23:44:13Z</time>
      </trkpt>
      <trkpt lat="29.601916373855037" lon="106.31930289138228">
        <ele>252.67352294921875</ele>
        <time>2026-09-11T23:44:19Z</time>
      </trkpt>
      <trkpt lat="29.601911651085523" lon="106.31968195470057">
        <ele>253.8875732421875</ele>
        <time>2026-09-11T23:44:49Z</time>
      </trkpt>
      <trkpt lat="29.601941060409455" lon="106.31998620037055">
        <ele>256.98675537109375</ele>
        <time>2026-09-11T23:45:13Z</time>
      </trkpt>
      <trkpt lat="29.602001015317345" lon="106.32000016219916">
        <ele>255.43768310546875</ele>
        <time>2026-09-11T23:45:19Z</time>
      </trkpt>
      <trkpt lat="29.602116058261156" lon="106.31995925645016">
        <ele>257.300048828125</ele>
        <time>2026-09-11T23:45:34Z</time>
      </trkpt>
      <trkpt lat="29.60218203041454" lon="106.3199632425979">
        <ele>253.734130859375</ele>
        <time>2026-09-11T23:45:40Z</time>
      </trkpt>
      <trkpt lat="29.60218203041454" lon="106.3199632425979">
        <ele>253.734130859375</ele>
        <time>2026-09-11T23:45:40Z</time>
      </trkpt>
    </trkseg>
  </trk>
</gpx>