<?xml version="1.0" encoding="UTF-8"?>
<gpx xmlns="http://www.topografix.com/GPX/1/1" xmlns:gpxtpx="http://www.garmin.com/xmlschemas/TrackPointExtension/v1" xmlns:xsi="http://www.w3.org/2001/XMLSchema-instance" xsi:schemaLocation="http://www.topografix.com/GPX/1/1 http://www.topografix.com/GPX/1/1/gpx.xsd" version="1.1" creator="gpx.py -- https://github.com/tkrajina/gpxpy">
  <trk>
    <name>gpx from keep</name>
    <type>Walk</type>
    <trkseg>
      <trkpt lat="29.601930803441213" lon="106.31959915826087">
        <ele>259.05010986328125</ele>
        <time>2026-08-20T23:09:50Z</time>
      </trkpt>
      <trkpt lat="29.601933512820793" lon="106.31975078317062">
        <ele>258.94384765625</ele>
        <time>2026-08-20T23:10:02Z</time>
      </trkpt>
      <trkpt lat="29.601903277997955" lon="106.31987846917957">
        <ele>258.774658203125</ele>
        <time>2026-08-20T23:10:11Z</time>
      </trkpt>
      <trkpt lat="29.60189912477555" lon="106.31995926953812">
        <ele>259.6861572265625</ele>
        <time>2026-08-20T23:10:17Z</time>
      </trkpt>
      <trkpt lat="29.60192597918997" lon="106.32003109021035">
        <ele>256.90576171875</ele>
        <time>2026-08-20T23:10:23Z</time>
      </trkpt>
      <trkpt lat="29.6019810042845" lon="106.32000914119263">
        <ele>257.4822998046875</ele>
        <time>2026-08-20T23:10:29Z</time>
      </trkpt>
      <trkpt lat="29.602063185096746" lon="106.31990140277603">
        <ele>262.72833251953125</ele>
        <time>2026-08-20T23:10:41Z</time>
      </trkpt>
      <trkpt lat="29.602226243838636" lon="106.31984453359142">
        <ele>264.91552734375</ele>
        <time>2026-08-20T23:10:59Z</time>
      </trkpt>
      <trkpt lat="29.602431221117975" lon="106.31982357304089">
        <ele>260.08056640625</ele>
        <time>2026-08-20T23:11:17Z</time>
      </trkpt>
      <trkpt lat="29.602445333121015" lon="106.31976272268967">
        <ele>260.378173828125</ele>
        <time>2026-08-20T23:11:26Z</time>
      </trkpt>
      <trkpt lat="29.602438445818855" lon="106.31970486618692">
        <ele>260.96380615234375</ele>
        <time>2026-08-20T23:11:32Z</time>
      </trkpt>
      <trkpt lat="29.60246757988781" lon="106.31963004942443">
        <ele>258.92730712890625</ele>
        <time>2026-08-20T23:11:38Z</time>
      </trkpt>
      <trkpt lat="29.60251469509238" lon="106.31956221428702">
        <ele>257.1126708984375</ele>
        <time>2026-08-20T23:11:44Z</time>
      </trkpt>
      <trkpt lat="29.602626759920167" lon="106.31951033575625">
        <ele>256.51495361328125</ele>
        <time>2026-08-20T23:11:56Z</time>
      </trkpt>
      <trkpt lat="29.602910690277053" lon="106.31950134082122">
        <ele>262.1798095703125</ele>
        <time>2026-08-20T23:12:23Z</time>
      </trkpt>
      <trkpt lat="29.602971736425776" lon="106.31946742097233">
        <ele>260.13958740234375</ele>
        <time>2026-08-20T23:12:29Z</time>
      </trkpt>
      <trkpt lat="29.602987826793758" lon="106.31941754327565">
        <ele>262.27740478515625</ele>
        <time>2026-08-20T23:12:32Z</time>
      </trkpt>
      <trkpt lat="29.602979463684637" lon="106.3190853644499">
        <ele>255.549560546875</ele>
        <time>2026-08-20T23:12:56Z</time>
      </trkpt>
      <trkpt lat="29.60298517194067" lon="106.31871328263455">
        <ele>251.03607177734375</ele>
        <time>2026-08-20T23:13:26Z</time>
      </trkpt>
      <trkpt lat="29.602975437444222" lon="106.31857562285104">
        <ele>248.90673828125</ele>
        <time>2026-08-20T23:13:38Z</time>
      </trkpt>
      <trkpt lat="29.60295458075398" lon="106.3185038012621">
        <ele>248.77069091796875</ele>
        <time>2026-08-20T23:13:44Z</time>
      </trkpt>
      <trkpt lat="29.602959235169273" lon="106.31815964940628">
        <ele>250.50677490234375</ele>
        <time>2026-08-20T23:14:14Z</time>
      </trkpt>
      <trkpt lat="29.60294775344559" lon="106.31788931602011">
        <ele>255.4755859375</ele>
        <time>2026-08-20T23:14:38Z</time>
      </trkpt>
      <trkpt lat="29.602931908279906" lon="106.31781051101069">
        <ele>257.6043701171875</ele>
        <time>2026-08-20T23:14:44Z</time>
      </trkpt>
      <trkpt lat="29.60294319144216" lon="106.31765988109368">
        <ele>252.5997314453125</ele>
        <time>2026-08-20T23:14:56Z</time>
      </trkpt>
      <trkpt lat="29.60301348112354" lon="106.31749627936665">
        <ele>249.9835205078125</ele>
        <time>2026-08-20T23:15:08Z</time>
      </trkpt>
      <trkpt lat="29.603005620082644" lon="106.31742445649395">
        <ele>250.31097412109375</ele>
        <time>2026-08-20T23:15:14Z</time>
      </trkpt>
      <trkpt lat="29.602939735023323" lon="106.31737458311966">
        <ele>248.9140625</ele>
        <time>2026-08-20T23:15:20Z</time>
      </trkpt>
      <trkpt lat="29.602954058606507" lon="106.31720200650702">
        <ele>250.7166748046875</ele>
        <time>2026-08-20T23:15:32Z</time>
      </trkpt>
      <trkpt lat="29.60294320594435" lon="106.31712619346987">
        <ele>250.41558837890625</ele>
        <time>2026-08-20T23:15:38Z</time>
      </trkpt>
      <trkpt lat="29.6029593658363" lon="106.31703940571967">
        <ele>248.8955078125</ele>
        <time>2026-08-20T23:15:44Z</time>
      </trkpt>
      <trkpt lat="29.60294099248388" lon="106.31671221020478">
        <ele>255.12969970703125</ele>
        <time>2026-08-20T23:16:08Z</time>
      </trkpt>
      <trkpt lat="29.602918164078744" lon="106.31662542453613">
        <ele>255.3114013671875</ele>
        <time>2026-08-20T23:16:14Z</time>
      </trkpt>
      <trkpt lat="29.602918302131812" lon="106.31655260317041">
        <ele>255.3687744140625</ele>
        <time>2026-08-20T23:16:20Z</time>
      </trkpt>
      <trkpt lat="29.60286053915464" lon="106.31643689043624">
        <ele>255.660400390625</ele>
        <time>2026-08-20T23:16:32Z</time>
      </trkpt>
      <trkpt lat="29.602739661182124" lon="106.31639200777943">
        <ele>255.35009765625</ele>
        <time>2026-08-20T23:16:44Z</time>
      </trkpt>
      <trkpt lat="29.602672677882936" lon="106.31639400692343">
        <ele>255.0252685546875</ele>
        <time>2026-08-20T23:16:50Z</time>
      </trkpt>
      <trkpt lat="29.602614623794167" lon="106.31643191748094">
        <ele>254.4141845703125</ele>
        <time>2026-08-20T23:16:56Z</time>
      </trkpt>
      <trkpt lat="29.602535422980306" lon="106.31655063113145">
        <ele>253.1497802734375</ele>
        <time>2026-08-20T23:17:08Z</time>
      </trkpt>
      <trkpt lat="29.602514283786615" lon="106.31662744397457">
        <ele>252.57415771484375</ele>
        <time>2026-08-20T23:17:14Z</time>
      </trkpt>
      <trkpt lat="29.602521971075713" lon="106.3167910420287">
        <ele>255.120361328125</ele>
        <time>2026-08-20T23:17:26Z</time>
      </trkpt>
      <trkpt lat="29.602579542563554" lon="106.31700750702053">
        <ele>255.656982421875</ele>
        <time>2026-08-20T23:17:44Z</time>
      </trkpt>
      <trkpt lat="29.602567093509098" lon="106.31724592194546">
        <ele>255.50048828125</ele>
        <time>2026-08-20T23:18:02Z</time>
      </trkpt>
      <trkpt lat="29.602502836371748" lon="106.31739156775004">
        <ele>256.0943603515625</ele>
        <time>2026-08-20T23:18:14Z</time>
      </trkpt>
      <trkpt lat="29.60238168569755" lon="106.31749033216784">
        <ele>255.2177734375</ele>
        <time>2026-08-20T23:18:26Z</time>
      </trkpt>
      <trkpt lat="29.60211565906193" lon="106.31754720832883">
        <ele>255.055419921875</ele>
        <time>2026-08-20T23:18:50Z</time>
      </trkpt>
      <trkpt lat="29.60197864794425" lon="106.31757514786933">
        <ele>260.73388671875</ele>
        <time>2026-08-20T23:19:02Z</time>
      </trkpt>
      <trkpt lat="29.601916600566526" lon="106.31761006570503">
        <ele>260.3056640625</ele>
        <time>2026-08-20T23:19:08Z</time>
      </trkpt>
      <trkpt lat="29.6018784927076" lon="106.3176729133539">
        <ele>260.38427734375</ele>
        <time>2026-08-20T23:19:14Z</time>
      </trkpt>
      <trkpt lat="29.60186635598285" lon="106.31774673240149">
        <ele>258.8551025390625</ele>
        <time>2026-08-20T23:19:20Z</time>
      </trkpt>
      <trkpt lat="29.60186568583575" lon="106.31809886526594">
        <ele>256.3834228515625</ele>
        <time>2026-08-20T23:19:44Z</time>
      </trkpt>
      <trkpt lat="29.60187906402078" lon="106.31842306536943">
        <ele>257.6884765625</ele>
        <time>2026-08-20T23:20:08Z</time>
      </trkpt>
      <trkpt lat="29.601890925371116" lon="106.31849388999782">
        <ele>257.073486328125</ele>
        <time>2026-08-20T23:20:14Z</time>
      </trkpt>
      <trkpt lat="29.601887331017387" lon="106.318806119895">
        <ele>257.0450439453125</ele>
        <time>2026-08-20T23:20:38Z</time>
      </trkpt>
      <trkpt lat="29.60185475275564" lon="106.31911436083635">
        <ele>255.76458740234375</ele>
        <time>2026-08-20T23:21:02Z</time>
      </trkpt>
      <trkpt lat="29.601862599890126" lon="106.31919316571302">
        <ele>254.912109375</ele>
        <time>2026-08-20T23:21:08Z</time>
      </trkpt>
      <trkpt lat="29.60193832330414" lon="106.31932583336837">
        <ele>253.94769287109375</ele>
        <time>2026-08-20T23:21:20Z</time>
      </trkpt>
      <trkpt lat="29.601929710366555" lon="106.31964803747472">
        <ele>255.67919921875</ele>
        <time>2026-08-20T23:21:44Z</time>
      </trkpt>
      <trkpt lat="29.601941966655627" lon="106.32003507937243">
        <ele>257.6104736328125</ele>
        <time>2026-08-20T23:22:14Z</time>
      </trkpt>
      <trkpt lat="29.602219932960562" lon="106.32000812924554">
        <ele>254.5106201171875</ele>
        <time>2026-08-20T23:22:38Z</time>
      </trkpt>
      <trkpt lat="29.602303514311345" lon="106.32021361565012">
        <ele>253.2589111328125</ele>
        <time>2026-08-20T23:22:56Z</time>
      </trkpt>
      <trkpt lat="29.60241640722623" lon="106.32025151500662">
        <ele>253.206298828125</ele>
        <time>2026-08-20T23:23:08Z</time>
      </trkpt>
    </trkseg>
  </trk>
</gpx>