<?xml version="1.0" encoding="UTF-8"?>
<gpx xmlns="http://www.topografix.com/GPX/1/1" xmlns:gpxtpx="http://www.garmin.com/xmlschemas/TrackPointExtension/v1" xmlns:xsi="http://www.w3.org/2001/XMLSchema-instance" xsi:schemaLocation="http://www.topografix.com/GPX/1/1 http://www.topografix.com/GPX/1/1/gpx.xsd" version="1.1" creator="gpx.py -- https://github.com/tkrajina/gpxpy">
  <trk>
    <name>gpx from keep</name>
    <type>Walk</type>
    <trkseg>
      <trkpt lat="29.602407165547746" lon="106.31985649306662">
        <ele>255.98809814453125</ele>
        <time>2026-08-21T22:58:52Z</time>
      </trkpt>
      <trkpt lat="29.602449228955102" lon="106.31981658922592">
        <ele>255.38885498046875</ele>
        <time>2026-08-21T22:58:58Z</time>
      </trkpt>
      <trkpt lat="29.602449545373517" lon="106.31965099871655">
        <ele>253.78118896484375</ele>
        <time>2026-08-21T22:59:10Z</time>
      </trkpt>
      <trkpt lat="29.602471677758793" lon="106.31957817742409">
        <ele>253.07501220703125</ele>
        <time>2026-08-21T22:59:16Z</time>
      </trkpt>
      <trkpt lat="29.60252975719473" lon="106.31952729968803">
        <ele>252.5487060546875</ele>
        <time>2026-08-21T22:59:22Z</time>
      </trkpt>
      <trkpt lat="29.602588784877582" lon="106.31950335530756">
        <ele>251.28466796875</ele>
        <time>2026-08-21T22:59:28Z</time>
      </trkpt>
      <trkpt lat="29.60285170258367" lon="106.31950433698212">
        <ele>250.7213134765625</ele>
        <time>2026-08-21T22:59:52Z</time>
      </trkpt>
      <trkpt lat="29.602906763897174" lon="106.31946343475394">
        <ele>248.21453857421875</ele>
        <time>2026-08-21T22:59:58Z</time>
      </trkpt>
      <trkpt lat="29.602938889379995" lon="106.31939260785965">
        <ele>249.3472900390625</ele>
        <time>2026-08-21T23:00:04Z</time>
      </trkpt>
      <trkpt lat="29.602951498885915" lon="106.31907140062611">
        <ele>254.197021484375</ele>
        <time>2026-08-21T23:00:28Z</time>
      </trkpt>
      <trkpt lat="29.602943647895504" lon="106.31899459077319">
        <ele>254.9996337890625</ele>
        <time>2026-08-21T23:00:34Z</time>
      </trkpt>
      <trkpt lat="29.602956902736445" lon="106.31885892490126">
        <ele>256.2913818359375</ele>
        <time>2026-08-21T23:00:46Z</time>
      </trkpt>
      <trkpt lat="29.60292037056988" lon="106.318619517896">
        <ele>258.4171142578125</ele>
        <time>2026-08-21T23:01:04Z</time>
      </trkpt>
      <trkpt lat="29.602921087192037" lon="106.31824344520064">
        <ele>257.614013671875</ele>
        <time>2026-08-21T23:01:34Z</time>
      </trkpt>
      <trkpt lat="29.60288364200036" lon="106.31795815037766">
        <ele>258.3292236328125</ele>
        <time>2026-08-21T23:01:58Z</time>
      </trkpt>
      <trkpt lat="29.60290693868965" lon="106.31779854198598">
        <ele>257.912109375</ele>
        <time>2026-08-21T23:02:10Z</time>
      </trkpt>
      <trkpt lat="29.6029400576507" lon="106.31773070696914">
        <ele>256.453125</ele>
        <time>2026-08-21T23:02:16Z</time>
      </trkpt>
      <trkpt lat="29.60294474107872" lon="106.31737059262957">
        <ele>259.31719970703125</ele>
        <time>2026-08-21T23:02:46Z</time>
      </trkpt>
      <trkpt lat="29.602954418492594" lon="106.31701247217947">
        <ele>258.1890869140625</ele>
        <time>2026-08-21T23:03:16Z</time>
      </trkpt>
      <trkpt lat="29.602991668457694" lon="106.31687480801129">
        <ele>257.35943603515625</ele>
        <time>2026-08-21T23:03:31Z</time>
      </trkpt>
      <trkpt lat="29.602999220665932" lon="106.31658252488539">
        <ele>257.74755859375</ele>
        <time>2026-08-21T23:03:52Z</time>
      </trkpt>
      <trkpt lat="29.602965457936442" lon="106.3164628205173">
        <ele>256.7142333984375</ele>
        <time>2026-08-21T23:04:04Z</time>
      </trkpt>
      <trkpt lat="29.60280365296305" lon="106.31638601859798">
        <ele>248.79345703125</ele>
        <time>2026-08-21T23:04:16Z</time>
      </trkpt>
      <trkpt lat="29.602718711067933" lon="106.31636906528878">
        <ele>250.06658935546875</ele>
        <time>2026-08-21T23:04:22Z</time>
      </trkpt>
      <trkpt lat="29.60263567785566" lon="106.31639999447845">
        <ele>254.033203125</ele>
        <time>2026-08-21T23:04:28Z</time>
      </trkpt>
      <trkpt lat="29.60257556956071" lon="106.3164668342213">
        <ele>251.9063720703125</ele>
        <time>2026-08-21T23:04:34Z</time>
      </trkpt>
      <trkpt lat="29.602539315856568" lon="106.31660649386106">
        <ele>246.95159912109375</ele>
        <time>2026-08-21T23:04:46Z</time>
      </trkpt>
      <trkpt lat="29.602534005250433" lon="106.31677109027578">
        <ele>255.17999267578125</ele>
        <time>2026-08-21T23:04:58Z</time>
      </trkpt>
      <trkpt lat="29.602573718583624" lon="106.31691573276701">
        <ele>259.9716796875</ele>
        <time>2026-08-21T23:05:10Z</time>
      </trkpt>
      <trkpt lat="29.60256713140612" lon="106.31722597098188">
        <ele>252.07574462890625</ele>
        <time>2026-08-21T23:05:34Z</time>
      </trkpt>
      <trkpt lat="29.602539859174982" lon="106.31737360967219">
        <ele>247.38330078125</ele>
        <time>2026-08-21T23:05:46Z</time>
      </trkpt>
      <trkpt lat="29.602494768674784" lon="106.31742847746938">
        <ele>248.8272705078125</ele>
        <time>2026-08-21T23:05:52Z</time>
      </trkpt>
      <trkpt lat="29.602305644487853" lon="106.31752425332073">
        <ele>252.7010498046875</ele>
        <time>2026-08-21T23:06:10Z</time>
      </trkpt>
      <trkpt lat="29.60196771200715" lon="106.317543227062">
        <ele>256.5635986328125</ele>
        <time>2026-08-21T23:06:40Z</time>
      </trkpt>
      <trkpt lat="29.601897703125324" lon="106.31755919201558">
        <ele>258.0174560546875</ele>
        <time>2026-08-21T23:06:46Z</time>
      </trkpt>
      <trkpt lat="29.60186560103134" lon="106.31761804914251">
        <ele>257.610107421875</ele>
        <time>2026-08-21T23:06:52Z</time>
      </trkpt>
      <trkpt lat="29.6018658529553" lon="106.31801108151103">
        <ele>255.50555419921875</ele>
        <time>2026-08-21T23:07:22Z</time>
      </trkpt>
      <trkpt lat="29.60187553270939" lon="106.31817767049236">
        <ele>256.97796630859375</ele>
        <time>2026-08-21T23:07:34Z</time>
      </trkpt>
      <trkpt lat="29.601907380407273" lon="106.31825248418808">
        <ele>257.74163818359375</ele>
        <time>2026-08-21T23:07:40Z</time>
      </trkpt>
      <trkpt lat="29.60192607241787" lon="106.3184110920516">
        <ele>256.5452880859375</ele>
        <time>2026-08-21T23:07:52Z</time>
      </trkpt>
      <trkpt lat="29.601881399442703" lon="106.31877120641889">
        <ele>251.66558837890625</ele>
        <time>2026-08-21T23:08:22Z</time>
      </trkpt>
      <trkpt lat="29.60185369975464" lon="106.31914229191382">
        <ele>258.3358154296875</ele>
        <time>2026-08-21T23:08:52Z</time>
      </trkpt>
      <trkpt lat="29.60184853944209" lon="106.31922708277727">
        <ele>261.58447265625</ele>
        <time>2026-08-21T23:08:58Z</time>
      </trkpt>
      <trkpt lat="29.601910217605084" lon="106.31938568716355">
        <ele>261.3111572265625</ele>
        <time>2026-08-21T23:09:10Z</time>
      </trkpt>
      <trkpt lat="29.601920911312682" lon="106.31954429449358">
        <ele>259.7054443359375</ele>
        <time>2026-08-21T23:09:22Z</time>
      </trkpt>
      <trkpt lat="29.601920295664616" lon="106.3198664977639">
        <ele>260.02099609375</ele>
        <time>2026-08-21T23:09:46Z</time>
      </trkpt>
      <trkpt lat="29.601934993594732" lon="106.32002211188124">
        <ele>259.0224609375</ele>
        <time>2026-08-21T23:09:58Z</time>
      </trkpt>
      <trkpt lat="29.60199203333243" lon="106.31999218248642">
        <ele>258.4171142578125</ele>
        <time>2026-08-21T23:10:04Z</time>
      </trkpt>
      <trkpt lat="29.602033129460427" lon="106.31993532068397">
        <ele>258.6566162109375</ele>
        <time>2026-08-21T23:10:11Z</time>
      </trkpt>
      <trkpt lat="29.60230112744916" lon="106.3198934081625">
        <ele>257.7628173828125</ele>
        <time>2026-08-21T23:10:35Z</time>
      </trkpt>
      <trkpt lat="29.602366105644325" lon="106.31989440177463">
        <ele>257.9886474609375</ele>
        <time>2026-08-21T23:10:41Z</time>
      </trkpt>
      <trkpt lat="29.602432140737985" lon="106.31986546935198">
        <ele>255.84674072265625</ele>
        <time>2026-08-21T23:10:47Z</time>
      </trkpt>
      <trkpt lat="29.60246326470561" lon="106.31979564019201">
        <ele>253.45654296875</ele>
        <time>2026-08-21T23:10:53Z</time>
      </trkpt>
      <trkpt lat="29.602459532784476" lon="106.3196559857814">
        <ele>255.4173583984375</ele>
        <time>2026-08-21T23:11:05Z</time>
      </trkpt>
      <trkpt lat="29.60248764999643" lon="106.31959014686636">
        <ele>254.4522705078125</ele>
        <time>2026-08-21T23:11:11Z</time>
      </trkpt>
      <trkpt lat="29.602535719156382" lon="106.31954625247539">
        <ele>254.1368408203125</ele>
        <time>2026-08-21T23:11:17Z</time>
      </trkpt>
      <trkpt lat="29.60285564229551" lon="106.31953526030249">
        <ele>249.996337890625</ele>
        <time>2026-08-21T23:11:47Z</time>
      </trkpt>
      <trkpt lat="29.60290972678235" lon="106.31948238772819">
        <ele>248.919677734375</ele>
        <time>2026-08-21T23:11:53Z</time>
      </trkpt>
      <trkpt lat="29.602928014644057" lon="106.31932876627897">
        <ele>252.9468994140625</ele>
        <time>2026-08-21T23:12:05Z</time>
      </trkpt>
      <trkpt lat="29.602924577562753" lon="106.31903449339566">
        <ele>256.48046875</ele>
        <time>2026-08-21T23:12:29Z</time>
      </trkpt>
      <trkpt lat="29.602886716692495" lon="106.31896766070778">
        <ele>258.30078125</ele>
        <time>2026-08-21T23:12:35Z</time>
      </trkpt>
      <trkpt lat="29.602896395015467" lon="106.3186105414899">
        <ele>256.6236572265625</ele>
        <time>2026-08-21T23:13:05Z</time>
      </trkpt>
      <trkpt lat="29.60292407487577" lon="106.31824943026845">
        <ele>258.13580322265625</ele>
        <time>2026-08-21T23:13:35Z</time>
      </trkpt>
      <trkpt lat="29.60291534358049" lon="106.31810977495135">
        <ele>258.06304931640625</ele>
        <time>2026-08-21T23:13:47Z</time>
      </trkpt>
      <trkpt lat="29.60295803697378" lon="106.31773868624234">
        <ele>255.869140625</ele>
        <time>2026-08-21T23:14:17Z</time>
      </trkpt>
      <trkpt lat="29.602986586069445" lon="106.31744540612088">
        <ele>251.79443359375</ele>
        <time>2026-08-21T23:14:41Z</time>
      </trkpt>
      <trkpt lat="29.602959254094834" lon="106.31709826113246">
        <ele>250.9508056640625</ele>
        <time>2026-08-21T23:15:11Z</time>
      </trkpt>
      <trkpt lat="29.602936946406896" lon="106.3167371492437">
        <ele>254.70416259765625</ele>
        <time>2026-08-21T23:15:41Z</time>
      </trkpt>
      <trkpt lat="29.602934219712406" lon="106.31659350188292">
        <ele>254.0545654296875</ele>
        <time>2026-08-21T23:15:53Z</time>
      </trkpt>
      <trkpt lat="29.602889441448795" lon="106.31648377372541">
        <ele>254.39739990234375</ele>
        <time>2026-08-21T23:16:05Z</time>
      </trkpt>
      <trkpt lat="29.60278361182502" lon="106.31641095866341">
        <ele>254.6624755859375</ele>
        <time>2026-08-21T23:16:17Z</time>
      </trkpt>
      <trkpt lat="29.60272466009703" lon="106.31639500134622">
        <ele>254.701171875</ele>
        <time>2026-08-21T23:16:23Z</time>
      </trkpt>
      <trkpt lat="29.602666657037393" lon="106.31640597793792">
        <ele>254.32916259765625</ele>
        <time>2026-08-21T23:16:29Z</time>
      </trkpt>
      <trkpt lat="29.60257652388352" lon="106.31649077545265">
        <ele>252.37060546875</ele>
        <time>2026-08-21T23:16:41Z</time>
      </trkpt>
      <trkpt lat="29.602546417724703" lon="106.31655162802218">
        <ele>251.785400390625</ele>
        <time>2026-08-21T23:16:47Z</time>
      </trkpt>
      <trkpt lat="29.60253228395445" lon="106.31662445023237">
        <ele>253.45947265625</ele>
        <time>2026-08-21T23:16:53Z</time>
      </trkpt>
      <trkpt lat="29.602582541646058" lon="106.31700750683981">
        <ele>257.56982421875</ele>
        <time>2026-08-21T23:17:23Z</time>
      </trkpt>
      <trkpt lat="29.602593394353892" lon="106.3170833199429">
        <ele>257.5419921875</ele>
        <time>2026-08-21T23:17:29Z</time>
      </trkpt>
      <trkpt lat="29.602572084400204" lon="106.3172499118366">
        <ele>258.54150390625</ele>
        <time>2026-08-21T23:17:41Z</time>
      </trkpt>
      <trkpt lat="29.602510866150435" lon="106.3173746089666">
        <ele>254.53704833984375</ele>
        <time>2026-08-21T23:17:53Z</time>
      </trkpt>
      <trkpt lat="29.60240471847773" lon="106.3174693823061">
        <ele>255.04351806640625</ele>
        <time>2026-08-21T23:18:05Z</time>
      </trkpt>
      <trkpt lat="29.602077683981207" lon="106.31754022779612">
        <ele>258.857177734375</ele>
        <time>2026-08-21T23:18:35Z</time>
      </trkpt>
      <trkpt lat="29.601944703886403" lon="106.31755120881597">
        <ele>261.047119140625</ele>
        <time>2026-08-21T23:18:47Z</time>
      </trkpt>
      <trkpt lat="29.60189164237515" lon="106.3175921113895">
        <ele>260.903076171875</ele>
        <time>2026-08-21T23:18:53Z</time>
      </trkpt>
      <trkpt lat="29.60185755036994" lon="106.31764598089711">
        <ele>259.9244384765625</ele>
        <time>2026-08-21T23:18:59Z</time>
      </trkpt>
      <trkpt lat="29.601838427187175" lon="106.31771381511061">
        <ele>259.81744384765625</ele>
        <time>2026-08-21T23:19:05Z</time>
      </trkpt>
      <trkpt lat="29.601860173736593" lon="106.31784349456582">
        <ele>256.0421142578125</ele>
        <time>2026-08-21T23:19:17Z</time>
      </trkpt>
      <trkpt lat="29.601865511080064" lon="106.3181906391391">
        <ele>255.74407958984375</ele>
        <time>2026-08-21T23:19:47Z</time>
      </trkpt>
      <trkpt lat="29.601889959897594" lon="106.31847593433801">
        <ele>254.06512451171875</ele>
        <time>2026-08-21T23:20:11Z</time>
      </trkpt>
      <trkpt lat="29.601829725418874" lon="106.3186086107299">
        <ele>252.63427734375</ele>
        <time>2026-08-21T23:20:23Z</time>
      </trkpt>
      <trkpt lat="29.601747529953858" lon="106.31872433018906">
        <ele>252.0948486328125</ele>
        <time>2026-08-21T23:20:35Z</time>
      </trkpt>
      <trkpt lat="29.60169245171813" lon="106.31877421042724">
        <ele>251.2037353515625</ele>
        <time>2026-08-21T23:20:41Z</time>
      </trkpt>
      <trkpt lat="29.601440510071164" lon="106.31878420100121">
        <ele>250.62042236328125</ele>
        <time>2026-08-21T23:21:05Z</time>
      </trkpt>
      <trkpt lat="29.601359358015365" lon="106.31887697691775">
        <ele>250.49676513671875</ele>
        <time>2026-08-21T23:21:17Z</time>
      </trkpt>
      <trkpt lat="29.601360072239423" lon="106.31902660745453">
        <ele>253.031982421875</ele>
        <time>2026-08-21T23:21:29Z</time>
      </trkpt>
      <trkpt lat="29.601399431346554" lon="106.3188320853027">
        <ele>251.0283203125</ele>
        <time>2026-08-21T23:21:50Z</time>
      </trkpt>
      <trkpt lat="29.601429519157712" lon="106.31878120904949">
        <ele>251.61029052734375</ele>
        <time>2026-08-21T23:21:56Z</time>
      </trkpt>
      <trkpt lat="29.60155348297451" lon="106.31878020403624">
        <ele>251.4637451171875</ele>
        <time>2026-08-21T23:22:08Z</time>
      </trkpt>
      <trkpt lat="29.601607508246413" lon="106.31875825493749">
        <ele>250.0299072265625</ele>
        <time>2026-08-21T23:22:14Z</time>
      </trkpt>
      <trkpt lat="29.601680434474627" lon="106.3187851840717">
        <ele>251.42474365234375</ele>
        <time>2026-08-21T23:22:20Z</time>
      </trkpt>
      <trkpt lat="29.601734315166" lon="106.31883904787345">
        <ele>251.9954833984375</ele>
        <time>2026-08-21T23:22:26Z</time>
      </trkpt>
      <trkpt lat="29.601845246864745" lon="106.31885699686383">
        <ele>252.96240234375</ele>
        <time>2026-08-21T23:22:38Z</time>
      </trkpt>
      <trkpt lat="29.60186710310999" lon="106.31892881824697">
        <ele>253.20166015625</ele>
        <time>2026-08-21T23:22:44Z</time>
      </trkpt>
      <trkpt lat="29.60186854473348" lon="106.31922109635651">
        <ele>253.60009765625</ele>
        <time>2026-08-21T23:23:08Z</time>
      </trkpt>
      <trkpt lat="29.601894411073246" lon="106.31928693214185">
        <ele>253.14239501953125</ele>
        <time>2026-08-21T23:23:14Z</time>
      </trkpt>
      <trkpt lat="29.601906702172215" lon="106.31965601913056">
        <ele>255.61669921875</ele>
        <time>2026-08-21T23:23:44Z</time>
      </trkpt>
      <trkpt lat="29.60192455560964" lon="106.31972983551682">
        <ele>256.5970458984375</ele>
        <time>2026-08-21T23:23:50Z</time>
      </trkpt>
      <trkpt lat="29.601977432612227" lon="106.3197856941732">
        <ele>257.06158447265625</ele>
        <time>2026-08-21T23:23:56Z</time>
      </trkpt>
      <trkpt lat="29.602002289591372" lon="106.3198565174926">
        <ele>257.373291015625</ele>
        <time>2026-08-21T23:24:02Z</time>
      </trkpt>
      <trkpt lat="29.602003155816952" lon="106.31992634470306">
        <ele>256.78271484375</ele>
        <time>2026-08-21T23:24:08Z</time>
      </trkpt>
      <trkpt lat="29.6020310309135" lon="106.31998719247429">
        <ele>256.4970703125</ele>
        <time>2026-08-21T23:24:14Z</time>
      </trkpt>
      <trkpt lat="29.602175019210144" lon="106.31997022574464">
        <ele>257.693115234375</ele>
        <time>2026-08-21T23:24:26Z</time>
      </trkpt>
      <trkpt lat="29.602230929591755" lon="106.32000812858207">
        <ele>258.327392578125</ele>
        <time>2026-08-21T23:24:32Z</time>
      </trkpt>
      <trkpt lat="29.602275616360057" lon="106.32016473831725">
        <ele>255.3614501953125</ele>
        <time>2026-08-21T23:24:44Z</time>
      </trkpt>
      <trkpt lat="29.602338574180877" lon="106.32017670489081">
        <ele>254.56298828125</ele>
        <time>2026-08-21T23:24:50Z</time>
      </trkpt>
      <trkpt lat="29.60238745807374" lon="106.32022957107776">
        <ele>254.24658203125</ele>
        <time>2026-08-21T23:24:59Z</time>
      </trkpt>
      <trkpt lat="29.602433377221466" lon="106.32026448188087">
        <ele>254.2139892578125</ele>
        <time>2026-08-21T23:25:41Z</time>
      </trkpt>
      <trkpt lat="29.602385534995186" lon="106.32018966995984">
        <ele>254.75452609561214</ele>
        <time>2026-08-21T23:26:02Z</time>
      </trkpt>
      <trkpt lat="29.602689277936648" lon="106.32027543927595">
        <ele>0.0</ele>
        <time>2026-08-21T23:27:35Z</time>
      </trkpt>
      <trkpt lat="29.60279009442235" lon="106.32035523562227">
        <ele>0.0</ele>
        <time>2026-08-21T23:29:05Z</time>
      </trkpt>
    </trkseg>
  </trk>
</gpx>