<?xml version="1.0" encoding="UTF-8"?>
<gpx xmlns="http://www.topografix.com/GPX/1/1" xmlns:gpxtpx="http://www.garmin.com/xmlschemas/TrackPointExtension/v1" xmlns:xsi="http://www.w3.org/2001/XMLSchema-instance" xsi:schemaLocation="http://www.topografix.com/GPX/1/1 http://www.topografix.com/GPX/1/1/gpx.xsd" version="1.1" creator="gpx.py -- https://github.com/tkrajina/gpxpy">
  <trk>
    <name>gpx from keep</name>
    <type>Walk</type>
    <trkseg>
      <trkpt lat="29.602423202594906" lon="106.31983454638338">
        <ele>248.2608642578125</ele>
        <time>2026-07-26T22:57:35Z</time>
      </trkpt>
      <trkpt lat="29.602417631396392" lon="106.31961109929851">
        <ele>255.52191162109375</ele>
        <time>2026-07-26T22:57:53Z</time>
      </trkpt>
      <trkpt lat="29.602456737608453" lon="106.31954924984173">
        <ele>255.4832763671875</ele>
        <time>2026-07-26T22:57:59Z</time>
      </trkpt>
      <trkpt lat="29.60251577862564" lon="106.31951832272415">
        <ele>254.03350830078125</ele>
        <time>2026-07-26T22:58:05Z</time>
      </trkpt>
      <trkpt lat="29.602771740364695" lon="106.319497359066">
        <ele>255.36859130859375</ele>
        <time>2026-07-26T22:58:29Z</time>
      </trkpt>
      <trkpt lat="29.602845759668913" lon="106.31947540884642">
        <ele>251.26092529296875</ele>
        <time>2026-07-26T22:58:35Z</time>
      </trkpt>
      <trkpt lat="29.602899819377974" lon="106.31943550420718">
        <ele>251.08209228515625</ele>
        <time>2026-07-26T22:58:41Z</time>
      </trkpt>
      <trkpt lat="29.602929937844685" lon="106.31936866756337">
        <ele>252.50146484375</ele>
        <time>2026-07-26T22:58:47Z</time>
      </trkpt>
      <trkpt lat="29.60293544666184" lon="106.31910132768665">
        <ele>250.3992919921875</ele>
        <time>2026-07-26T22:59:11Z</time>
      </trkpt>
      <trkpt lat="29.602925571546916" lon="106.3190374859458">
        <ele>248.3255615234375</ele>
        <time>2026-07-26T22:59:17Z</time>
      </trkpt>
      <trkpt lat="29.60287866013528" lon="106.31899858484019">
        <ele>249.85076904296875</ele>
        <time>2026-07-26T22:59:23Z</time>
      </trkpt>
      <trkpt lat="29.602904029274708" lon="106.31880107089479">
        <ele>253.2144775390625</ele>
        <time>2026-07-26T22:59:41Z</time>
      </trkpt>
      <trkpt lat="29.602885187263883" lon="106.3187212689718">
        <ele>252.80364990234375</ele>
        <time>2026-07-26T22:59:50Z</time>
      </trkpt>
      <trkpt lat="29.602931399538637" lon="106.31860255906602">
        <ele>247.862548828125</ele>
        <time>2026-07-26T23:00:05Z</time>
      </trkpt>
      <trkpt lat="29.60291865068306" lon="106.3184728796934">
        <ele>247.600341796875</ele>
        <time>2026-07-26T23:00:18Z</time>
      </trkpt>
      <trkpt lat="29.602939091194546" lon="106.31823845640841">
        <ele>249.39093017578125</ele>
        <time>2026-07-26T23:00:42Z</time>
      </trkpt>
      <trkpt lat="29.602926197756037" lon="106.31818458994267">
        <ele>250.27001953125</ele>
        <time>2026-07-26T23:00:48Z</time>
      </trkpt>
      <trkpt lat="29.602937314068814" lon="106.3181217441325">
        <ele>251.8753662109375</ele>
        <time>2026-07-26T23:00:54Z</time>
      </trkpt>
      <trkpt lat="29.602909582794307" lon="106.31798508247657">
        <ele>254.23785400390625</ele>
        <time>2026-07-26T23:01:06Z</time>
      </trkpt>
      <trkpt lat="29.602940700531356" lon="106.31791824520685">
        <ele>252.17486572265625</ele>
        <time>2026-07-26T23:01:12Z</time>
      </trkpt>
      <trkpt lat="29.602930305436022" lon="106.31760202424212">
        <ele>253.15142822265625</ele>
        <time>2026-07-26T23:01:36Z</time>
      </trkpt>
      <trkpt lat="29.60294791074321" lon="106.31728081317075">
        <ele>255.765869140625</ele>
        <time>2026-07-26T23:02:00Z</time>
      </trkpt>
      <trkpt lat="29.602941617473913" lon="106.31690972529643">
        <ele>256.2274169921875</ele>
        <time>2026-07-26T23:02:30Z</time>
      </trkpt>
      <trkpt lat="29.60295406229226" lon="106.31667330488744">
        <ele>259.0706787109375</ele>
        <time>2026-07-26T23:02:48Z</time>
      </trkpt>
      <trkpt lat="29.602901485044036" lon="106.31645883415604">
        <ele>265.1356201171875</ele>
        <time>2026-07-26T23:03:06Z</time>
      </trkpt>
      <trkpt lat="29.602759702316177" lon="106.31636706771023">
        <ele>259.0927734375</ele>
        <time>2026-07-26T23:03:18Z</time>
      </trkpt>
      <trkpt lat="29.60267369269666" lon="106.31638602642714">
        <ele>255.55841064453125</ele>
        <time>2026-07-26T23:03:24Z</time>
      </trkpt>
      <trkpt lat="29.60260263502446" lon="106.31642792798685">
        <ele>256.8173828125</ele>
        <time>2026-07-26T23:03:30Z</time>
      </trkpt>
      <trkpt lat="29.602531454457612" lon="106.3165346705192">
        <ele>256.68475341796875</ele>
        <time>2026-07-26T23:03:42Z</time>
      </trkpt>
      <trkpt lat="29.602512191714318" lon="106.31667632416674">
        <ele>253.6678466796875</ele>
        <time>2026-07-26T23:03:51Z</time>
      </trkpt>
      <trkpt lat="29.60256262350145" lon="106.31696760604572">
        <ele>254.8817138671875</ele>
        <time>2026-07-26T23:04:15Z</time>
      </trkpt>
      <trkpt lat="29.602544471839455" lon="106.31705040376474">
        <ele>255.0728759765625</ele>
        <time>2026-07-26T23:04:21Z</time>
      </trkpt>
      <trkpt lat="29.602547357282596" lon="106.3171102565418">
        <ele>252.68890380859375</ele>
        <time>2026-07-26T23:04:27Z</time>
      </trkpt>
      <trkpt lat="29.60250296716197" lon="106.31732273698462">
        <ele>255.086181640625</ele>
        <time>2026-07-26T23:04:45Z</time>
      </trkpt>
      <trkpt lat="29.60241078300213" lon="106.31743446781124">
        <ele>250.80377197265625</ele>
        <time>2026-07-26T23:04:57Z</time>
      </trkpt>
      <trkpt lat="29.602303709574777" lon="106.31749033686744">
        <ele>250.77642822265625</ele>
        <time>2026-07-26T23:05:09Z</time>
      </trkpt>
      <trkpt lat="29.602020718518254" lon="106.31753125331558">
        <ele>255.8402099609375</ele>
        <time>2026-07-26T23:05:33Z</time>
      </trkpt>
      <trkpt lat="29.601904659252654" lon="106.31758113760291">
        <ele>253.5892333984375</ele>
        <time>2026-07-26T23:05:45Z</time>
      </trkpt>
      <trkpt lat="29.601871563149334" lon="106.31763700214509">
        <ele>256.09124755859375</ele>
        <time>2026-07-26T23:05:51Z</time>
      </trkpt>
      <trkpt lat="29.60185428755256" lon="106.31778463981762">
        <ele>255.5797119140625</ele>
        <time>2026-07-26T23:06:03Z</time>
      </trkpt>
      <trkpt lat="29.601849981278882" lon="106.3179462421699">
        <ele>254.7606201171875</ele>
        <time>2026-07-26T23:06:15Z</time>
      </trkpt>
      <trkpt lat="29.60186982514385" lon="106.31802504687066">
        <ele>255.7451171875</ele>
        <time>2026-07-26T23:06:21Z</time>
      </trkpt>
      <trkpt lat="29.60190015261614" lon="106.31837318707723">
        <ele>254.09686279296875</ele>
        <time>2026-07-26T23:06:51Z</time>
      </trkpt>
      <trkpt lat="29.601905871340144" lon="106.3185198251304">
        <ele>254.03564453125</ele>
        <time>2026-07-26T23:07:03Z</time>
      </trkpt>
      <trkpt lat="29.601879609289824" lon="106.31866147728903">
        <ele>252.2708740234375</ele>
        <time>2026-07-26T23:07:15Z</time>
      </trkpt>
      <trkpt lat="29.601873895411867" lon="106.31903655183478">
        <ele>255.68365478515625</ele>
        <time>2026-07-26T23:07:45Z</time>
      </trkpt>
      <trkpt lat="29.601866461557556" lon="106.31926498804835">
        <ele>255.989501953125</ele>
        <time>2026-07-26T23:08:03Z</time>
      </trkpt>
      <trkpt lat="29.60191231222977" lon="106.31933581028854">
        <ele>257.033447265625</ele>
        <time>2026-07-26T23:08:09Z</time>
      </trkpt>
      <trkpt lat="29.601916660988003" lon="106.31967596919822">
        <ele>256.8590087890625</ele>
        <time>2026-07-26T23:08:39Z</time>
      </trkpt>
      <trkpt lat="29.60189356511539" lon="106.31972983738635">
        <ele>256.65557861328125</ele>
        <time>2026-07-26T23:08:45Z</time>
      </trkpt>
      <trkpt lat="29.601957476869227" lon="106.31976574471946">
        <ele>257.09442138671875</ele>
        <time>2026-07-26T23:08:54Z</time>
      </trkpt>
      <trkpt lat="29.601991214791187" lon="106.31989741698887">
        <ele>252.11407470703125</ele>
        <time>2026-07-26T23:09:06Z</time>
      </trkpt>
      <trkpt lat="29.60207296464446" lon="106.32001512083492">
        <ele>251.7156982421875</ele>
        <time>2026-07-26T23:09:18Z</time>
      </trkpt>
      <trkpt lat="29.602194877682102" lon="106.32004104930316">
        <ele>253.19244384765625</ele>
        <time>2026-07-26T23:09:30Z</time>
      </trkpt>
      <trkpt lat="29.60220561681295" lon="106.32017571538216">
        <ele>255.32391357421875</ele>
        <time>2026-07-26T23:09:42Z</time>
      </trkpt>
      <trkpt lat="29.6023182941238" lon="106.32032633571421">
        <ele>252.4580078125</ele>
        <time>2026-07-26T23:10:00Z</time>
      </trkpt>
      <trkpt lat="29.602313116279863" lon="106.32042010385912">
        <ele>252.40374755859375</ele>
        <time>2026-07-26T23:10:09Z</time>
      </trkpt>
    </trkseg>
  </trk>
</gpx>