<?xml version="1.0" encoding="UTF-8"?>
<gpx xmlns="http://www.topografix.com/GPX/1/1" xmlns:gpxtpx="http://www.garmin.com/xmlschemas/TrackPointExtension/v1" xmlns:xsi="http://www.w3.org/2001/XMLSchema-instance" xsi:schemaLocation="http://www.topografix.com/GPX/1/1 http://www.topografix.com/GPX/1/1/gpx.xsd" version="1.1" creator="gpx.py -- https://github.com/tkrajina/gpxpy">
  <trk>
    <name>gpx from keep</name>
    <type>Walk</type>
    <trkseg>
      <trkpt lat="29.60243777009844" lon="106.31953528550953">
        <ele>262.14971923828125</ele>
        <time>2026-08-22T23:17:08Z</time>
      </trkpt>
      <trkpt lat="29.602487823392554" lon="106.31949937126075">
        <ele>259.345947265625</ele>
        <time>2026-08-22T23:17:14Z</time>
      </trkpt>
      <trkpt lat="29.60271372570117" lon="106.31951432064702">
        <ele>265.8251953125</ele>
        <time>2026-08-22T23:17:35Z</time>
      </trkpt>
      <trkpt lat="29.602844712343394" lon="106.3195003472669">
        <ele>265.2198486328125</ele>
        <time>2026-08-22T23:17:47Z</time>
      </trkpt>
      <trkpt lat="29.602899735552377" lon="106.31947939572791">
        <ele>263.88623046875</ele>
        <time>2026-08-22T23:17:53Z</time>
      </trkpt>
      <trkpt lat="29.602926952094354" lon="106.319361684999">
        <ele>264.3720703125</ele>
        <time>2026-08-22T23:18:05Z</time>
      </trkpt>
      <trkpt lat="29.602911219801715" lon="106.31922402607586">
        <ele>262.9776611328125</ele>
        <time>2026-08-22T23:18:17Z</time>
      </trkpt>
      <trkpt lat="29.602934604963618" lon="106.31901853220305">
        <ele>257.80523681640625</ele>
        <time>2026-08-22T23:18:35Z</time>
      </trkpt>
      <trkpt lat="29.602926216587125" lon="106.3186993206499">
        <ele>257.584228515625</ele>
        <time>2026-08-22T23:18:59Z</time>
      </trkpt>
      <trkpt lat="29.60292486173932" lon="106.3183611548082">
        <ele>257.69976806640625</ele>
        <time>2026-08-22T23:19:29Z</time>
      </trkpt>
      <trkpt lat="29.602933484318793" lon="106.31803296309114">
        <ele>255.4603271484375</ele>
        <time>2026-08-22T23:19:59Z</time>
      </trkpt>
      <trkpt lat="29.602953874990444" lon="106.31782447530351">
        <ele>252.73638916015625</ele>
        <time>2026-08-22T23:20:17Z</time>
      </trkpt>
      <trkpt lat="29.602939010517698" lon="106.3177556456463">
        <ele>253.02984619140625</ele>
        <time>2026-08-22T23:20:23Z</time>
      </trkpt>
      <trkpt lat="29.60296565315068" lon="106.31741348588831">
        <ele>256.64453125</ele>
        <time>2026-08-22T23:20:53Z</time>
      </trkpt>
      <trkpt lat="29.60294430792002" lon="106.31707232575559">
        <ele>255.89923095703125</ele>
        <time>2026-08-22T23:21:23Z</time>
      </trkpt>
      <trkpt lat="29.602951989124566" lon="106.31671220954222">
        <ele>257.6673583984375</ele>
        <time>2026-08-22T23:21:53Z</time>
      </trkpt>
      <trkpt lat="29.602920333665722" lon="106.31653564464384">
        <ele>255.350830078125</ele>
        <time>2026-08-22T23:22:11Z</time>
      </trkpt>
      <trkpt lat="29.602856513912986" lon="106.31645085643426">
        <ele>256.2772216796875</ele>
        <time>2026-08-22T23:22:23Z</time>
      </trkpt>
      <trkpt lat="29.602755627942173" lon="106.31640697013229">
        <ele>256.992431640625</ele>
        <time>2026-08-22T23:22:35Z</time>
      </trkpt>
      <trkpt lat="29.602637605420025" lon="106.3164379014207">
        <ele>258.02978515625</ele>
        <time>2026-08-22T23:22:47Z</time>
      </trkpt>
      <trkpt lat="29.60255048078879" lon="106.31651771096625">
        <ele>255.7384033203125</ele>
        <time>2026-08-22T23:22:59Z</time>
      </trkpt>
      <trkpt lat="29.602516377735707" lon="106.31657756621101">
        <ele>253.83929443359375</ele>
        <time>2026-08-22T23:23:05Z</time>
      </trkpt>
      <trkpt lat="29.602514000015056" lon="106.3167770767898">
        <ele>254.16015625</ele>
        <time>2026-08-22T23:23:23Z</time>
      </trkpt>
      <trkpt lat="29.602581612010358" lon="106.31697059755152">
        <ele>254.702880859375</ele>
        <time>2026-08-22T23:23:41Z</time>
      </trkpt>
      <trkpt lat="29.602536932121524" lon="106.31733570305397">
        <ele>253.97723388671875</ele>
        <time>2026-08-22T23:24:11Z</time>
      </trkpt>
      <trkpt lat="29.60246174464436" lon="106.31744643529943">
        <ele>253.227783203125</ele>
        <time>2026-08-22T23:24:23Z</time>
      </trkpt>
      <trkpt lat="29.60236264979496" lon="106.31751227933182">
        <ele>253.36407470703125</ele>
        <time>2026-08-22T23:24:36Z</time>
      </trkpt>
      <trkpt lat="29.602039729762584" lon="106.31752227425534">
        <ele>257.0247802734375</ele>
        <time>2026-08-22T23:25:06Z</time>
      </trkpt>
      <trkpt lat="29.601910672586225" lon="106.31757315687483">
        <ele>258.4117431640625</ele>
        <time>2026-08-22T23:25:18Z</time>
      </trkpt>
      <trkpt lat="29.60186555360744" lon="106.317642987779">
        <ele>259.8118896484375</ele>
        <time>2026-08-22T23:25:24Z</time>
      </trkpt>
      <trkpt lat="29.601845396578778" lon="106.31772877786156">
        <ele>259.803466796875</ele>
        <time>2026-08-22T23:25:30Z</time>
      </trkpt>
      <trkpt lat="29.601858980417084" lon="106.31794524408416">
        <ele>256.18634033203125</ele>
        <time>2026-08-22T23:25:48Z</time>
      </trkpt>
      <trkpt lat="29.601884820543678" lon="106.3180250459667">
        <ele>256.17071533203125</ele>
        <time>2026-08-22T23:25:54Z</time>
      </trkpt>
      <trkpt lat="29.60188813919052" lon="106.31838216566638">
        <ele>259.4488525390625</ele>
        <time>2026-08-22T23:26:24Z</time>
      </trkpt>
      <trkpt lat="29.601910886918084" lon="106.31851084697061">
        <ele>257.3868408203125</ele>
        <time>2026-08-22T23:26:36Z</time>
      </trkpt>
      <trkpt lat="29.601883259945534" lon="106.31884402658069">
        <ele>255.21356201171875</ele>
        <time>2026-08-22T23:27:06Z</time>
      </trkpt>
      <trkpt lat="29.601875601615504" lon="106.31919017232124">
        <ele>256.3739013671875</ele>
        <time>2026-08-22T23:27:36Z</time>
      </trkpt>
      <trkpt lat="29.60187947661439" lon="106.31925501190833">
        <ele>257.3502197265625</ele>
        <time>2026-08-22T23:27:42Z</time>
      </trkpt>
      <trkpt lat="29.601932228002916" lon="106.31937670802215">
        <ele>259.4381103515625</ele>
        <time>2026-08-22T23:27:54Z</time>
      </trkpt>
      <trkpt lat="29.60194209921047" lon="106.31944254471816">
        <ele>260.625244140625</ele>
        <time>2026-08-22T23:28:00Z</time>
      </trkpt>
      <trkpt lat="29.601907854322604" lon="106.31957621636757">
        <ele>260.3658447265625</ele>
        <time>2026-08-22T23:28:12Z</time>
      </trkpt>
      <trkpt lat="29.60190270530464" lon="106.3196550218382">
        <ele>261.195556640625</ele>
        <time>2026-08-22T23:28:18Z</time>
      </trkpt>
      <trkpt lat="29.601932596996587" lon="106.319706891769">
        <ele>260.1143798828125</ele>
        <time>2026-08-22T23:28:24Z</time>
      </trkpt>
      <trkpt lat="29.601903087316984" lon="106.31997822240633">
        <ele>261.4208984375</ele>
        <time>2026-08-22T23:28:48Z</time>
      </trkpt>
      <trkpt lat="29.60192098072307" lon="106.32003109051193">
        <ele>260.54620361328125</ele>
        <time>2026-08-22T23:28:54Z</time>
      </trkpt>
      <trkpt lat="29.602173947049888" lon="106.32000813202002">
        <ele>257.6845703125</ele>
        <time>2026-08-22T23:29:18Z</time>
      </trkpt>
      <trkpt lat="29.602107083901426" lon="106.31994728660725">
        <ele>251.68634033203125</ele>
        <time>2026-08-22T23:29:27Z</time>
      </trkpt>
      <trkpt lat="29.60216212044251" lon="106.31991935238737">
        <ele>249.628173828125</ele>
        <time>2026-08-22T23:29:42Z</time>
      </trkpt>
      <trkpt lat="29.602379076877988" lon="106.31990736891157">
        <ele>254.2996826171875</ele>
        <time>2026-08-22T23:30:06Z</time>
      </trkpt>
      <trkpt lat="29.602427163240378" lon="106.31985449679517">
        <ele>254.8787841796875</ele>
        <time>2026-08-22T23:30:12Z</time>
      </trkpt>
      <trkpt lat="29.60244828073334" lon="106.31978965589926">
        <ele>255.3096923828125</ele>
        <time>2026-08-22T23:30:18Z</time>
      </trkpt>
      <trkpt lat="29.602439548433438" lon="106.3196509993196">
        <ele>257.9674072265625</ele>
        <time>2026-08-22T23:30:30Z</time>
      </trkpt>
      <trkpt lat="29.60246468180611" lon="106.31957718031227">
        <ele>257.9244384765625</ele>
        <time>2026-08-22T23:30:36Z</time>
      </trkpt>
      <trkpt lat="29.602525726026172" lon="106.31954425801017">
        <ele>254.83740234375</ele>
        <time>2026-08-22T23:30:42Z</time>
      </trkpt>
      <trkpt lat="29.60281761198519" lon="106.31955720834449">
        <ele>254.26763916015625</ele>
        <time>2026-08-22T23:31:12Z</time>
      </trkpt>
      <trkpt lat="29.6028826550069" lon="106.31952428579814">
        <ele>254.6632080078125</ele>
        <time>2026-08-22T23:31:18Z</time>
      </trkpt>
      <trkpt lat="29.60293277119733" lon="106.31945545290965">
        <ele>254.9697265625</ele>
        <time>2026-08-22T23:31:24Z</time>
      </trkpt>
      <trkpt lat="29.602950910478462" lon="106.31937963918196">
        <ele>256.791015625</ele>
        <time>2026-08-22T23:31:30Z</time>
      </trkpt>
      <trkpt lat="29.60295453984838" lon="106.31904945463849">
        <ele>254.1907958984375</ele>
        <time>2026-08-22T23:31:54Z</time>
      </trkpt>
      <trkpt lat="29.602884802942867" lon="106.31892277164938">
        <ele>254.91326904296875</ele>
        <time>2026-08-22T23:32:06Z</time>
      </trkpt>
      <trkpt lat="29.602880236343555" lon="106.31869633080676">
        <ele>255.1849365234375</ele>
        <time>2026-08-22T23:32:24Z</time>
      </trkpt>
      <trkpt lat="29.602895866795798" lon="106.31836315163763">
        <ele>258.5384521484375</ele>
        <time>2026-08-22T23:32:54Z</time>
      </trkpt>
      <trkpt lat="29.60296537199444" lon="106.31808682846354">
        <ele>256.63079833984375</ele>
        <time>2026-08-22T23:33:18Z</time>
      </trkpt>
      <trkpt lat="29.602959643469987" lon="106.31794517773457">
        <ele>256.00689697265625</ele>
        <time>2026-08-22T23:33:30Z</time>
      </trkpt>
      <trkpt lat="29.60297192642994" lon="106.31779454789178">
        <ele>257.56756591796875</ele>
        <time>2026-08-22T23:33:42Z</time>
      </trkpt>
      <trkpt lat="29.60295760061282" lon="106.31744241522807">
        <ele>259.8126220703125</ele>
        <time>2026-08-22T23:34:12Z</time>
      </trkpt>
      <trkpt lat="29.602963194153926" lon="106.31712918491183">
        <ele>256.050048828125</ele>
        <time>2026-08-22T23:34:42Z</time>
      </trkpt>
      <trkpt lat="29.602912840205395" lon="106.31679700378538">
        <ele>257.92877197265625</ele>
        <time>2026-08-22T23:35:12Z</time>
      </trkpt>
      <trkpt lat="29.60290733385469" lon="106.31653764053354">
        <ele>255.0496826171875</ele>
        <time>2026-08-22T23:35:36Z</time>
      </trkpt>
      <trkpt lat="29.602879442612963" lon="106.31648477188143">
        <ele>254.570068359375</ele>
        <time>2026-08-22T23:35:42Z</time>
      </trkpt>
      <trkpt lat="29.60278759926221" lon="106.31641694374841">
        <ele>256.18072509765625</ele>
        <time>2026-08-22T23:35:54Z</time>
      </trkpt>
      <trkpt lat="29.60267863446813" lon="106.31641595275866">
        <ele>255.7611083984375</ele>
        <time>2026-08-22T23:36:06Z</time>
      </trkpt>
      <trkpt lat="29.602579558885285" lon="106.31647182174984">
        <ele>256.027587890625</ele>
        <time>2026-08-22T23:36:18Z</time>
      </trkpt>
      <trkpt lat="29.60254446938892" lon="106.31652469420202">
        <ele>254.8907470703125</ele>
        <time>2026-08-22T23:36:24Z</time>
      </trkpt>
      <trkpt lat="29.60252233807769" lon="106.31659751690917">
        <ele>253.49267578125</ele>
        <time>2026-08-22T23:36:30Z</time>
      </trkpt>
      <trkpt lat="29.602549799748882" lon="106.31687682973755">
        <ele>254.9510498046875</ele>
        <time>2026-08-22T23:36:54Z</time>
      </trkpt>
      <trkpt lat="29.602575536212548" lon="106.31701149746074">
        <ele>254.91650390625</ele>
        <time>2026-08-22T23:37:06Z</time>
      </trkpt>
      <trkpt lat="29.602549430538648" lon="106.31707135200172">
        <ele>255.36529541015625</ele>
        <time>2026-08-22T23:37:12Z</time>
      </trkpt>
      <trkpt lat="29.602406229926157" lon="106.31720004442434">
        <ele>254.845947265625</ele>
        <time>2026-08-22T23:37:30Z</time>
      </trkpt>
      <trkpt lat="29.602336048592818" lon="106.31730678628391">
        <ele>254.999755859375</ele>
        <time>2026-08-22T23:37:42Z</time>
      </trkpt>
      <trkpt lat="29.602326926250544" lon="106.31737262495791">
        <ele>256.15606689453125</ele>
        <time>2026-08-22T23:37:48Z</time>
      </trkpt>
      <trkpt lat="29.602345687235722" lon="106.31749532206882">
        <ele>256.2685546875</ele>
        <time>2026-08-22T23:38:00Z</time>
      </trkpt>
      <trkpt lat="29.60213063739728" lon="106.31755618533894">
        <ele>254.077392578125</ele>
        <time>2026-08-22T23:38:18Z</time>
      </trkpt>
      <trkpt lat="29.601994684764925" lon="106.31755320089536">
        <ele>255.883544921875</ele>
        <time>2026-08-22T23:38:30Z</time>
      </trkpt>
      <trkpt lat="29.6019366608207" lon="106.31757515039995">
        <ele>256.829833984375</ele>
        <time>2026-08-22T23:38:36Z</time>
      </trkpt>
      <trkpt lat="29.60187549931914" lon="106.3176699208991">
        <ele>256.25030517578125</ele>
        <time>2026-08-22T23:38:48Z</time>
      </trkpt>
      <trkpt lat="29.60187879389906" lon="106.31804000947047">
        <ele>254.90802001953125</ele>
        <time>2026-08-22T23:39:24Z</time>
      </trkpt>
      <trkpt lat="29.60185942742728" lon="106.31823552887589">
        <ele>256.6214599609375</ele>
        <time>2026-08-22T23:39:42Z</time>
      </trkpt>
      <trkpt lat="29.601868160528962" lon="106.31837418654662">
        <ele>256.05908203125</ele>
        <time>2026-08-22T23:39:54Z</time>
      </trkpt>
      <trkpt lat="29.60189889630145" lon="106.31850785507436">
        <ele>254.8421630859375</ele>
        <time>2026-08-22T23:40:06Z</time>
      </trkpt>
      <trkpt lat="29.601887232081026" lon="106.31885799186969">
        <ele>255.81768798828125</ele>
        <time>2026-08-22T23:40:36Z</time>
      </trkpt>
      <trkpt lat="29.601897581540122" lon="106.3191971537466">
        <ele>257.4365234375</ele>
        <time>2026-08-22T23:41:06Z</time>
      </trkpt>
      <trkpt lat="29.601901456537323" lon="106.31926199333122">
        <ele>257.1539306640625</ele>
        <time>2026-08-22T23:41:12Z</time>
      </trkpt>
      <trkpt lat="29.6019283244656" lon="106.3193268315066">
        <ele>256.8697509765625</ele>
        <time>2026-08-22T23:41:18Z</time>
      </trkpt>
      <trkpt lat="29.60192618031598" lon="106.3194026442923">
        <ele>257.52679443359375</ele>
        <time>2026-08-22T23:41:24Z</time>
      </trkpt>
      <trkpt lat="29.601889922724027" lon="106.3195432988288">
        <ele>257.290283203125</ele>
        <time>2026-08-22T23:41:36Z</time>
      </trkpt>
      <trkpt lat="29.601898229957396" lon="106.3199044053246">
        <ele>258.31982421875</ele>
        <time>2026-08-22T23:42:06Z</time>
      </trkpt>
      <trkpt lat="29.601895103118938" lon="106.3199712401645">
        <ele>257.64141845703125</ele>
        <time>2026-08-22T23:42:12Z</time>
      </trkpt>
      <trkpt lat="29.601919981029692" lon="106.32003109057224">
        <ele>257.9644775390625</ele>
        <time>2026-08-22T23:42:18Z</time>
      </trkpt>
      <trkpt lat="29.602147054484462" lon="106.31995626198407">
        <ele>257.1962890625</ele>
        <time>2026-08-22T23:42:39Z</time>
      </trkpt>
    </trkseg>
  </trk>
</gpx>