<?xml version="1.0" encoding="UTF-8"?>
<gpx xmlns="http://www.topografix.com/GPX/1/1" xmlns:gpxtpx="http://www.garmin.com/xmlschemas/TrackPointExtension/v1" xmlns:xsi="http://www.w3.org/2001/XMLSchema-instance" xsi:schemaLocation="http://www.topografix.com/GPX/1/1 http://www.topografix.com/GPX/1/1/gpx.xsd" version="1.1" creator="gpx.py -- https://github.com/tkrajina/gpxpy">
  <trk>
    <name>gpx from keep</name>
    <type>Walk</type>
    <trkseg>
      <trkpt lat="29.602378519454437" lon="106.3196759413367">
        <ele>271.08441162109375</ele>
        <time>2026-08-10T23:06:48Z</time>
      </trkpt>
      <trkpt lat="29.602406693837537" lon="106.3195801764118">
        <ele>258.774169921875</ele>
        <time>2026-08-10T23:06:54Z</time>
      </trkpt>
      <trkpt lat="29.602497808901443" lon="106.31950535586378">
        <ele>252.03656005859375</ele>
        <time>2026-08-10T23:07:00Z</time>
      </trkpt>
      <trkpt lat="29.602748756920104" lon="106.3194923727811">
        <ele>252.26910400390625</ele>
        <time>2026-08-10T23:07:18Z</time>
      </trkpt>
      <trkpt lat="29.6028797988161" lon="106.31944947089816">
        <ele>253.4951171875</ele>
        <time>2026-08-10T23:07:30Z</time>
      </trkpt>
      <trkpt lat="29.602934886791825" lon="106.31939460317065">
        <ele>256.095458984375</ele>
        <time>2026-08-10T23:07:36Z</time>
      </trkpt>
      <trkpt lat="29.602929260004505" lon="106.31920008413016">
        <ele>249.38409423828125</ele>
        <time>2026-08-10T23:07:54Z</time>
      </trkpt>
      <trkpt lat="29.602915365193873" lon="106.31914721556336">
        <ele>250.65960693359375</ele>
        <time>2026-08-10T23:07:57Z</time>
      </trkpt>
      <trkpt lat="29.602937497450515" lon="106.31907439408002">
        <ele>250.9537353515625</ele>
        <time>2026-08-10T23:08:03Z</time>
      </trkpt>
      <trkpt lat="29.602914087097904" lon="106.31876914906898">
        <ele>251.6632080078125</ele>
        <time>2026-08-10T23:08:27Z</time>
      </trkpt>
      <trkpt lat="29.602927505343107" lon="106.31854769463791">
        <ele>250.38177490234375</ele>
        <time>2026-08-10T23:08:45Z</time>
      </trkpt>
      <trkpt lat="29.60290965153086" lon="106.31847387777597">
        <ele>248.3330078125</ele>
        <time>2026-08-10T23:08:51Z</time>
      </trkpt>
      <trkpt lat="29.60291315993177" lon="106.31820653664475">
        <ele>249.34326171875</ele>
        <time>2026-08-10T23:09:21Z</time>
      </trkpt>
      <trkpt lat="29.602948671509903" lon="106.31793221033342">
        <ele>247.9571533203125</ele>
        <time>2026-08-10T23:09:45Z</time>
      </trkpt>
      <trkpt lat="29.602979775943673" lon="106.31787235584768">
        <ele>244.07293701171875</ele>
        <time>2026-08-10T23:09:51Z</time>
      </trkpt>
      <trkpt lat="29.602939253368593" lon="106.31762795988378">
        <ele>246.2613525390625</ele>
        <time>2026-08-10T23:10:09Z</time>
      </trkpt>
      <trkpt lat="29.602945869660545" lon="106.31730275934225">
        <ele>246.674072265625</ele>
        <time>2026-08-10T23:10:33Z</time>
      </trkpt>
      <trkpt lat="29.602930264845337" lon="106.31709726533033">
        <ele>251.4775390625</ele>
        <time>2026-08-10T23:10:51Z</time>
      </trkpt>
      <trkpt lat="29.60290440346481" lon="106.31702843598707">
        <ele>252.6473388671875</ele>
        <time>2026-08-10T23:10:57Z</time>
      </trkpt>
      <trkpt lat="29.602953869314337" lon="106.31677505518368">
        <ele>251.503662109375</ele>
        <time>2026-08-10T23:11:15Z</time>
      </trkpt>
      <trkpt lat="29.602954189018853" lon="106.31660646886563">
        <ele>249.72271728515625</ele>
        <time>2026-08-10T23:11:27Z</time>
      </trkpt>
      <trkpt lat="29.602936355249945" lon="106.31652167793231">
        <ele>248.467041015625</ele>
        <time>2026-08-10T23:11:33Z</time>
      </trkpt>
      <trkpt lat="29.60288948114803" lon="106.31646282509455">
        <ele>251.340087890625</ele>
        <time>2026-08-10T23:11:39Z</time>
      </trkpt>
      <trkpt lat="29.60275763300101" lon="106.31640397734868">
        <ele>252.82769775390625</ele>
        <time>2026-08-10T23:11:51Z</time>
      </trkpt>
      <trkpt lat="29.602686652813063" lon="106.31640497917904">
        <ele>253.744873046875</ele>
        <time>2026-08-10T23:11:57Z</time>
      </trkpt>
      <trkpt lat="29.602566532613572" lon="106.31648778339371">
        <ele>253.1236572265625</ele>
        <time>2026-08-10T23:12:09Z</time>
      </trkpt>
      <trkpt lat="29.602505297887973" lon="106.31662145920048">
        <ele>252.8616943359375</ele>
        <time>2026-08-10T23:12:21Z</time>
      </trkpt>
      <trkpt lat="29.60252884970598" lon="106.31685388733237">
        <ele>254.79327392578125</ele>
        <time>2026-08-10T23:12:39Z</time>
      </trkpt>
      <trkpt lat="29.602571560158697" lon="106.31699952710362">
        <ele>254.044189453125</ele>
        <time>2026-08-10T23:12:51Z</time>
      </trkpt>
      <trkpt lat="29.60255012144717" lon="106.31723395239182">
        <ele>252.985107421875</ele>
        <time>2026-08-10T23:13:09Z</time>
      </trkpt>
      <trkpt lat="29.60252298189194" lon="106.31731176275603">
        <ele>254.0634765625</ele>
        <time>2026-08-10T23:13:15Z</time>
      </trkpt>
      <trkpt lat="29.60241775621243" lon="106.31744743549716">
        <ele>255.08880615234375</ele>
        <time>2026-08-10T23:13:27Z</time>
      </trkpt>
      <trkpt lat="29.602294680093777" lon="106.3175072956976">
        <ele>255.07080078125</ele>
        <time>2026-08-10T23:13:39Z</time>
      </trkpt>
      <trkpt lat="29.602227691128654" lon="106.31751228746582">
        <ele>255.239501953125</ele>
        <time>2026-08-10T23:13:45Z</time>
      </trkpt>
      <trkpt lat="29.60217464288343" lon="106.31754620722793">
        <ele>256.3826904296875</ele>
        <time>2026-08-10T23:13:51Z</time>
      </trkpt>
      <trkpt lat="29.602115634406704" lon="106.31756017642651">
        <ele>256.76263427734375</ele>
        <time>2026-08-10T23:13:57Z</time>
      </trkpt>
      <trkpt lat="29.602030724935375" lon="106.31752626498232">
        <ele>257.3389892578125</ele>
        <time>2026-08-10T23:14:03Z</time>
      </trkpt>
      <trkpt lat="29.601967740454068" lon="106.31752826387047">
        <ele>254.1474609375</ele>
        <time>2026-08-10T23:14:09Z</time>
      </trkpt>
      <trkpt lat="29.601897708815052" lon="106.31755619937772">
        <ele>256.708251953125</ele>
        <time>2026-08-10T23:14:15Z</time>
      </trkpt>
      <trkpt lat="29.601852472223417" lon="106.31768787809739">
        <ele>258.72314453125</ele>
        <time>2026-08-10T23:14:25Z</time>
      </trkpt>
      <trkpt lat="29.601854765177514" lon="106.31805896422819">
        <ele>256.393310546875</ele>
        <time>2026-08-10T23:14:55Z</time>
      </trkpt>
      <trkpt lat="29.601866068007656" lon="106.31842306615299">
        <ele>256.1317138671875</ele>
        <time>2026-08-10T23:15:25Z</time>
      </trkpt>
      <trkpt lat="29.601842380965483" lon="106.31878716938236">
        <ele>254.13250732421875</ele>
        <time>2026-08-10T23:15:55Z</time>
      </trkpt>
      <trkpt lat="29.601849110533614" lon="106.31892782179469">
        <ele>251.2244873046875</ele>
        <time>2026-08-10T23:16:07Z</time>
      </trkpt>
      <trkpt lat="29.60183988109419" lon="106.31904952186295">
        <ele>249.56805419921875</ele>
        <time>2026-08-10T23:16:19Z</time>
      </trkpt>
      <trkpt lat="29.601866461557556" lon="106.31926498804835">
        <ele>248.7862548828125</ele>
        <time>2026-08-10T23:16:37Z</time>
      </trkpt>
      <trkpt lat="29.601906201687793" lon="106.31939466521916">
        <ele>251.331787109375</ele>
        <time>2026-08-10T23:16:49Z</time>
      </trkpt>
      <trkpt lat="29.60192063307814" lon="106.31968993442531">
        <ele>251.49560546875</ele>
        <time>2026-08-10T23:17:13Z</time>
      </trkpt>
      <trkpt lat="29.601881385791497" lon="106.31982560127697">
        <ele>249.7178955078125</ele>
        <time>2026-08-10T23:17:25Z</time>
      </trkpt>
      <trkpt lat="29.60187525417108" lon="106.31989542892016">
        <ele>249.7109375</ele>
        <time>2026-08-10T23:17:31Z</time>
      </trkpt>
      <trkpt lat="29.601907107066978" lon="106.31996724931244">
        <ele>250.308837890625</ele>
        <time>2026-08-10T23:17:37Z</time>
      </trkpt>
      <trkpt lat="29.60215906606348" lon="106.31994828100312">
        <ele>253.7353515625</ele>
        <time>2026-08-10T23:18:01Z</time>
      </trkpt>
      <trkpt lat="29.602204964253403" lon="106.31999416470339">
        <ele>253.4091796875</ele>
        <time>2026-08-10T23:18:07Z</time>
      </trkpt>
      <trkpt lat="29.602249691085213" lon="106.32012982629186">
        <ele>247.26263427734375</ele>
        <time>2026-08-10T23:18:19Z</time>
      </trkpt>
      <trkpt lat="29.602307673326138" lon="106.3201298227934">
        <ele>246.44561767578125</ele>
        <time>2026-08-10T23:18:25Z</time>
      </trkpt>
      <trkpt lat="29.602359714630527" lon="106.32009989371511">
        <ele>246.76751708984375</ele>
        <time>2026-08-10T23:18:31Z</time>
      </trkpt>
      <trkpt lat="29.602361837991182" lon="106.32003505403993">
        <ele>248.0958251953125</ele>
        <time>2026-08-10T23:18:37Z</time>
      </trkpt>
      <trkpt lat="29.602391947047025" lon="106.31997320525264">
        <ele>249.42938232421875</ele>
        <time>2026-08-10T23:18:43Z</time>
      </trkpt>
      <trkpt lat="29.602357116025903" lon="106.31989041218775">
        <ele>248.93499755859375</ele>
        <time>2026-08-10T23:19:25Z</time>
      </trkpt>
      <trkpt lat="29.602325053365277" lon="106.3199283203469">
        <ele>248.87493121453912</ele>
        <time>2026-08-10T23:19:37Z</time>
      </trkpt>
      <trkpt lat="29.60252759646352" lon="106.32013479717988">
        <ele>272.9010009765625</ele>
        <time>2026-08-10T23:24:31Z</time>
      </trkpt>
      <trkpt lat="29.60252348895473" lon="106.32019165669776">
        <ele>271.8189697265625</ele>
        <time>2026-08-10T23:25:22Z</time>
        <extensions>
          <gpxtpx:TrackPointExtension>
            <gpxtpx:hr>130</gpxtpx:hr>
          </gpxtpx:TrackPointExtension>
        </extensions>
      </trkpt>
    </trkseg>
  </trk>
</gpx>