<?xml version="1.0" encoding="UTF-8"?>
<gpx xmlns="http://www.topografix.com/GPX/1/1" xmlns:gpxtpx="http://www.garmin.com/xmlschemas/TrackPointExtension/v1" xmlns:xsi="http://www.w3.org/2001/XMLSchema-instance" xsi:schemaLocation="http://www.topografix.com/GPX/1/1 http://www.topografix.com/GPX/1/1/gpx.xsd" version="1.1" creator="gpx.py -- https://github.com/tkrajina/gpxpy">
  <trk>
    <name>gpx from keep</name>
    <type>Walk</type>
    <trkseg>
      <trkpt lat="29.602002695588407" lon="106.3175462175913">
        <ele>261.1239013671875</ele>
        <time>2026-09-19T22:23:09Z</time>
        <extensions>
          <gpxtpx:TrackPointExtension>
            <gpxtpx:hr>128</gpxtpx:hr>
          </gpxtpx:TrackPointExtension>
        </extensions>
      </trkpt>
      <trkpt lat="29.601954721682137" lon="106.31754023520709">
        <ele>259.2081298828125</ele>
        <time>2026-09-19T22:23:12Z</time>
        <extensions>
          <gpxtpx:TrackPointExtension>
            <gpxtpx:hr>128</gpxtpx:hr>
          </gpxtpx:TrackPointExtension>
        </extensions>
      </trkpt>
      <trkpt lat="29.601902682625962" lon="106.3175691671734">
        <ele>258.791259765625</ele>
        <time>2026-09-19T22:23:18Z</time>
        <extensions>
          <gpxtpx:TrackPointExtension>
            <gpxtpx:hr>128</gpxtpx:hr>
          </gpxtpx:TrackPointExtension>
        </extensions>
      </trkpt>
      <trkpt lat="29.601881575258286" lon="106.31762902117902">
        <ele>257.75396728515625</ele>
        <time>2026-09-19T22:23:24Z</time>
        <extensions>
          <gpxtpx:TrackPointExtension>
            <gpxtpx:hr>128</gpxtpx:hr>
          </gpxtpx:TrackPointExtension>
        </extensions>
      </trkpt>
      <trkpt lat="29.601881914505917" lon="106.31797616653965">
        <ele>256.25762939453125</ele>
        <time>2026-09-19T22:23:54Z</time>
      </trkpt>
      <trkpt lat="29.601859414127517" lon="106.31824251166645">
        <ele>256.7108154296875</ele>
        <time>2026-09-19T22:24:18Z</time>
      </trkpt>
      <trkpt lat="29.601884978540276" lon="106.31846695677861">
        <ele>256.3155517578125</ele>
        <time>2026-09-19T22:24:36Z</time>
      </trkpt>
      <trkpt lat="29.601862445218355" lon="106.31875025925821">
        <ele>255.2332763671875</ele>
        <time>2026-09-19T22:25:00Z</time>
      </trkpt>
      <trkpt lat="29.601874767563263" lon="106.31910338672976">
        <ele>254.8896484375</ele>
        <time>2026-09-19T22:25:30Z</time>
      </trkpt>
      <trkpt lat="29.601859644603593" lon="106.319170222565">
        <ele>255.5048828125</ele>
        <time>2026-09-19T22:25:36Z</time>
      </trkpt>
      <trkpt lat="29.601863479616966" lon="106.31925601040868">
        <ele>256.75860595703125</ele>
        <time>2026-09-19T22:25:42Z</time>
      </trkpt>
      <trkpt lat="29.601910320461663" lon="106.3193318202682">
        <ele>256.6580810546875</ele>
        <time>2026-09-19T22:25:48Z</time>
      </trkpt>
      <trkpt lat="29.6019308720423" lon="106.31956324703839">
        <ele>255.6181640625</ele>
        <time>2026-09-19T22:26:06Z</time>
      </trkpt>
      <trkpt lat="29.601922193996835" lon="106.31991936686231">
        <ele>259.6904296875</ele>
        <time>2026-09-19T22:26:36Z</time>
      </trkpt>
      <trkpt lat="29.601894061471782" lon="106.31999318592915">
        <ele>261.79022216796875</ele>
        <time>2026-09-19T22:26:42Z</time>
      </trkpt>
      <trkpt lat="29.601942016240866" lon="106.3200091435449">
        <ele>260.55255126953125</ele>
        <time>2026-09-19T22:26:48Z</time>
      </trkpt>
      <trkpt lat="29.602010195620174" lon="106.3199043985697">
        <ele>265.9322509765625</ele>
        <time>2026-09-19T22:27:00Z</time>
      </trkpt>
      <trkpt lat="29.6023171587772" lon="106.31987445408063">
        <ele>265.023681640625</ele>
        <time>2026-09-19T22:27:30Z</time>
      </trkpt>
      <trkpt lat="29.60238016427831" lon="106.31986148235795">
        <ele>262.6583251953125</ele>
        <time>2026-09-19T22:27:36Z</time>
      </trkpt>
      <trkpt lat="29.60244037849353" lon="106.31973977972986">
        <ele>264.10205078125</ele>
        <time>2026-09-19T22:27:48Z</time>
      </trkpt>
      <trkpt lat="29.60243763099321" lon="106.31960810549101">
        <ele>264.34942626953125</ele>
        <time>2026-09-19T22:28:00Z</time>
      </trkpt>
      <trkpt lat="29.60246871869294" lon="106.31955722939075">
        <ele>264.5777587890625</ele>
        <time>2026-09-19T22:28:06Z</time>
      </trkpt>
      <trkpt lat="29.602518771991846" lon="106.31952131514599">
        <ele>266.2977294921875</ele>
        <time>2026-09-19T22:28:12Z</time>
      </trkpt>
      <trkpt lat="29.602801668321142" lon="106.31953027588801">
        <ele>264.5531005859375</ele>
        <time>2026-09-19T22:28:36Z</time>
      </trkpt>
      <trkpt lat="29.60286469099101" lon="106.31950832633542">
        <ele>264.1846923828125</ele>
        <time>2026-09-19T22:28:42Z</time>
      </trkpt>
      <trkpt lat="29.60291077029601" lon="106.31945944437456">
        <ele>262.9088134765625</ele>
        <time>2026-09-19T22:28:48Z</time>
      </trkpt>
      <trkpt lat="29.602930897537842" lon="106.31938961573735">
        <ele>262.89764404296875</ele>
        <time>2026-09-19T22:28:54Z</time>
      </trkpt>
      <trkpt lat="29.602944531480986" lon="106.3190554404617">
        <ele>261.2928466796875</ele>
        <time>2026-09-19T22:29:24Z</time>
      </trkpt>
      <trkpt lat="29.60292767371802" lon="106.31898361883013">
        <ele>260.1650390625</ele>
        <time>2026-09-19T22:29:30Z</time>
      </trkpt>
      <trkpt lat="29.602928816145333" lon="106.31890880347204">
        <ele>258.85675048828125</ele>
        <time>2026-09-19T22:29:36Z</time>
      </trkpt>
      <trkpt lat="29.602966073119635" lon="106.31876814839586">
        <ele>252.736328125</ele>
        <time>2026-09-19T22:29:48Z</time>
      </trkpt>
      <trkpt lat="29.602915680114535" lon="106.3184579167728">
        <ele>257.46728515625</ele>
        <time>2026-09-19T22:30:12Z</time>
      </trkpt>
      <trkpt lat="29.602897271200934" lon="106.31815067526493">
        <ele>257.749267578125</ele>
        <time>2026-09-19T22:30:36Z</time>
      </trkpt>
      <trkpt lat="29.602876418169068" lon="106.31807685840265">
        <ele>257.62322998046875</ele>
        <time>2026-09-19T22:30:42Z</time>
      </trkpt>
      <trkpt lat="29.602891542721014" lon="106.31800902459369">
        <ele>257.15533447265625</ele>
        <time>2026-09-19T22:30:48Z</time>
      </trkpt>
      <trkpt lat="29.60285868950718" lon="106.31793720347426">
        <ele>258.414306640625</ele>
        <time>2026-09-19T22:30:54Z</time>
      </trkpt>
      <trkpt lat="29.602856299586964" lon="106.31761699188466">
        <ele>258.47412109375</ele>
        <time>2026-09-19T22:31:18Z</time>
      </trkpt>
      <trkpt lat="29.602923891541018" lon="106.31729478028593">
        <ele>257.2772216796875</ele>
        <time>2026-09-19T22:31:42Z</time>
      </trkpt>
      <trkpt lat="29.602946312991037" lon="106.31706933298703">
        <ele>257.061279296875</ele>
        <time>2026-09-19T22:32:00Z</time>
      </trkpt>
      <trkpt lat="29.602935910762923" lon="106.31675610278728">
        <ele>256.64306640625</ele>
        <time>2026-09-19T22:32:24Z</time>
      </trkpt>
      <trkpt lat="29.602926354522577" lon="106.31652367364153">
        <ele>260.8673095703125</ele>
        <time>2026-09-19T22:32:42Z</time>
      </trkpt>
      <trkpt lat="29.60290447089509" lon="106.31646581685291">
        <ele>259.0572509765625</ele>
        <time>2026-09-19T22:32:48Z</time>
      </trkpt>
      <trkpt lat="29.602857558973007" lon="106.31642691507517">
        <ele>256.0003662109375</ele>
        <time>2026-09-19T22:32:54Z</time>
      </trkpt>
      <trkpt lat="29.602796534135518" lon="106.31644986249381">
        <ele>255.1649169921875</ele>
        <time>2026-09-19T22:33:00Z</time>
      </trkpt>
      <trkpt lat="29.602707362821757" lon="106.31655461098515">
        <ele>259.228271484375</ele>
        <time>2026-09-19T22:33:12Z</time>
      </trkpt>
      <trkpt lat="29.602593253949113" lon="106.31663043187436">
        <ele>265.6925048828125</ele>
        <time>2026-09-19T22:33:24Z</time>
      </trkpt>
      <trkpt lat="29.60255417886693" lon="106.31667632163702">
        <ele>265.21429443359375</ele>
        <time>2026-09-19T22:33:30Z</time>
      </trkpt>
      <trkpt lat="29.60254103906028" lon="106.31675213637277">
        <ele>264.48828125</ele>
        <time>2026-09-19T22:33:39Z</time>
      </trkpt>
      <trkpt lat="29.60255353347322" lon="106.31701648653491">
        <ele>257.19171142578125</ele>
        <time>2026-09-19T22:34:03Z</time>
      </trkpt>
      <trkpt lat="29.602499000605416" lon="106.31730577891597">
        <ele>250.7579345703125</ele>
        <time>2026-09-19T22:34:27Z</time>
      </trkpt>
      <trkpt lat="29.602398807529514" lon="106.31742349551915">
        <ele>251.927978515625</ele>
        <time>2026-09-19T22:34:40Z</time>
      </trkpt>
      <trkpt lat="29.602120763726965" lon="106.31749134543979">
        <ele>253.94769287109375</ele>
        <time>2026-09-19T22:35:04Z</time>
      </trkpt>
      <trkpt lat="29.60197876173491" lon="106.31751529510716">
        <ele>254.4041748046875</ele>
        <time>2026-09-19T22:35:16Z</time>
      </trkpt>
      <trkpt lat="29.601915722260895" lon="106.3175462228332">
        <ele>254.64263916015625</ele>
        <time>2026-09-19T22:35:22Z</time>
      </trkpt>
      <trkpt lat="29.60186563327774" lon="106.31760109086729">
        <ele>255.783447265625</ele>
        <time>2026-09-19T22:35:28Z</time>
      </trkpt>
      <trkpt lat="29.601855505453" lon="106.3176699221042">
        <ele>255.599609375</ele>
        <time>2026-09-19T22:35:34Z</time>
      </trkpt>
      <trkpt lat="29.601876092903876" lon="106.317883395358">
        <ele>255.8162841796875</ele>
        <time>2026-09-19T22:35:52Z</time>
      </trkpt>
      <trkpt lat="29.60182347456743" lon="106.31821657775536">
        <ele>254.7218017578125</ele>
        <time>2026-09-19T22:36:16Z</time>
      </trkpt>
      <trkpt lat="29.601865001782873" lon="106.31845798012284">
        <ele>255.2586669921875</ele>
        <time>2026-09-19T22:36:34Z</time>
      </trkpt>
      <trkpt lat="29.60186736759057" lon="106.31879016048997">
        <ele>251.91632080078125</ele>
        <time>2026-09-19T22:36:58Z</time>
      </trkpt>
      <trkpt lat="29.601857763258206" lon="106.31910837543695">
        <ele>255.007568359375</ele>
        <time>2026-09-19T22:37:22Z</time>
      </trkpt>
      <trkpt lat="29.60186746125087" lon="106.31926498798805">
        <ele>256.6168212890625</ele>
        <time>2026-09-19T22:37:34Z</time>
      </trkpt>
      <trkpt lat="29.601887314181987" lon="106.31933880440161">
        <ele>256.2222900390625</ele>
        <time>2026-09-19T22:37:40Z</time>
      </trkpt>
      <trkpt lat="29.60187716486247" lon="106.31941860780422">
        <ele>255.2254638671875</ele>
        <time>2026-09-19T22:37:46Z</time>
      </trkpt>
      <trkpt lat="29.60188555803802" lon="106.31973482553485">
        <ele>258.28271484375</ele>
        <time>2026-09-19T22:38:10Z</time>
      </trkpt>
      <trkpt lat="29.601887292437567" lon="106.31987348248195">
        <ele>259.0625</ele>
        <time>2026-09-19T22:38:22Z</time>
      </trkpt>
      <trkpt lat="29.601868149537445" lon="106.31995129115069">
        <ele>259.13702392578125</ele>
        <time>2026-09-19T22:38:28Z</time>
      </trkpt>
      <trkpt lat="29.60188904012049" lon="106.32000515661395">
        <ele>258.9744873046875</ele>
        <time>2026-09-19T22:38:34Z</time>
      </trkpt>
      <trkpt lat="29.60193703684451" lon="106.31999916852735">
        <ele>260.7181396484375</ele>
        <time>2026-09-19T22:38:37Z</time>
      </trkpt>
      <trkpt lat="29.601975168213677" lon="106.31992435132726">
        <ele>261.5130615234375</ele>
        <time>2026-09-19T22:38:43Z</time>
      </trkpt>
      <trkpt lat="29.602026247916413" lon="106.31987447163127">
        <ele>261.8062744140625</ele>
        <time>2026-09-19T22:38:49Z</time>
      </trkpt>
      <trkpt lat="29.602196233961415" lon="106.31985451072708">
        <ele>261.270263671875</ele>
        <time>2026-09-19T22:39:01Z</time>
      </trkpt>
      <trkpt lat="29.602335099879905" lon="106.3199023839035">
        <ele>260.6068115234375</ele>
        <time>2026-09-19T22:39:13Z</time>
      </trkpt>
      <trkpt lat="29.60239311263389" lon="106.31988641988671">
        <ele>259.02947998046875</ele>
        <time>2026-09-19T22:39:19Z</time>
      </trkpt>
      <trkpt lat="29.602444241923543" lon="106.31981060433067">
        <ele>259.7257080078125</ele>
        <time>2026-09-19T22:39:25Z</time>
      </trkpt>
      <trkpt lat="29.602478666089183" lon="106.3195831646717">
        <ele>260.5159912109375</ele>
        <time>2026-09-19T22:39:43Z</time>
      </trkpt>
      <trkpt lat="29.602727751906894" lon="106.3194983592537">
        <ele>259.3212890625</ele>
        <time>2026-09-19T22:40:07Z</time>
      </trkpt>
      <trkpt lat="29.602863756075138" lon="106.31947441022649">
        <ele>258.4534912109375</ele>
        <time>2026-09-19T22:40:19Z</time>
      </trkpt>
      <trkpt lat="29.602921816468577" lon="106.31943350781117">
        <ele>255.8297119140625</ele>
        <time>2026-09-19T22:40:25Z</time>
      </trkpt>
      <trkpt lat="29.60294408784452" lon="106.31928786636536">
        <ele>255.28076171875</ele>
        <time>2026-09-19T22:40:37Z</time>
      </trkpt>
      <trkpt lat="29.602930611895424" lon="106.31901553983347">
        <ele>256.517822265625</ele>
        <time>2026-09-19T22:41:01Z</time>
      </trkpt>
      <trkpt lat="29.602903730531555" lon="106.31895768431073">
        <ele>255.2626953125</ele>
        <time>2026-09-19T22:41:07Z</time>
      </trkpt>
      <trkpt lat="29.602895332563634" lon="106.31864346034166">
        <ele>256.0462646484375</ele>
        <time>2026-09-19T22:41:31Z</time>
      </trkpt>
      <trkpt lat="29.6029160735191" lon="106.31825142583344">
        <ele>258.7408447265625</ele>
        <time>2026-09-19T22:42:01Z</time>
      </trkpt>
      <trkpt lat="29.602912684403126" lon="106.31793121495949">
        <ele>253.3809814453125</ele>
        <time>2026-09-19T22:42:25Z</time>
      </trkpt>
      <trkpt lat="29.602915831553226" lon="106.31785340637066">
        <ele>253.33221435546875</ele>
        <time>2026-09-19T22:42:31Z</time>
      </trkpt>
      <trkpt lat="29.602877968423538" lon="106.31778757074572">
        <ele>255.1470947265625</ele>
        <time>2026-09-19T22:42:37Z</time>
      </trkpt>
      <trkpt lat="29.602824070314977" lon="106.31774268449581">
        <ele>255.2899169921875</ele>
        <time>2026-09-19T22:42:43Z</time>
      </trkpt>
      <trkpt lat="29.602802209851934" lon="106.31767285767741">
        <ele>254.558349609375</ele>
        <time>2026-09-19T22:42:49Z</time>
      </trkpt>
      <trkpt lat="29.60284379088515" lon="106.31736062324222">
        <ele>255.45599365234375</ele>
        <time>2026-09-19T22:43:10Z</time>
      </trkpt>
      <trkpt lat="29.6029323267362" lon="106.3170643460835">
        <ele>251.70758056640625</ele>
        <time>2026-09-19T22:43:31Z</time>
      </trkpt>
      <trkpt lat="29.60293848018448" lon="106.31698254664664">
        <ele>254.896484375</ele>
        <time>2026-09-19T22:43:37Z</time>
      </trkpt>
      <trkpt lat="29.602918630177413" lon="106.31690673403025">
        <ele>256.3966064453125</ele>
        <time>2026-09-19T22:43:43Z</time>
      </trkpt>
      <trkpt lat="29.602874740152945" lon="106.31685586159257">
        <ele>258.16790771484375</ele>
        <time>2026-09-19T22:43:49Z</time>
      </trkpt>
      <trkpt lat="29.60286946457255" lon="106.3164747969457">
        <ele>253.2864990234375</ele>
        <time>2026-09-19T22:44:19Z</time>
      </trkpt>
      <trkpt lat="29.60277562182996" lon="106.3164069689278">
        <ele>253.60089111328125</ele>
        <time>2026-09-19T22:44:31Z</time>
      </trkpt>
      <trkpt lat="29.602711652730836" lon="106.31640098745581">
        <ele>253.413818359375</ele>
        <time>2026-09-19T22:44:37Z</time>
      </trkpt>
      <trkpt lat="29.602641642000233" lon="106.31641795009557">
        <ele>253.658203125</ele>
        <time>2026-09-19T22:44:43Z</time>
      </trkpt>
      <trkpt lat="29.60258858637893" lon="106.3164558603449">
        <ele>253.1480712890625</ele>
        <time>2026-09-19T22:44:49Z</time>
      </trkpt>
      <trkpt lat="29.602546493356424" lon="106.31651172588593">
        <ele>251.99847412109375</ele>
        <time>2026-09-19T22:44:55Z</time>
      </trkpt>
      <trkpt lat="29.602516358824715" lon="106.31658754174117">
        <ele>253.0191650390625</ele>
        <time>2026-09-19T22:45:01Z</time>
      </trkpt>
      <trkpt lat="29.602489079564563" lon="106.31673917133185">
        <ele>254.27325439453125</ele>
        <time>2026-09-19T22:45:13Z</time>
      </trkpt>
      <trkpt lat="29.602536345493846" lon="106.31711823759686">
        <ele>252.26953125</ele>
        <time>2026-09-19T22:45:43Z</time>
      </trkpt>
      <trkpt lat="29.602525064666544" lon="106.31726787053245">
        <ele>252.8026123046875</ele>
        <time>2026-09-19T22:45:55Z</time>
      </trkpt>
      <trkpt lat="29.602501950409756" lon="106.31733171497268">
        <ele>251.13037109375</ele>
        <time>2026-09-19T22:46:01Z</time>
      </trkpt>
      <trkpt lat="29.60239377872523" lon="106.31743945656935">
        <ele>253.525146484375</ele>
        <time>2026-09-19T22:46:13Z</time>
      </trkpt>
      <trkpt lat="29.60235866239728" lon="106.31750629429519">
        <ele>254.3125</ele>
        <time>2026-09-19T22:46:19Z</time>
      </trkpt>
      <trkpt lat="29.60230557242082" lon="106.31756216007032">
        <ele>252.75250244140625</ele>
        <time>2026-09-19T22:46:25Z</time>
      </trkpt>
      <trkpt lat="29.60202862692789" lon="106.31757813749417">
        <ele>256.55303955078125</ele>
        <time>2026-09-19T22:46:49Z</time>
      </trkpt>
      <trkpt lat="29.601917573703492" lon="106.31762403128245">
        <ele>260.3336181640625</ele>
        <time>2026-09-19T22:47:01Z</time>
      </trkpt>
      <trkpt lat="29.60188445292303" lon="106.31769286389448">
        <ele>259.161865234375</ele>
        <time>2026-09-19T22:47:10Z</time>
      </trkpt>
      <trkpt lat="29.601852748698786" lon="106.31806794223225">
        <ele>257.865966796875</ele>
        <time>2026-09-19T22:47:40Z</time>
      </trkpt>
      <trkpt lat="29.60184331832921" lon="106.31829538232093">
        <ele>257.3612060546875</ele>
        <time>2026-09-19T22:47:58Z</time>
      </trkpt>
      <trkpt lat="29.601874865636447" lon="106.31852780731714">
        <ele>255.2708740234375</ele>
        <time>2026-09-19T22:48:16Z</time>
      </trkpt>
      <trkpt lat="29.60186815989232" lon="106.3188988920613">
        <ele>253.6334228515625</ele>
        <time>2026-09-19T22:48:46Z</time>
      </trkpt>
      <trkpt lat="29.601856603634417" lon="106.31919216853879">
        <ele>256.2054443359375</ele>
        <time>2026-09-19T22:49:10Z</time>
      </trkpt>
      <trkpt lat="29.601888327207952" lon="106.31933182159474">
        <ele>256.4130859375</ele>
        <time>2026-09-19T22:49:22Z</time>
      </trkpt>
      <trkpt lat="29.601885739105178" lon="106.31964005985897">
        <ele>256.5126953125</ele>
        <time>2026-09-19T22:49:46Z</time>
      </trkpt>
      <trkpt lat="29.601873596028025" lon="106.3197168706602">
        <ele>256.4190673828125</ele>
        <time>2026-09-19T22:49:52Z</time>
      </trkpt>
      <trkpt lat="29.60188732866278" lon="106.31985452936306">
        <ele>257.8387451171875</ele>
        <time>2026-09-19T22:50:04Z</time>
      </trkpt>
      <trkpt lat="29.601878197955383" lon="106.31992435717753">
        <ele>257.74163818359375</ele>
        <time>2026-09-19T22:50:10Z</time>
      </trkpt>
      <trkpt lat="29.60189706055182" lon="106.3199931857482">
        <ele>258.10498046875</ele>
        <time>2026-09-19T22:50:16Z</time>
      </trkpt>
      <trkpt lat="29.601968015898052" lon="106.32000515184913">
        <ele>260.1727294921875</ele>
        <time>2026-09-19T22:50:22Z</time>
      </trkpt>
      <trkpt lat="29.60208216020704" lon="106.31991137695377">
        <ele>261.5419921875</ele>
        <time>2026-09-19T22:50:34Z</time>
      </trkpt>
      <trkpt lat="29.602149107263774" lon="106.31992833096197">
        <ele>260.41204833984375</ele>
        <time>2026-09-19T22:50:40Z</time>
      </trkpt>
      <trkpt lat="29.602195926961567" lon="106.32001511341619">
        <ele>256.29931640625</ele>
        <time>2026-09-19T22:50:46Z</time>
      </trkpt>
    </trkseg>
  </trk>
</gpx>