<?xml version="1.0" encoding="UTF-8"?>
<gpx xmlns="http://www.topografix.com/GPX/1/1" xmlns:gpxtpx="http://www.garmin.com/xmlschemas/TrackPointExtension/v1" xmlns:xsi="http://www.w3.org/2001/XMLSchema-instance" xsi:schemaLocation="http://www.topografix.com/GPX/1/1 http://www.topografix.com/GPX/1/1/gpx.xsd" version="1.1" creator="gpx.py -- https://github.com/tkrajina/gpxpy">
  <trk>
    <name>gpx from keep</name>
    <type>Walk</type>
    <trkseg>
      <trkpt lat="25.05502068652775" lon="102.71378957982643">
        <ele>1864.46337890625</ele>
        <time>2026-08-03T06:50:47Z</time>
        <extensions>
          <gpxtpx:TrackPointExtension>
            <gpxtpx:hr>95</gpxtpx:hr>
          </gpxtpx:TrackPointExtension>
        </extensions>
      </trkpt>
      <trkpt lat="25.054868732719033" lon="102.71376562763723">
        <ele>1864.44287109375</ele>
        <time>2026-08-03T06:51:05Z</time>
        <extensions>
          <gpxtpx:TrackPointExtension>
            <gpxtpx:hr>94</gpxtpx:hr>
          </gpxtpx:TrackPointExtension>
        </extensions>
      </trkpt>
      <trkpt lat="25.054840797231734" lon="102.7137157188425">
        <ele>1865.103515625</ele>
        <time>2026-08-03T06:51:20Z</time>
        <extensions>
          <gpxtpx:TrackPointExtension>
            <gpxtpx:hr>90</gpxtpx:hr>
          </gpxtpx:TrackPointExtension>
        </extensions>
      </trkpt>
      <trkpt lat="25.054848887401057" lon="102.71364185251925">
        <ele>1867.28173828125</ele>
        <time>2026-08-03T06:51:32Z</time>
        <extensions>
          <gpxtpx:TrackPointExtension>
            <gpxtpx:hr>91</gpxtpx:hr>
          </gpxtpx:TrackPointExtension>
        </extensions>
      </trkpt>
      <trkpt lat="25.054837956388276" lon="102.71358695247929">
        <ele>1868.422607421875</ele>
        <time>2026-08-03T06:51:38Z</time>
        <extensions>
          <gpxtpx:TrackPointExtension>
            <gpxtpx:hr>93</gpxtpx:hr>
          </gpxtpx:TrackPointExtension>
        </extensions>
      </trkpt>
      <trkpt lat="25.054774005378118" lon="102.71355301599499">
        <ele>1862.6845703125</ele>
        <time>2026-08-03T06:51:47Z</time>
        <extensions>
          <gpxtpx:TrackPointExtension>
            <gpxtpx:hr>95</gpxtpx:hr>
          </gpxtpx:TrackPointExtension>
        </extensions>
      </trkpt>
      <trkpt lat="25.054679955297054" lon="102.71360192992483">
        <ele>1859.478759765625</ele>
        <time>2026-08-03T06:51:59Z</time>
        <extensions>
          <gpxtpx:TrackPointExtension>
            <gpxtpx:hr>100</gpxtpx:hr>
          </gpxtpx:TrackPointExtension>
        </extensions>
      </trkpt>
      <trkpt lat="25.05462596124659" lon="102.71360193150679">
        <ele>1862.63916015625</ele>
        <time>2026-08-03T06:52:08Z</time>
        <extensions>
          <gpxtpx:TrackPointExtension>
            <gpxtpx:hr>100</gpxtpx:hr>
          </gpxtpx:TrackPointExtension>
        </extensions>
      </trkpt>
      <trkpt lat="25.05450993952767" lon="102.71362988418183">
        <ele>1861.2470703125</ele>
        <time>2026-08-03T06:52:53Z</time>
        <extensions>
          <gpxtpx:TrackPointExtension>
            <gpxtpx:hr>92</gpxtpx:hr>
          </gpxtpx:TrackPointExtension>
        </extensions>
      </trkpt>
      <trkpt lat="25.05435198898577" lon="102.71360393590987">
        <ele>1862.5849609375</ele>
        <time>2026-08-03T06:53:11Z</time>
        <extensions>
          <gpxtpx:TrackPointExtension>
            <gpxtpx:hr>86</gpxtpx:hr>
          </gpxtpx:TrackPointExtension>
        </extensions>
      </trkpt>
      <trkpt lat="25.054316042283464" lon="102.71356400946557">
        <ele>1863.751220703125</ele>
        <time>2026-08-03T06:53:20Z</time>
        <extensions>
          <gpxtpx:TrackPointExtension>
            <gpxtpx:hr>87</gpxtpx:hr>
          </gpxtpx:TrackPointExtension>
        </extensions>
      </trkpt>
      <trkpt lat="25.054269028964622" lon="102.71357898364876">
        <ele>1863.7412109375</ele>
        <time>2026-08-03T06:53:26Z</time>
        <extensions>
          <gpxtpx:TrackPointExtension>
            <gpxtpx:hr>88</gpxtpx:hr>
          </gpxtpx:TrackPointExtension>
        </extensions>
      </trkpt>
      <trkpt lat="25.05423007521709" lon="102.71354504644012">
        <ele>1866.578369140625</ele>
        <time>2026-08-03T06:53:38Z</time>
        <extensions>
          <gpxtpx:TrackPointExtension>
            <gpxtpx:hr>90</gpxtpx:hr>
          </gpxtpx:TrackPointExtension>
        </extensions>
      </trkpt>
      <trkpt lat="25.05405908298061" lon="102.71355403512719">
        <ele>1868.680908203125</ele>
        <time>2026-08-03T06:53:56Z</time>
        <extensions>
          <gpxtpx:TrackPointExtension>
            <gpxtpx:hr>92</gpxtpx:hr>
          </gpxtpx:TrackPointExtension>
        </extensions>
      </trkpt>
      <trkpt lat="25.053960170478263" lon="102.71349215051988">
        <ele>1874.337890625</ele>
        <time>2026-08-03T06:54:08Z</time>
        <extensions>
          <gpxtpx:TrackPointExtension>
            <gpxtpx:hr>95</gpxtpx:hr>
          </gpxtpx:TrackPointExtension>
        </extensions>
      </trkpt>
      <trkpt lat="25.05390917611032" lon="102.71349215201384">
        <ele>1874.87548828125</ele>
        <time>2026-08-03T06:54:14Z</time>
        <extensions>
          <gpxtpx:TrackPointExtension>
            <gpxtpx:hr>95</gpxtpx:hr>
          </gpxtpx:TrackPointExtension>
        </extensions>
      </trkpt>
      <trkpt lat="25.053808194682425" lon="102.71348616586508">
        <ele>1876.45361328125</ele>
        <time>2026-08-03T06:54:26Z</time>
        <extensions>
          <gpxtpx:TrackPointExtension>
            <gpxtpx:hr>96</gpxtpx:hr>
          </gpxtpx:TrackPointExtension>
        </extensions>
      </trkpt>
      <trkpt lat="25.053610248710694" lon="102.71346021887916">
        <ele>1869.165283203125</ele>
        <time>2026-08-03T06:54:59Z</time>
        <extensions>
          <gpxtpx:TrackPointExtension>
            <gpxtpx:hr>99</gpxtpx:hr>
          </gpxtpx:TrackPointExtension>
        </extensions>
      </trkpt>
      <trkpt lat="25.053549240615325" lon="102.71347219887231">
        <ele>1869.197998046875</ele>
        <time>2026-08-03T06:55:05Z</time>
        <extensions>
          <gpxtpx:TrackPointExtension>
            <gpxtpx:hr>99</gpxtpx:hr>
          </gpxtpx:TrackPointExtension>
        </extensions>
      </trkpt>
      <trkpt lat="25.05325130821246" lon="102.71344425846014">
        <ele>1871.24853515625</ele>
        <time>2026-08-03T06:55:38Z</time>
        <extensions>
          <gpxtpx:TrackPointExtension>
            <gpxtpx:hr>97</gpxtpx:hr>
          </gpxtpx:TrackPointExtension>
        </extensions>
      </trkpt>
      <trkpt lat="25.05299633149707" lon="102.71344825866255">
        <ele>1871.850341796875</ele>
        <time>2026-08-03T06:56:08Z</time>
        <extensions>
          <gpxtpx:TrackPointExtension>
            <gpxtpx:hr>96</gpxtpx:hr>
          </gpxtpx:TrackPointExtension>
        </extensions>
      </trkpt>
      <trkpt lat="25.052948356612163" lon="102.71343228913942">
        <ele>1871.8623046875</ele>
        <time>2026-08-03T06:56:14Z</time>
        <extensions>
          <gpxtpx:TrackPointExtension>
            <gpxtpx:hr>98</gpxtpx:hr>
          </gpxtpx:TrackPointExtension>
        </extensions>
      </trkpt>
      <trkpt lat="25.05297977190115" lon="102.71309590235799">
        <ele>1871.96484375</ele>
        <time>2026-08-03T06:56:59Z</time>
        <extensions>
          <gpxtpx:TrackPointExtension>
            <gpxtpx:hr>99</gpxtpx:hr>
          </gpxtpx:TrackPointExtension>
        </extensions>
      </trkpt>
      <trkpt lat="25.05297090653387" lon="102.71298909833672">
        <ele>1873.6728515625</ele>
        <time>2026-08-03T06:57:17Z</time>
        <extensions>
          <gpxtpx:TrackPointExtension>
            <gpxtpx:hr>98</gpxtpx:hr>
          </gpxtpx:TrackPointExtension>
        </extensions>
      </trkpt>
      <trkpt lat="25.052951031434873" lon="102.7128912784813">
        <ele>1876.65771484375</ele>
        <time>2026-08-03T06:57:50Z</time>
        <extensions>
          <gpxtpx:TrackPointExtension>
            <gpxtpx:hr>90</gpxtpx:hr>
          </gpxtpx:TrackPointExtension>
        </extensions>
      </trkpt>
      <trkpt lat="25.05296517671798" lon="102.71277449282479">
        <ele>1878.992431640625</ele>
        <time>2026-08-03T06:58:02Z</time>
        <extensions>
          <gpxtpx:TrackPointExtension>
            <gpxtpx:hr>89</gpxtpx:hr>
          </gpxtpx:TrackPointExtension>
        </extensions>
      </trkpt>
      <trkpt lat="25.052957256831824" lon="102.71271160886748">
        <ele>1879.8154296875</ele>
        <time>2026-08-03T06:58:08Z</time>
        <extensions>
          <gpxtpx:TrackPointExtension>
            <gpxtpx:hr>89</gpxtpx:hr>
          </gpxtpx:TrackPointExtension>
        </extensions>
      </trkpt>
      <trkpt lat="25.052968481342454" lon="102.71253293824401">
        <ele>1878.70166015625</ele>
        <time>2026-08-03T06:58:26Z</time>
        <extensions>
          <gpxtpx:TrackPointExtension>
            <gpxtpx:hr>95</gpxtpx:hr>
          </gpxtpx:TrackPointExtension>
        </extensions>
      </trkpt>
      <trkpt lat="25.05301261184039" lon="102.7124261345004">
        <ele>1883.97509765625</ele>
        <time>2026-08-03T06:58:44Z</time>
        <extensions>
          <gpxtpx:TrackPointExtension>
            <gpxtpx:hr>98</gpxtpx:hr>
          </gpxtpx:TrackPointExtension>
        </extensions>
      </trkpt>
      <trkpt lat="25.053001858061233" lon="102.71223349201296">
        <ele>1890.02734375</ele>
        <time>2026-08-03T06:59:08Z</time>
        <extensions>
          <gpxtpx:TrackPointExtension>
            <gpxtpx:hr>100</gpxtpx:hr>
          </gpxtpx:TrackPointExtension>
        </extensions>
      </trkpt>
      <trkpt lat="25.052968921541257" lon="102.71218658013261">
        <ele>1892.18115234375</ele>
        <time>2026-08-03T06:59:14Z</time>
        <extensions>
          <gpxtpx:TrackPointExtension>
            <gpxtpx:hr>99</gpxtpx:hr>
          </gpxtpx:TrackPointExtension>
        </extensions>
      </trkpt>
      <trkpt lat="25.052948121607294" lon="102.71203186863822">
        <ele>1896.06982421875</ele>
        <time>2026-08-03T06:59:32Z</time>
        <extensions>
          <gpxtpx:TrackPointExtension>
            <gpxtpx:hr>99</gpxtpx:hr>
          </gpxtpx:TrackPointExtension>
        </extensions>
      </trkpt>
      <trkpt lat="25.05302924313304" lon="102.71193005611052">
        <ele>1893.161376953125</ele>
        <time>2026-08-03T06:59:47Z</time>
        <extensions>
          <gpxtpx:TrackPointExtension>
            <gpxtpx:hr>100</gpxtpx:hr>
          </gpxtpx:TrackPointExtension>
        </extensions>
      </trkpt>
      <trkpt lat="25.0530916101888" lon="102.71163959761245">
        <ele>1891.7197265625</ele>
        <time>2026-08-03T07:00:29Z</time>
        <extensions>
          <gpxtpx:TrackPointExtension>
            <gpxtpx:hr>101</gpxtpx:hr>
          </gpxtpx:TrackPointExtension>
        </extensions>
      </trkpt>
      <trkpt lat="25.053105921416723" lon="102.71139805094845">
        <ele>1886.96484375</ele>
        <time>2026-08-03T07:00:59Z</time>
        <extensions>
          <gpxtpx:TrackPointExtension>
            <gpxtpx:hr>85</gpxtpx:hr>
          </gpxtpx:TrackPointExtension>
        </extensions>
      </trkpt>
      <trkpt lat="25.05309700670433" lon="102.71133317338084">
        <ele>1889.93994140625</ele>
        <time>2026-08-03T07:01:08Z</time>
        <extensions>
          <gpxtpx:TrackPointExtension>
            <gpxtpx:hr>86</gpxtpx:hr>
          </gpxtpx:TrackPointExtension>
        </extensions>
      </trkpt>
      <trkpt lat="25.053101150478465" lon="102.71122238217917">
        <ele>1891.3271484375</ele>
        <time>2026-08-03T07:01:26Z</time>
        <extensions>
          <gpxtpx:TrackPointExtension>
            <gpxtpx:hr>93</gpxtpx:hr>
          </gpxtpx:TrackPointExtension>
        </extensions>
      </trkpt>
      <trkpt lat="25.053130227971334" lon="102.71116049818026">
        <ele>1887.38232421875</ele>
        <time>2026-08-03T07:01:32Z</time>
        <extensions>
          <gpxtpx:TrackPointExtension>
            <gpxtpx:hr>95</gpxtpx:hr>
          </gpxtpx:TrackPointExtension>
        </extensions>
      </trkpt>
      <trkpt lat="25.053130306174086" lon="102.71110061136811">
        <ele>1885.6005859375</ele>
        <time>2026-08-03T07:02:02Z</time>
        <extensions>
          <gpxtpx:TrackPointExtension>
            <gpxtpx:hr>93</gpxtpx:hr>
          </gpxtpx:TrackPointExtension>
        </extensions>
      </trkpt>
      <trkpt lat="25.053185730680752" lon="102.71077223228325">
        <ele>1889.0673828125</ele>
        <time>2026-08-03T07:02:53Z</time>
        <extensions>
          <gpxtpx:TrackPointExtension>
            <gpxtpx:hr>95</gpxtpx:hr>
          </gpxtpx:TrackPointExtension>
        </extensions>
      </trkpt>
      <trkpt lat="25.05318595567326" lon="102.71060155709387">
        <ele>1891.7021484375</ele>
        <time>2026-08-03T07:03:14Z</time>
        <extensions>
          <gpxtpx:TrackPointExtension>
            <gpxtpx:hr>92</gpxtpx:hr>
          </gpxtpx:TrackPointExtension>
        </extensions>
      </trkpt>
      <trkpt lat="25.05323411137576" lon="102.71047978794665">
        <ele>1889.7333984375</ele>
        <time>2026-08-03T07:03:29Z</time>
        <extensions>
          <gpxtpx:TrackPointExtension>
            <gpxtpx:hr>88</gpxtpx:hr>
          </gpxtpx:TrackPointExtension>
        </extensions>
      </trkpt>
      <trkpt lat="25.053239349136128" lon="102.71030013126281">
        <ele>1888.68896484375</ele>
        <time>2026-08-03T07:03:56Z</time>
        <extensions>
          <gpxtpx:TrackPointExtension>
            <gpxtpx:hr>87</gpxtpx:hr>
          </gpxtpx:TrackPointExtension>
        </extensions>
      </trkpt>
      <trkpt lat="25.053263420803912" lon="102.7102442376073">
        <ele>1889.378662109375</ele>
        <time>2026-08-03T07:04:05Z</time>
        <extensions>
          <gpxtpx:TrackPointExtension>
            <gpxtpx:hr>89</gpxtpx:hr>
          </gpxtpx:TrackPointExtension>
        </extensions>
      </trkpt>
      <trkpt lat="25.05324148302576" lon="102.71019932433556">
        <ele>1892.331787109375</ele>
        <time>2026-08-03T07:04:20Z</time>
        <extensions>
          <gpxtpx:TrackPointExtension>
            <gpxtpx:hr>95</gpxtpx:hr>
          </gpxtpx:TrackPointExtension>
        </extensions>
      </trkpt>
      <trkpt lat="25.053278618650154" lon="102.71009452434593">
        <ele>1889.456787109375</ele>
        <time>2026-08-03T07:04:38Z</time>
        <extensions>
          <gpxtpx:TrackPointExtension>
            <gpxtpx:hr>86</gpxtpx:hr>
          </gpxtpx:TrackPointExtension>
        </extensions>
      </trkpt>
      <trkpt lat="25.05327668817762" lon="102.71004262411057">
        <ele>1888.3154296875</ele>
        <time>2026-08-03T07:04:47Z</time>
        <extensions>
          <gpxtpx:TrackPointExtension>
            <gpxtpx:hr>94</gpxtpx:hr>
          </gpxtpx:TrackPointExtension>
        </extensions>
      </trkpt>
      <trkpt lat="25.05330689857134" lon="102.7098829305094">
        <ele>1885.629638671875</ele>
        <time>2026-08-03T07:05:05Z</time>
        <extensions>
          <gpxtpx:TrackPointExtension>
            <gpxtpx:hr>91</gpxtpx:hr>
          </gpxtpx:TrackPointExtension>
        </extensions>
      </trkpt>
      <trkpt lat="25.053318137273845" lon="102.70970427482293">
        <ele>1884.793212890625</ele>
        <time>2026-08-03T07:05:26Z</time>
        <extensions>
          <gpxtpx:TrackPointExtension>
            <gpxtpx:hr>90</gpxtpx:hr>
          </gpxtpx:TrackPointExtension>
        </extensions>
      </trkpt>
      <trkpt lat="25.05335830629145" lon="102.70957552258999">
        <ele>1884.44775390625</ele>
        <time>2026-08-03T07:05:44Z</time>
        <extensions>
          <gpxtpx:TrackPointExtension>
            <gpxtpx:hr>93</gpxtpx:hr>
          </gpxtpx:TrackPointExtension>
        </extensions>
      </trkpt>
      <trkpt lat="25.05337070870924" lon="102.70927710105275">
        <ele>1883.56982421875</ele>
        <time>2026-08-03T07:06:20Z</time>
        <extensions>
          <gpxtpx:TrackPointExtension>
            <gpxtpx:hr>93</gpxtpx:hr>
          </gpxtpx:TrackPointExtension>
        </extensions>
      </trkpt>
      <trkpt lat="25.0534150378282" lon="102.70903157788099">
        <ele>1885.5546875</ele>
        <time>2026-08-03T07:06:53Z</time>
        <extensions>
          <gpxtpx:TrackPointExtension>
            <gpxtpx:hr>90</gpxtpx:hr>
          </gpxtpx:TrackPointExtension>
        </extensions>
      </trkpt>
      <trkpt lat="25.053413306681097" lon="102.70883496204948">
        <ele>1886.9814453125</ele>
        <time>2026-08-03T07:07:11Z</time>
        <extensions>
          <gpxtpx:TrackPointExtension>
            <gpxtpx:hr>68</gpxtpx:hr>
          </gpxtpx:TrackPointExtension>
        </extensions>
      </trkpt>
      <trkpt lat="25.05343644500222" lon="102.70873216264049">
        <ele>1887.18896484375</ele>
        <time>2026-08-03T07:07:23Z</time>
        <extensions>
          <gpxtpx:TrackPointExtension>
            <gpxtpx:hr>68</gpxtpx:hr>
          </gpxtpx:TrackPointExtension>
        </extensions>
      </trkpt>
      <trkpt lat="25.053402618723606" lon="102.70860840632496">
        <ele>1890.2705078125</ele>
        <time>2026-08-03T07:07:35Z</time>
        <extensions>
          <gpxtpx:TrackPointExtension>
            <gpxtpx:hr>67</gpxtpx:hr>
          </gpxtpx:TrackPointExtension>
        </extensions>
      </trkpt>
      <trkpt lat="25.053422682412304" lon="102.70856049980101">
        <ele>1893.172119140625</ele>
        <time>2026-08-03T07:07:41Z</time>
        <extensions>
          <gpxtpx:TrackPointExtension>
            <gpxtpx:hr>67</gpxtpx:hr>
          </gpxtpx:TrackPointExtension>
        </extensions>
      </trkpt>
      <trkpt lat="25.05341175784089" lon="102.70850660601701">
        <ele>1890.43505859375</ele>
        <time>2026-08-03T07:07:56Z</time>
        <extensions>
          <gpxtpx:TrackPointExtension>
            <gpxtpx:hr>72</gpxtpx:hr>
          </gpxtpx:TrackPointExtension>
        </extensions>
      </trkpt>
      <trkpt lat="25.053438023595902" lon="102.70831198833085">
        <ele>1890.223388671875</ele>
        <time>2026-08-03T07:08:20Z</time>
        <extensions>
          <gpxtpx:TrackPointExtension>
            <gpxtpx:hr>78</gpxtpx:hr>
          </gpxtpx:TrackPointExtension>
        </extensions>
      </trkpt>
      <trkpt lat="25.053418105902736" lon="102.70825410305855">
        <ele>1889.3544921875</ele>
        <time>2026-08-03T07:08:29Z</time>
        <extensions>
          <gpxtpx:TrackPointExtension>
            <gpxtpx:hr>69</gpxtpx:hr>
          </gpxtpx:TrackPointExtension>
        </extensions>
      </trkpt>
      <trkpt lat="25.053482435357424" lon="102.7080115804237">
        <ele>1884.427734375</ele>
        <time>2026-08-03T07:09:08Z</time>
        <extensions>
          <gpxtpx:TrackPointExtension>
            <gpxtpx:hr>73</gpxtpx:hr>
          </gpxtpx:TrackPointExtension>
        </extensions>
      </trkpt>
      <trkpt lat="25.053497745292816" lon="102.70778802319114">
        <ele>1889.37109375</ele>
        <time>2026-08-03T07:09:35Z</time>
        <extensions>
          <gpxtpx:TrackPointExtension>
            <gpxtpx:hr>74</gpxtpx:hr>
          </gpxtpx:TrackPointExtension>
        </extensions>
      </trkpt>
      <trkpt lat="25.053492904929094" lon="102.70767424942593">
        <ele>1890.9755859375</ele>
        <time>2026-08-03T07:09:47Z</time>
        <extensions>
          <gpxtpx:TrackPointExtension>
            <gpxtpx:hr>75</gpxtpx:hr>
          </gpxtpx:TrackPointExtension>
        </extensions>
      </trkpt>
      <trkpt lat="25.05350898982112" lon="102.70761237206871">
        <ele>1892.5185546875</ele>
        <time>2026-08-03T07:09:53Z</time>
        <extensions>
          <gpxtpx:TrackPointExtension>
            <gpxtpx:hr>75</gpxtpx:hr>
          </gpxtpx:TrackPointExtension>
        </extensions>
      </trkpt>
      <trkpt lat="25.053505159681208" lon="102.70749161275079">
        <ele>1897.111083984375</ele>
        <time>2026-08-03T07:10:05Z</time>
        <extensions>
          <gpxtpx:TrackPointExtension>
            <gpxtpx:hr>75</gpxtpx:hr>
          </gpxtpx:TrackPointExtension>
        </extensions>
      </trkpt>
      <trkpt lat="25.05349023005546" lon="102.70744271072122">
        <ele>1895.5634765625</ele>
        <time>2026-08-03T07:10:11Z</time>
        <extensions>
          <gpxtpx:TrackPointExtension>
            <gpxtpx:hr>73</gpxtpx:hr>
          </gpxtpx:TrackPointExtension>
        </extensions>
      </trkpt>
      <trkpt lat="25.053445250466783" lon="102.70743173393895">
        <ele>1895.7109375</ele>
        <time>2026-08-03T07:10:14Z</time>
        <extensions>
          <gpxtpx:TrackPointExtension>
            <gpxtpx:hr>73</gpxtpx:hr>
          </gpxtpx:TrackPointExtension>
        </extensions>
      </trkpt>
      <trkpt lat="25.053383407624104" lon="102.70732494898698">
        <ele>1900.18798828125</ele>
        <time>2026-08-03T07:10:44Z</time>
        <extensions>
          <gpxtpx:TrackPointExtension>
            <gpxtpx:hr>85</gpxtpx:hr>
          </gpxtpx:TrackPointExtension>
        </extensions>
      </trkpt>
      <trkpt lat="25.053397583443168" lon="102.70719920007953">
        <ele>1890.684814453125</ele>
        <time>2026-08-03T07:11:02Z</time>
        <extensions>
          <gpxtpx:TrackPointExtension>
            <gpxtpx:hr>81</gpxtpx:hr>
          </gpxtpx:TrackPointExtension>
        </extensions>
      </trkpt>
      <trkpt lat="25.053357630159184" lon="102.70716926119168">
        <ele>1888.796630859375</ele>
        <time>2026-08-03T07:11:11Z</time>
        <extensions>
          <gpxtpx:TrackPointExtension>
            <gpxtpx:hr>75</gpxtpx:hr>
          </gpxtpx:TrackPointExtension>
        </extensions>
      </trkpt>
      <trkpt lat="25.05334172928653" lon="102.70710039962364">
        <ele>1887.869873046875</ele>
        <time>2026-08-03T07:11:17Z</time>
        <extensions>
          <gpxtpx:TrackPointExtension>
            <gpxtpx:hr>75</gpxtpx:hr>
          </gpxtpx:TrackPointExtension>
        </extensions>
      </trkpt>
      <trkpt lat="25.053383037400295" lon="102.70687984117927">
        <ele>1884.25732421875</ele>
        <time>2026-08-03T07:11:35Z</time>
        <extensions>
          <gpxtpx:TrackPointExtension>
            <gpxtpx:hr>93</gpxtpx:hr>
          </gpxtpx:TrackPointExtension>
        </extensions>
      </trkpt>
      <trkpt lat="25.05323828484442" lon="102.7067171728066">
        <ele>1891.7724609375</ele>
        <time>2026-08-03T07:12:02Z</time>
        <extensions>
          <gpxtpx:TrackPointExtension>
            <gpxtpx:hr>89</gpxtpx:hr>
          </gpxtpx:TrackPointExtension>
        </extensions>
      </trkpt>
      <trkpt lat="25.053192335443878" lon="102.7066852385065">
        <ele>1885.8310546875</ele>
        <time>2026-08-03T07:12:14Z</time>
        <extensions>
          <gpxtpx:TrackPointExtension>
            <gpxtpx:hr>85</gpxtpx:hr>
          </gpxtpx:TrackPointExtension>
        </extensions>
      </trkpt>
      <trkpt lat="25.053144345025274" lon="102.70668224594206">
        <ele>1884.1875</ele>
        <time>2026-08-03T07:12:23Z</time>
        <extensions>
          <gpxtpx:TrackPointExtension>
            <gpxtpx:hr>83</gpxtpx:hr>
          </gpxtpx:TrackPointExtension>
        </extensions>
      </trkpt>
      <trkpt lat="25.053047548050298" lon="102.70654752059285">
        <ele>1882.113525390625</ele>
        <time>2026-08-03T07:12:47Z</time>
        <extensions>
          <gpxtpx:TrackPointExtension>
            <gpxtpx:hr>78</gpxtpx:hr>
          </gpxtpx:TrackPointExtension>
        </extensions>
      </trkpt>
      <trkpt lat="25.053023664873585" lon="102.70646768260121">
        <ele>1884.056640625</ele>
        <time>2026-08-03T07:12:56Z</time>
        <extensions>
          <gpxtpx:TrackPointExtension>
            <gpxtpx:hr>78</gpxtpx:hr>
          </gpxtpx:TrackPointExtension>
        </extensions>
      </trkpt>
      <trkpt lat="25.0529697079935" lon="102.70644173663851">
        <ele>1882.79052734375</ele>
        <time>2026-08-03T07:13:08Z</time>
        <extensions>
          <gpxtpx:TrackPointExtension>
            <gpxtpx:hr>80</gpxtpx:hr>
          </gpxtpx:TrackPointExtension>
        </extensions>
      </trkpt>
      <trkpt lat="25.052971825014264" lon="102.70635990215432">
        <ele>1879.04736328125</ele>
        <time>2026-08-03T07:13:14Z</time>
        <extensions>
          <gpxtpx:TrackPointExtension>
            <gpxtpx:hr>82</gpxtpx:hr>
          </gpxtpx:TrackPointExtension>
        </extensions>
      </trkpt>
      <trkpt lat="25.052916081999772" lon="102.7061852577439">
        <ele>1872.091552734375</ele>
        <time>2026-08-03T07:13:32Z</time>
        <extensions>
          <gpxtpx:TrackPointExtension>
            <gpxtpx:hr>85</gpxtpx:hr>
          </gpxtpx:TrackPointExtension>
        </extensions>
      </trkpt>
      <trkpt lat="25.05296308253421" lon="102.70618126447278">
        <ele>1867.4111328125</ele>
        <time>2026-08-03T07:13:35Z</time>
        <extensions>
          <gpxtpx:TrackPointExtension>
            <gpxtpx:hr>85</gpxtpx:hr>
          </gpxtpx:TrackPointExtension>
        </extensions>
      </trkpt>
      <trkpt lat="25.05296017621769" lon="102.70611639624289">
        <ele>1865.48974609375</ele>
        <time>2026-08-03T07:14:29Z</time>
        <extensions>
          <gpxtpx:TrackPointExtension>
            <gpxtpx:hr>96</gpxtpx:hr>
          </gpxtpx:TrackPointExtension>
        </extensions>
      </trkpt>
      <trkpt lat="25.05287239315505" lon="102.70597269093413">
        <ele>1866.29638671875</ele>
        <time>2026-08-03T07:14:41Z</time>
        <extensions>
          <gpxtpx:TrackPointExtension>
            <gpxtpx:hr>91</gpxtpx:hr>
          </gpxtpx:TrackPointExtension>
        </extensions>
      </trkpt>
      <trkpt lat="25.052845512919124" lon="102.70589185628134">
        <ele>1870.251708984375</ele>
        <time>2026-08-03T07:14:47Z</time>
        <extensions>
          <gpxtpx:TrackPointExtension>
            <gpxtpx:hr>91</gpxtpx:hr>
          </gpxtpx:TrackPointExtension>
        </extensions>
      </trkpt>
      <trkpt lat="25.052786575740182" lon="102.70585293729597">
        <ele>1872.4404296875</ele>
        <time>2026-08-03T07:14:53Z</time>
        <extensions>
          <gpxtpx:TrackPointExtension>
            <gpxtpx:hr>94</gpxtpx:hr>
          </gpxtpx:TrackPointExtension>
        </extensions>
      </trkpt>
      <trkpt lat="25.0527315933865" lon="102.70584495517038">
        <ele>1873.737060546875</ele>
        <time>2026-08-03T07:14:59Z</time>
        <extensions>
          <gpxtpx:TrackPointExtension>
            <gpxtpx:hr>94</gpxtpx:hr>
          </gpxtpx:TrackPointExtension>
        </extensions>
      </trkpt>
      <trkpt lat="25.05264884405653" lon="102.7056782976166">
        <ele>1868.396728515625</ele>
        <time>2026-08-03T07:15:23Z</time>
        <extensions>
          <gpxtpx:TrackPointExtension>
            <gpxtpx:hr>90</gpxtpx:hr>
          </gpxtpx:TrackPointExtension>
        </extensions>
      </trkpt>
      <trkpt lat="25.052552053424105" lon="102.70554157993213">
        <ele>1871.78271484375</ele>
        <time>2026-08-03T07:15:44Z</time>
        <extensions>
          <gpxtpx:TrackPointExtension>
            <gpxtpx:hr>90</gpxtpx:hr>
          </gpxtpx:TrackPointExtension>
        </extensions>
      </trkpt>
      <trkpt lat="25.052511326908892" lon="102.70535695931174">
        <ele>1866.9951171875</ele>
        <time>2026-08-03T07:16:08Z</time>
        <extensions>
          <gpxtpx:TrackPointExtension>
            <gpxtpx:hr>93</gpxtpx:hr>
          </gpxtpx:TrackPointExtension>
        </extensions>
      </trkpt>
      <trkpt lat="25.052532419272154" lon="102.70529209178572">
        <ele>1869.12939453125</ele>
        <time>2026-08-03T07:16:14Z</time>
        <extensions>
          <gpxtpx:TrackPointExtension>
            <gpxtpx:hr>92</gpxtpx:hr>
          </gpxtpx:TrackPointExtension>
        </extensions>
      </trkpt>
      <trkpt lat="25.052450645828163" lon="102.70514339966299">
        <ele>1864.08447265625</ele>
        <time>2026-08-03T07:16:38Z</time>
        <extensions>
          <gpxtpx:TrackPointExtension>
            <gpxtpx:hr>94</gpxtpx:hr>
          </gpxtpx:TrackPointExtension>
        </extensions>
      </trkpt>
      <trkpt lat="25.052400606087993" lon="102.70517433751579">
        <ele>1863.5048828125</ele>
        <time>2026-08-03T07:16:54Z</time>
        <extensions>
          <gpxtpx:TrackPointExtension>
            <gpxtpx:hr>97</gpxtpx:hr>
          </gpxtpx:TrackPointExtension>
        </extensions>
      </trkpt>
      <trkpt lat="25.052349547508527" lon="102.70521824876741">
        <ele>1861.96484375</ele>
        <time>2026-08-03T07:17:12Z</time>
        <extensions>
          <gpxtpx:TrackPointExtension>
            <gpxtpx:hr>98</gpxtpx:hr>
          </gpxtpx:TrackPointExtension>
        </extensions>
      </trkpt>
      <trkpt lat="25.052269518451553" lon="102.70524419780243">
        <ele>1861.00634765625</ele>
        <time>2026-08-03T07:17:18Z</time>
        <extensions>
          <gpxtpx:TrackPointExtension>
            <gpxtpx:hr>98</gpxtpx:hr>
          </gpxtpx:TrackPointExtension>
        </extensions>
      </trkpt>
      <trkpt lat="25.052043527504953" lon="102.70525518184762">
        <ele>1862.99560546875</ele>
        <time>2026-08-03T07:17:48Z</time>
        <extensions>
          <gpxtpx:TrackPointExtension>
            <gpxtpx:hr>99</gpxtpx:hr>
          </gpxtpx:TrackPointExtension>
        </extensions>
      </trkpt>
      <trkpt lat="25.051830684004717" lon="102.70516437464751">
        <ele>1865.490478515625</ele>
        <time>2026-08-03T07:18:21Z</time>
        <extensions>
          <gpxtpx:TrackPointExtension>
            <gpxtpx:hr>109</gpxtpx:hr>
          </gpxtpx:TrackPointExtension>
        </extensions>
      </trkpt>
      <trkpt lat="25.051746794196436" lon="102.705095518719">
        <ele>1869.19873046875</ele>
        <time>2026-08-03T07:18:36Z</time>
        <extensions>
          <gpxtpx:TrackPointExtension>
            <gpxtpx:hr>108</gpxtpx:hr>
          </gpxtpx:TrackPointExtension>
        </extensions>
      </trkpt>
      <trkpt lat="25.05169082528977" lon="102.7050785552628">
        <ele>1870.823486328125</ele>
        <time>2026-08-03T07:18:48Z</time>
        <extensions>
          <gpxtpx:TrackPointExtension>
            <gpxtpx:hr>101</gpxtpx:hr>
          </gpxtpx:TrackPointExtension>
        </extensions>
      </trkpt>
      <trkpt lat="25.051647784734573" lon="102.70510949285998">
        <ele>1869.71044921875</ele>
        <time>2026-08-03T07:19:00Z</time>
        <extensions>
          <gpxtpx:TrackPointExtension>
            <gpxtpx:hr>96</gpxtpx:hr>
          </gpxtpx:TrackPointExtension>
        </extensions>
      </trkpt>
      <trkpt lat="25.051559894006292" lon="102.70504163509067">
        <ele>1869.5693359375</ele>
        <time>2026-08-03T07:19:27Z</time>
        <extensions>
          <gpxtpx:TrackPointExtension>
            <gpxtpx:hr>99</gpxtpx:hr>
          </gpxtpx:TrackPointExtension>
        </extensions>
      </trkpt>
      <trkpt lat="25.051592063345986" lon="102.70492387680056">
        <ele>1871.1435546875</ele>
        <time>2026-08-03T07:19:45Z</time>
        <extensions>
          <gpxtpx:TrackPointExtension>
            <gpxtpx:hr>99</gpxtpx:hr>
          </gpxtpx:TrackPointExtension>
        </extensions>
      </trkpt>
      <trkpt lat="25.05175943136039" lon="102.70466141402169">
        <ele>1870.78271484375</ele>
        <time>2026-08-03T07:20:27Z</time>
        <extensions>
          <gpxtpx:TrackPointExtension>
            <gpxtpx:hr>109</gpxtpx:hr>
          </gpxtpx:TrackPointExtension>
        </extensions>
      </trkpt>
      <trkpt lat="25.051818570759675" lon="102.7045626168155">
        <ele>1869.868408203125</ele>
        <time>2026-08-03T07:20:45Z</time>
        <extensions>
          <gpxtpx:TrackPointExtension>
            <gpxtpx:hr>106</gpxtpx:hr>
          </gpxtpx:TrackPointExtension>
        </extensions>
      </trkpt>
      <trkpt lat="25.051992894398644" lon="102.70433109198316">
        <ele>1865.474853515625</ele>
        <time>2026-08-03T07:21:39Z</time>
        <extensions>
          <gpxtpx:TrackPointExtension>
            <gpxtpx:hr>100</gpxtpx:hr>
          </gpxtpx:TrackPointExtension>
        </extensions>
      </trkpt>
      <trkpt lat="25.05212514227852" lon="102.70415445544053">
        <ele>1867.61669921875</ele>
        <time>2026-08-03T07:22:15Z</time>
        <extensions>
          <gpxtpx:TrackPointExtension>
            <gpxtpx:hr>103</gpxtpx:hr>
          </gpxtpx:TrackPointExtension>
        </extensions>
      </trkpt>
      <trkpt lat="25.052313560650866" lon="102.70386006388486">
        <ele>1867.239501953125</ele>
        <time>2026-08-03T07:24:00Z</time>
        <extensions>
          <gpxtpx:TrackPointExtension>
            <gpxtpx:hr>100</gpxtpx:hr>
          </gpxtpx:TrackPointExtension>
        </extensions>
      </trkpt>
      <trkpt lat="25.052464902781463" lon="102.70362056055073">
        <ele>1866.44384765625</ele>
        <time>2026-08-03T07:24:45Z</time>
        <extensions>
          <gpxtpx:TrackPointExtension>
            <gpxtpx:hr>96</gpxtpx:hr>
          </gpxtpx:TrackPointExtension>
        </extensions>
      </trkpt>
      <trkpt lat="25.052510954627763" lon="102.70358263867735">
        <ele>1864.64306640625</ele>
        <time>2026-08-03T07:24:54Z</time>
        <extensions>
          <gpxtpx:TrackPointExtension>
            <gpxtpx:hr>98</gpxtpx:hr>
          </gpxtpx:TrackPointExtension>
        </extensions>
      </trkpt>
      <trkpt lat="25.052549110954477" lon="102.70347586152324">
        <ele>1867.427978515625</ele>
        <time>2026-08-03T07:25:15Z</time>
        <extensions>
          <gpxtpx:TrackPointExtension>
            <gpxtpx:hr>101</gpxtpx:hr>
          </gpxtpx:TrackPointExtension>
        </extensions>
      </trkpt>
      <trkpt lat="25.052610104189082" lon="102.70347585974677">
        <ele>1867.63427734375</ele>
        <time>2026-08-03T07:25:33Z</time>
        <extensions>
          <gpxtpx:TrackPointExtension>
            <gpxtpx:hr>100</gpxtpx:hr>
          </gpxtpx:TrackPointExtension>
        </extensions>
      </trkpt>
      <trkpt lat="25.05271621414784" lon="102.70339502638227">
        <ele>1868.474609375</ele>
        <time>2026-08-03T07:25:48Z</time>
        <extensions>
          <gpxtpx:TrackPointExtension>
            <gpxtpx:hr>105</gpxtpx:hr>
          </gpxtpx:TrackPointExtension>
        </extensions>
      </trkpt>
      <trkpt lat="25.053004343252056" lon="102.70328824244497">
        <ele>1865.45703125</ele>
        <time>2026-08-03T07:26:27Z</time>
        <extensions>
          <gpxtpx:TrackPointExtension>
            <gpxtpx:hr>98</gpxtpx:hr>
          </gpxtpx:TrackPointExtension>
        </extensions>
      </trkpt>
      <trkpt lat="25.053120411769918" lon="102.70323435244771">
        <ele>1867.04541015625</ele>
        <time>2026-08-03T07:26:45Z</time>
        <extensions>
          <gpxtpx:TrackPointExtension>
            <gpxtpx:hr>95</gpxtpx:hr>
          </gpxtpx:TrackPointExtension>
        </extensions>
      </trkpt>
      <trkpt lat="25.053160351584985" lon="102.70327127358851">
        <ele>1868.1259765625</ele>
        <time>2026-08-03T07:26:51Z</time>
        <extensions>
          <gpxtpx:TrackPointExtension>
            <gpxtpx:hr>96</gpxtpx:hr>
          </gpxtpx:TrackPointExtension>
        </extensions>
      </trkpt>
      <trkpt lat="25.05311037821389" lon="102.70325730443841">
        <ele>1866.801513671875</ele>
        <time>2026-08-03T07:27:24Z</time>
        <extensions>
          <gpxtpx:TrackPointExtension>
            <gpxtpx:hr>95</gpxtpx:hr>
          </gpxtpx:TrackPointExtension>
        </extensions>
      </trkpt>
      <trkpt lat="25.053158312645436" lon="102.70329721907076">
        <ele>1860.13916015625</ele>
        <time>2026-08-03T07:28:42Z</time>
        <extensions>
          <gpxtpx:TrackPointExtension>
            <gpxtpx:hr>86</gpxtpx:hr>
          </gpxtpx:TrackPointExtension>
        </extensions>
      </trkpt>
      <trkpt lat="25.05310935723135" lon="102.70327127507359">
        <ele>1853.779052734375</ele>
        <time>2026-08-03T07:29:24Z</time>
        <extensions>
          <gpxtpx:TrackPointExtension>
            <gpxtpx:hr>89</gpxtpx:hr>
          </gpxtpx:TrackPointExtension>
        </extensions>
      </trkpt>
      <trkpt lat="25.053163542767596" lon="102.70314454032226">
        <ele>1859.91796875</ele>
        <time>2026-08-03T07:30:00Z</time>
        <extensions>
          <gpxtpx:TrackPointExtension>
            <gpxtpx:hr>95</gpxtpx:hr>
          </gpxtpx:TrackPointExtension>
        </extensions>
      </trkpt>
      <trkpt lat="25.05324548238234" lon="102.70317846646344">
        <ele>1855.90478515625</ele>
        <time>2026-08-03T07:30:06Z</time>
        <extensions>
          <gpxtpx:TrackPointExtension>
            <gpxtpx:hr>93</gpxtpx:hr>
          </gpxtpx:TrackPointExtension>
        </extensions>
      </trkpt>
      <trkpt lat="25.053270408733425" lon="102.70322536698366">
        <ele>1852.2041015625</ele>
        <time>2026-08-03T07:31:39Z</time>
        <extensions>
          <gpxtpx:TrackPointExtension>
            <gpxtpx:hr>89</gpxtpx:hr>
          </gpxtpx:TrackPointExtension>
        </extensions>
      </trkpt>
      <trkpt lat="25.053254505528226" lon="102.70316249983136">
        <ele>1850.05712890625</ele>
        <time>2026-08-03T07:33:00Z</time>
        <extensions>
          <gpxtpx:TrackPointExtension>
            <gpxtpx:hr>90</gpxtpx:hr>
          </gpxtpx:TrackPointExtension>
        </extensions>
      </trkpt>
      <trkpt lat="25.05323757685122" lon="102.70311659704748">
        <ele>1860.50341796875</ele>
        <time>2026-08-03T07:37:18Z</time>
        <extensions>
          <gpxtpx:TrackPointExtension>
            <gpxtpx:hr>89</gpxtpx:hr>
          </gpxtpx:TrackPointExtension>
        </extensions>
      </trkpt>
      <trkpt lat="25.053213652021196" lon="102.70306869872779">
        <ele>1865.73828125</ele>
        <time>2026-08-03T07:47:15Z</time>
        <extensions>
          <gpxtpx:TrackPointExtension>
            <gpxtpx:hr>78</gpxtpx:hr>
          </gpxtpx:TrackPointExtension>
        </extensions>
      </trkpt>
      <trkpt lat="25.053210749122005" lon="102.70300483354468">
        <ele>1867.33154296875</ele>
        <time>2026-08-03T07:47:33Z</time>
        <extensions>
          <gpxtpx:TrackPointExtension>
            <gpxtpx:hr>80</gpxtpx:hr>
          </gpxtpx:TrackPointExtension>
        </extensions>
      </trkpt>
      <trkpt lat="25.05318684258625" lon="102.70294496064302">
        <ele>1867.8125</ele>
        <time>2026-08-03T07:47:45Z</time>
        <extensions>
          <gpxtpx:TrackPointExtension>
            <gpxtpx:hr>79</gpxtpx:hr>
          </gpxtpx:TrackPointExtension>
        </extensions>
      </trkpt>
      <trkpt lat="25.053152909965448" lon="102.70290305016474">
        <ele>1864.783447265625</ele>
        <time>2026-08-03T07:48:00Z</time>
        <extensions>
          <gpxtpx:TrackPointExtension>
            <gpxtpx:hr>74</gpxtpx:hr>
          </gpxtpx:TrackPointExtension>
        </extensions>
      </trkpt>
      <trkpt lat="25.053103910845174" lon="102.70290604526612">
        <ele>1861.16650390625</ele>
        <time>2026-08-03T07:48:15Z</time>
        <extensions>
          <gpxtpx:TrackPointExtension>
            <gpxtpx:hr>78</gpxtpx:hr>
          </gpxtpx:TrackPointExtension>
        </extensions>
      </trkpt>
      <trkpt lat="25.05306088228069" lon="102.70292800014043">
        <ele>1858.559326171875</ele>
        <time>2026-08-03T07:48:21Z</time>
        <extensions>
          <gpxtpx:TrackPointExtension>
            <gpxtpx:hr>79</gpxtpx:hr>
          </gpxtpx:TrackPointExtension>
        </extensions>
      </trkpt>
      <trkpt lat="25.052989879542714" lon="102.70293498745346">
        <ele>1857.77734375</ele>
        <time>2026-08-03T07:48:30Z</time>
        <extensions>
          <gpxtpx:TrackPointExtension>
            <gpxtpx:hr>80</gpxtpx:hr>
          </gpxtpx:TrackPointExtension>
        </extensions>
      </trkpt>
      <trkpt lat="25.053058935526003" lon="102.70289307398663">
        <ele>1860.55908203125</ele>
        <time>2026-08-03T07:48:42Z</time>
        <extensions>
          <gpxtpx:TrackPointExtension>
            <gpxtpx:hr>84</gpxtpx:hr>
          </gpxtpx:TrackPointExtension>
        </extensions>
      </trkpt>
      <trkpt lat="25.05316894304861" lon="102.70288009819883">
        <ele>1861.27490234375</ele>
        <time>2026-08-03T07:48:54Z</time>
        <extensions>
          <gpxtpx:TrackPointExtension>
            <gpxtpx:hr>88</gpxtpx:hr>
          </gpxtpx:TrackPointExtension>
        </extensions>
      </trkpt>
      <trkpt lat="25.053202875647074" lon="102.70292200865364">
        <ele>1860.7978515625</ele>
        <time>2026-08-03T07:49:00Z</time>
        <extensions>
          <gpxtpx:TrackPointExtension>
            <gpxtpx:hr>88</gpxtpx:hr>
          </gpxtpx:TrackPointExtension>
        </extensions>
      </trkpt>
      <trkpt lat="25.053246720936354" lon="102.7030207988048">
        <ele>1861.58544921875</ele>
        <time>2026-08-03T07:49:12Z</time>
        <extensions>
          <gpxtpx:TrackPointExtension>
            <gpxtpx:hr>88</gpxtpx:hr>
          </gpxtpx:TrackPointExtension>
        </extensions>
      </trkpt>
      <trkpt lat="25.053247593867816" lon="102.70310462199642">
        <ele>1862.2412109375</ele>
        <time>2026-08-03T07:49:21Z</time>
        <extensions>
          <gpxtpx:TrackPointExtension>
            <gpxtpx:hr>87</gpxtpx:hr>
          </gpxtpx:TrackPointExtension>
        </extensions>
      </trkpt>
      <trkpt lat="25.053272524665335" lon="102.70314852873865">
        <ele>1860.497802734375</ele>
        <time>2026-08-03T07:49:27Z</time>
        <extensions>
          <gpxtpx:TrackPointExtension>
            <gpxtpx:hr>87</gpxtpx:hr>
          </gpxtpx:TrackPointExtension>
        </extensions>
      </trkpt>
      <trkpt lat="25.05329836192503" lon="102.70325430526336">
        <ele>1854.794189453125</ele>
        <time>2026-08-03T07:49:39Z</time>
        <extensions>
          <gpxtpx:TrackPointExtension>
            <gpxtpx:hr>85</gpxtpx:hr>
          </gpxtpx:TrackPointExtension>
        </extensions>
      </trkpt>
      <trkpt lat="25.053238525409405" lon="102.70315052552385">
        <ele>1856.8544921875</ele>
        <time>2026-08-03T07:50:40Z</time>
        <extensions>
          <gpxtpx:TrackPointExtension>
            <gpxtpx:hr>90</gpxtpx:hr>
          </gpxtpx:TrackPointExtension>
        </extensions>
      </trkpt>
      <trkpt lat="25.053256724366904" lon="102.70301780483037">
        <ele>1864.01318359375</ele>
        <time>2026-08-03T07:50:55Z</time>
        <extensions>
          <gpxtpx:TrackPointExtension>
            <gpxtpx:hr>90</gpxtpx:hr>
          </gpxtpx:TrackPointExtension>
        </extensions>
      </trkpt>
      <trkpt lat="25.05318387472088" lon="102.70292400499095">
        <ele>1864.75048828125</ele>
        <time>2026-08-03T07:51:10Z</time>
        <extensions>
          <gpxtpx:TrackPointExtension>
            <gpxtpx:hr>89</gpxtpx:hr>
          </gpxtpx:TrackPointExtension>
        </extensions>
      </trkpt>
      <trkpt lat="25.05315698227627" lon="102.70285515128003">
        <ele>1861.3017578125</ele>
        <time>2026-08-03T07:51:19Z</time>
        <extensions>
          <gpxtpx:TrackPointExtension>
            <gpxtpx:hr>88</gpxtpx:hr>
          </gpxtpx:TrackPointExtension>
        </extensions>
      </trkpt>
      <trkpt lat="25.0530901232153" lon="102.70276733896722">
        <ele>1863.963623046875</ele>
        <time>2026-08-03T07:51:34Z</time>
        <extensions>
          <gpxtpx:TrackPointExtension>
            <gpxtpx:hr>94</gpxtpx:hr>
          </gpxtpx:TrackPointExtension>
        </extensions>
      </trkpt>
      <trkpt lat="25.053039125826352" lon="102.70276933622846">
        <ele>1863.468994140625</ele>
        <time>2026-08-03T07:51:40Z</time>
        <extensions>
          <gpxtpx:TrackPointExtension>
            <gpxtpx:hr>92</gpxtpx:hr>
          </gpxtpx:TrackPointExtension>
        </extensions>
      </trkpt>
      <trkpt lat="25.052992076389515" lon="102.70280526159254">
        <ele>1858.33837890625</ele>
        <time>2026-08-03T07:51:46Z</time>
        <extensions>
          <gpxtpx:TrackPointExtension>
            <gpxtpx:hr>91</gpxtpx:hr>
          </gpxtpx:TrackPointExtension>
        </extensions>
      </trkpt>
      <trkpt lat="25.052971145504763" lon="102.702761355102">
        <ele>1860.18212890625</ele>
        <time>2026-08-03T07:51:55Z</time>
        <extensions>
          <gpxtpx:TrackPointExtension>
            <gpxtpx:hr>93</gpxtpx:hr>
          </gpxtpx:TrackPointExtension>
        </extensions>
      </trkpt>
      <trkpt lat="25.05296625240675" lon="102.7026915031366">
        <ele>1863.189208984375</ele>
        <time>2026-08-03T07:52:04Z</time>
        <extensions>
          <gpxtpx:TrackPointExtension>
            <gpxtpx:hr>96</gpxtpx:hr>
          </gpxtpx:TrackPointExtension>
        </extensions>
      </trkpt>
      <trkpt lat="25.05292529343709" lon="102.70266755506213">
        <ele>1862.05810546875</ele>
        <time>2026-08-03T07:52:13Z</time>
        <extensions>
          <gpxtpx:TrackPointExtension>
            <gpxtpx:hr>93</gpxtpx:hr>
          </gpxtpx:TrackPointExtension>
        </extensions>
      </trkpt>
      <trkpt lat="25.052828232741174" lon="102.70271445854844">
        <ele>1855.658203125</ele>
        <time>2026-08-03T07:52:28Z</time>
        <extensions>
          <gpxtpx:TrackPointExtension>
            <gpxtpx:hr>85</gpxtpx:hr>
          </gpxtpx:TrackPointExtension>
        </extensions>
      </trkpt>
      <trkpt lat="25.052736305258694" lon="102.70267354787926">
        <ele>1857.751953125</ele>
        <time>2026-08-03T07:52:49Z</time>
        <extensions>
          <gpxtpx:TrackPointExtension>
            <gpxtpx:hr>87</gpxtpx:hr>
          </gpxtpx:TrackPointExtension>
        </extensions>
      </trkpt>
      <trkpt lat="25.05273738272287" lon="102.70262265569444">
        <ele>1858.23291015625</ele>
        <time>2026-08-03T07:53:40Z</time>
        <extensions>
          <gpxtpx:TrackPointExtension>
            <gpxtpx:hr>86</gpxtpx:hr>
          </gpxtpx:TrackPointExtension>
        </extensions>
      </trkpt>
      <trkpt lat="25.052759467056944" lon="102.7025657756602">
        <ele>1857.890625</ele>
        <time>2026-08-03T07:54:19Z</time>
        <extensions>
          <gpxtpx:TrackPointExtension>
            <gpxtpx:hr>88</gpxtpx:hr>
          </gpxtpx:TrackPointExtension>
        </extensions>
      </trkpt>
      <trkpt lat="25.052803518546476" lon="102.70252885270963">
        <ele>1860.126953125</ele>
        <time>2026-08-03T07:54:28Z</time>
        <extensions>
          <gpxtpx:TrackPointExtension>
            <gpxtpx:hr>87</gpxtpx:hr>
          </gpxtpx:TrackPointExtension>
        </extensions>
      </trkpt>
      <trkpt lat="25.052919446280324" lon="102.70256776677007">
        <ele>1865.1123046875</ele>
        <time>2026-08-03T07:54:43Z</time>
        <extensions>
          <gpxtpx:TrackPointExtension>
            <gpxtpx:hr>91</gpxtpx:hr>
          </gpxtpx:TrackPointExtension>
        </extensions>
      </trkpt>
      <trkpt lat="25.0529575365374" lon="102.70250589693573">
        <ele>1866.26953125</ele>
        <time>2026-08-03T07:54:55Z</time>
        <extensions>
          <gpxtpx:TrackPointExtension>
            <gpxtpx:hr>97</gpxtpx:hr>
          </gpxtpx:TrackPointExtension>
        </extensions>
      </trkpt>
      <trkpt lat="25.052988803278588" lon="102.70232927130114">
        <ele>1864.706787109375</ele>
        <time>2026-08-03T07:55:19Z</time>
        <extensions>
          <gpxtpx:TrackPointExtension>
            <gpxtpx:hr>96</gpxtpx:hr>
          </gpxtpx:TrackPointExtension>
        </extensions>
      </trkpt>
      <trkpt lat="25.052950988004557" lon="102.70221152300206">
        <ele>1862.80810546875</ele>
        <time>2026-08-03T07:55:40Z</time>
        <extensions>
          <gpxtpx:TrackPointExtension>
            <gpxtpx:hr>100</gpxtpx:hr>
          </gpxtpx:TrackPointExtension>
        </extensions>
      </trkpt>
      <trkpt lat="25.052909069243864" lon="102.7021616305088">
        <ele>1861.341796875</ele>
        <time>2026-08-03T07:55:49Z</time>
        <extensions>
          <gpxtpx:TrackPointExtension>
            <gpxtpx:hr>100</gpxtpx:hr>
          </gpxtpx:TrackPointExtension>
        </extensions>
      </trkpt>
      <trkpt lat="25.052868155030566" lon="102.7021087444284">
        <ele>1864.19775390625</ele>
        <time>2026-08-03T07:56:04Z</time>
        <extensions>
          <gpxtpx:TrackPointExtension>
            <gpxtpx:hr>102</gpxtpx:hr>
          </gpxtpx:TrackPointExtension>
        </extensions>
      </trkpt>
      <trkpt lat="25.05287223743014" lon="102.7020548592342">
        <ele>1865.55908203125</ele>
        <time>2026-08-03T07:56:13Z</time>
        <extensions>
          <gpxtpx:TrackPointExtension>
            <gpxtpx:hr>102</gpxtpx:hr>
          </gpxtpx:TrackPointExtension>
        </extensions>
      </trkpt>
      <trkpt lat="25.05282630700681" lon="102.7020129500044">
        <ele>1870.068359375</ele>
        <time>2026-08-03T07:56:19Z</time>
        <extensions>
          <gpxtpx:TrackPointExtension>
            <gpxtpx:hr>101</gpxtpx:hr>
          </gpxtpx:TrackPointExtension>
        </extensions>
      </trkpt>
      <trkpt lat="25.05278137958691" lon="102.70196904504898">
        <ele>1866.1357421875</ele>
        <time>2026-08-03T07:56:49Z</time>
        <extensions>
          <gpxtpx:TrackPointExtension>
            <gpxtpx:hr>89</gpxtpx:hr>
          </gpxtpx:TrackPointExtension>
        </extensions>
      </trkpt>
      <trkpt lat="25.052725427293534" lon="102.70194210422034">
        <ele>1866.693359375</ele>
        <time>2026-08-03T07:56:58Z</time>
        <extensions>
          <gpxtpx:TrackPointExtension>
            <gpxtpx:hr>91</gpxtpx:hr>
          </gpxtpx:TrackPointExtension>
        </extensions>
      </trkpt>
      <trkpt lat="25.052675412853645" lon="102.70195507796751">
        <ele>1861.105224609375</ele>
        <time>2026-08-03T07:57:07Z</time>
        <extensions>
          <gpxtpx:TrackPointExtension>
            <gpxtpx:hr>94</gpxtpx:hr>
          </gpxtpx:TrackPointExtension>
        </extensions>
      </trkpt>
      <trkpt lat="25.052657339562835" lon="102.70200397409101">
        <ele>1857.78515625</ele>
        <time>2026-08-03T07:57:19Z</time>
        <extensions>
          <gpxtpx:TrackPointExtension>
            <gpxtpx:hr>91</gpxtpx:hr>
          </gpxtpx:TrackPointExtension>
        </extensions>
      </trkpt>
      <trkpt lat="25.05261029870775" lon="102.70203391156812">
        <ele>1853.8134765625</ele>
        <time>2026-08-03T07:57:40Z</time>
        <extensions>
          <gpxtpx:TrackPointExtension>
            <gpxtpx:hr>95</gpxtpx:hr>
          </gpxtpx:TrackPointExtension>
        </extensions>
      </trkpt>
      <trkpt lat="25.052568331003393" lon="102.70201595112182">
        <ele>1849.68798828125</ele>
        <time>2026-08-03T07:57:52Z</time>
        <extensions>
          <gpxtpx:TrackPointExtension>
            <gpxtpx:hr>93</gpxtpx:hr>
          </gpxtpx:TrackPointExtension>
        </extensions>
      </trkpt>
      <trkpt lat="25.052312212092833" lon="102.7021117542242">
        <ele>1854.93017578125</ele>
        <time>2026-08-03T07:58:28Z</time>
        <extensions>
          <gpxtpx:TrackPointExtension>
            <gpxtpx:hr>95</gpxtpx:hr>
          </gpxtpx:TrackPointExtension>
        </extensions>
      </trkpt>
      <trkpt lat="25.052255175493094" lon="102.70213969632309">
        <ele>1855.35400390625</ele>
        <time>2026-08-03T07:58:37Z</time>
        <extensions>
          <gpxtpx:TrackPointExtension>
            <gpxtpx:hr>94</gpxtpx:hr>
          </gpxtpx:TrackPointExtension>
        </extensions>
      </trkpt>
      <trkpt lat="25.052178315948105" lon="102.70205388155608">
        <ele>1855.8251953125</ele>
        <time>2026-08-03T07:59:01Z</time>
        <extensions>
          <gpxtpx:TrackPointExtension>
            <gpxtpx:hr>86</gpxtpx:hr>
          </gpxtpx:TrackPointExtension>
        </extensions>
      </trkpt>
      <trkpt lat="25.05218839006844" lon="102.70200498560682">
        <ele>1858.58544921875</ele>
        <time>2026-08-03T07:59:04Z</time>
        <extensions>
          <gpxtpx:TrackPointExtension>
            <gpxtpx:hr>86</gpxtpx:hr>
          </gpxtpx:TrackPointExtension>
        </extensions>
      </trkpt>
      <trkpt lat="25.052166478556504" lon="102.70194910556427">
        <ele>1859.68798828125</ele>
        <time>2026-08-03T07:59:10Z</time>
        <extensions>
          <gpxtpx:TrackPointExtension>
            <gpxtpx:hr>87</gpxtpx:hr>
          </gpxtpx:TrackPointExtension>
        </extensions>
      </trkpt>
      <trkpt lat="25.05209058849918" lon="102.70188324849464">
        <ele>1859.6357421875</ele>
        <time>2026-08-03T07:59:22Z</time>
        <extensions>
          <gpxtpx:TrackPointExtension>
            <gpxtpx:hr>91</gpxtpx:hr>
          </gpxtpx:TrackPointExtension>
        </extensions>
      </trkpt>
      <trkpt lat="25.052022572976085" lon="102.7018982184823">
        <ele>1858.7578125</ele>
        <time>2026-08-03T08:00:01Z</time>
        <extensions>
          <gpxtpx:TrackPointExtension>
            <gpxtpx:hr>91</gpxtpx:hr>
          </gpxtpx:TrackPointExtension>
        </extensions>
      </trkpt>
      <trkpt lat="25.05210248412742" lon="102.70195010529498">
        <ele>1857.4453125</ele>
        <time>2026-08-03T08:00:04Z</time>
        <extensions>
          <gpxtpx:TrackPointExtension>
            <gpxtpx:hr>91</gpxtpx:hr>
          </gpxtpx:TrackPointExtension>
        </extensions>
      </trkpt>
      <trkpt lat="25.052086572019682" lon="102.70189422515065">
        <ele>1866.020751953125</ele>
        <time>2026-08-03T08:00:13Z</time>
        <extensions>
          <gpxtpx:TrackPointExtension>
            <gpxtpx:hr>91</gpxtpx:hr>
          </gpxtpx:TrackPointExtension>
        </extensions>
      </trkpt>
      <trkpt lat="25.052130547135157" lon="102.70190719614837">
        <ele>1863.484375</ele>
        <time>2026-08-03T08:00:34Z</time>
        <extensions>
          <gpxtpx:TrackPointExtension>
            <gpxtpx:hr>89</gpxtpx:hr>
          </gpxtpx:TrackPointExtension>
        </extensions>
      </trkpt>
      <trkpt lat="25.052178529500303" lon="102.70191517769403">
        <ele>1862.68603515625</ele>
        <time>2026-08-03T08:01:22Z</time>
        <extensions>
          <gpxtpx:TrackPointExtension>
            <gpxtpx:hr>84</gpxtpx:hr>
          </gpxtpx:TrackPointExtension>
        </extensions>
      </trkpt>
      <trkpt lat="25.052198598048093" lon="102.70186927521537">
        <ele>1863.234375</ele>
        <time>2026-08-03T08:01:37Z</time>
        <extensions>
          <gpxtpx:TrackPointExtension>
            <gpxtpx:hr>85</gpxtpx:hr>
          </gpxtpx:TrackPointExtension>
        </extensions>
      </trkpt>
      <trkpt lat="25.052194717060285" lon="102.7017924396598">
        <ele>1863.2216796875</ele>
        <time>2026-08-03T08:01:55Z</time>
        <extensions>
          <gpxtpx:TrackPointExtension>
            <gpxtpx:hr>88</gpxtpx:hr>
          </gpxtpx:TrackPointExtension>
        </extensions>
      </trkpt>
      <trkpt lat="25.052148736035974" lon="102.7017834602143">
        <ele>1862.479248046875</ele>
        <time>2026-08-03T08:02:16Z</time>
        <extensions>
          <gpxtpx:TrackPointExtension>
            <gpxtpx:hr>89</gpxtpx:hr>
          </gpxtpx:TrackPointExtension>
        </extensions>
      </trkpt>
      <trkpt lat="25.052149842302267" lon="102.70171460757348">
        <ele>1861.454345703125</ele>
        <time>2026-08-03T08:03:01Z</time>
        <extensions>
          <gpxtpx:TrackPointExtension>
            <gpxtpx:hr>85</gpxtpx:hr>
          </gpxtpx:TrackPointExtension>
        </extensions>
      </trkpt>
      <trkpt lat="25.052186001934164" lon="102.70160883316687">
        <ele>1863.75390625</ele>
        <time>2026-08-03T08:03:19Z</time>
        <extensions>
          <gpxtpx:TrackPointExtension>
            <gpxtpx:hr>85</gpxtpx:hr>
          </gpxtpx:TrackPointExtension>
        </extensions>
      </trkpt>
      <trkpt lat="25.05218215852521" lon="102.70150804947832">
        <ele>1863.99658203125</ele>
        <time>2026-08-03T08:03:34Z</time>
        <extensions>
          <gpxtpx:TrackPointExtension>
            <gpxtpx:hr>86</gpxtpx:hr>
          </gpxtpx:TrackPointExtension>
        </extensions>
      </trkpt>
      <trkpt lat="25.052216216653548" lon="102.70146813417716">
        <ele>1862.4921875</ele>
        <time>2026-08-03T08:03:43Z</time>
        <extensions>
          <gpxtpx:TrackPointExtension>
            <gpxtpx:hr>92</gpxtpx:hr>
          </gpxtpx:TrackPointExtension>
        </extensions>
      </trkpt>
      <trkpt lat="25.052268255782867" lon="102.70143919481174">
        <ele>1861.01806640625</ele>
        <time>2026-08-03T08:03:52Z</time>
        <extensions>
          <gpxtpx:TrackPointExtension>
            <gpxtpx:hr>91</gpxtpx:hr>
          </gpxtpx:TrackPointExtension>
        </extensions>
      </trkpt>
      <trkpt lat="25.052396534678298" lon="102.70125059659628">
        <ele>1865.2568359375</ele>
        <time>2026-08-03T08:04:43Z</time>
        <extensions>
          <gpxtpx:TrackPointExtension>
            <gpxtpx:hr>80</gpxtpx:hr>
          </gpxtpx:TrackPointExtension>
        </extensions>
      </trkpt>
      <trkpt lat="25.05246165021606" lon="102.70117176444971">
        <ele>1864.16357421875</ele>
        <time>2026-08-03T08:05:10Z</time>
        <extensions>
          <gpxtpx:TrackPointExtension>
            <gpxtpx:hr>79</gpxtpx:hr>
          </gpxtpx:TrackPointExtension>
        </extensions>
      </trkpt>
      <trkpt lat="25.05250881459401" lon="102.70106299752345">
        <ele>1863.595947265625</ele>
        <time>2026-08-03T08:05:31Z</time>
        <extensions>
          <gpxtpx:TrackPointExtension>
            <gpxtpx:hr>83</gpxtpx:hr>
          </gpxtpx:TrackPointExtension>
        </extensions>
      </trkpt>
      <trkpt lat="25.05260084799725" lon="102.70103505511582">
        <ele>1863.140625</ele>
        <time>2026-08-03T08:06:01Z</time>
        <extensions>
          <gpxtpx:TrackPointExtension>
            <gpxtpx:hr>88</gpxtpx:hr>
          </gpxtpx:TrackPointExtension>
        </extensions>
      </trkpt>
      <trkpt lat="25.052670946211485" lon="102.70096719951978">
        <ele>1861.666748046875</ele>
        <time>2026-08-03T08:06:22Z</time>
        <extensions>
          <gpxtpx:TrackPointExtension>
            <gpxtpx:hr>83</gpxtpx:hr>
          </gpxtpx:TrackPointExtension>
        </extensions>
      </trkpt>
      <trkpt lat="25.05269602610992" lon="102.70091431300327">
        <ele>1862.88232421875</ele>
        <time>2026-08-03T08:06:37Z</time>
        <extensions>
          <gpxtpx:TrackPointExtension>
            <gpxtpx:hr>81</gpxtpx:hr>
          </gpxtpx:TrackPointExtension>
        </extensions>
      </trkpt>
      <trkpt lat="25.052668093209345" lon="102.70087340221308">
        <ele>1862.96728515625</ele>
        <time>2026-08-03T08:06:49Z</time>
        <extensions>
          <gpxtpx:TrackPointExtension>
            <gpxtpx:hr>84</gpxtpx:hr>
          </gpxtpx:TrackPointExtension>
        </extensions>
      </trkpt>
      <trkpt lat="25.052617144151682" lon="102.70084446624293">
        <ele>1862.41015625</ele>
        <time>2026-08-03T08:07:01Z</time>
        <extensions>
          <gpxtpx:TrackPointExtension>
            <gpxtpx:hr>84</gpxtpx:hr>
          </gpxtpx:TrackPointExtension>
        </extensions>
      </trkpt>
      <trkpt lat="25.052514149328065" lon="102.70084846060927">
        <ele>1856.145751953125</ele>
        <time>2026-08-03T08:07:31Z</time>
        <extensions>
          <gpxtpx:TrackPointExtension>
            <gpxtpx:hr>77</gpxtpx:hr>
          </gpxtpx:TrackPointExtension>
        </extensions>
      </trkpt>
      <trkpt lat="25.05248033285927" lon="102.70073370980792">
        <ele>1862.555419921875</ele>
        <time>2026-08-03T08:07:53Z</time>
        <extensions>
          <gpxtpx:TrackPointExtension>
            <gpxtpx:hr>79</gpxtpx:hr>
          </gpxtpx:TrackPointExtension>
        </extensions>
      </trkpt>
      <trkpt lat="25.052328470249723" lon="102.70065688058845">
        <ele>1861.27490234375</ele>
        <time>2026-08-03T08:08:20Z</time>
        <extensions>
          <gpxtpx:TrackPointExtension>
            <gpxtpx:hr>87</gpxtpx:hr>
          </gpxtpx:TrackPointExtension>
        </extensions>
      </trkpt>
      <trkpt lat="25.052222496112826" lon="102.7006479031236">
        <ele>1860.8330078125</ele>
        <time>2026-08-03T08:08:44Z</time>
        <extensions>
          <gpxtpx:TrackPointExtension>
            <gpxtpx:hr>86</gpxtpx:hr>
          </gpxtpx:TrackPointExtension>
        </extensions>
      </trkpt>
      <trkpt lat="25.052134592063492" lon="102.70059302460531">
        <ele>1859.875</ele>
        <time>2026-08-03T08:09:08Z</time>
        <extensions>
          <gpxtpx:TrackPointExtension>
            <gpxtpx:hr>86</gpxtpx:hr>
          </gpxtpx:TrackPointExtension>
        </extensions>
      </trkpt>
      <trkpt lat="25.052039671606526" lon="102.70054912255516">
        <ele>1853.8466796875</ele>
        <time>2026-08-03T08:09:38Z</time>
        <extensions>
          <gpxtpx:TrackPointExtension>
            <gpxtpx:hr>85</gpxtpx:hr>
          </gpxtpx:TrackPointExtension>
        </extensions>
      </trkpt>
      <trkpt lat="25.051853910501425" lon="102.7004104289584">
        <ele>1851.632568359375</ele>
        <time>2026-08-03T08:10:17Z</time>
        <extensions>
          <gpxtpx:TrackPointExtension>
            <gpxtpx:hr>98</gpxtpx:hr>
          </gpxtpx:TrackPointExtension>
        </extensions>
      </trkpt>
      <trkpt lat="25.05173010357809" lon="102.70029667974903">
        <ele>1858.3076171875</ele>
        <time>2026-08-03T08:10:41Z</time>
        <extensions>
          <gpxtpx:TrackPointExtension>
            <gpxtpx:hr>92</gpxtpx:hr>
          </gpxtpx:TrackPointExtension>
        </extensions>
      </trkpt>
      <trkpt lat="25.051697187548108" lon="102.70024579138641">
        <ele>1858.74365234375</ele>
        <time>2026-08-03T08:10:50Z</time>
        <extensions>
          <gpxtpx:TrackPointExtension>
            <gpxtpx:hr>91</gpxtpx:hr>
          </gpxtpx:TrackPointExtension>
        </extensions>
      </trkpt>
      <trkpt lat="25.051694268238236" lon="102.70019490221043">
        <ele>1858.80126953125</ele>
        <time>2026-08-03T08:10:56Z</time>
        <extensions>
          <gpxtpx:TrackPointExtension>
            <gpxtpx:hr>91</gpxtpx:hr>
          </gpxtpx:TrackPointExtension>
        </extensions>
      </trkpt>
      <trkpt lat="25.051711356224416" lon="102.70013802555025">
        <ele>1861.165283203125</ele>
        <time>2026-08-03T08:11:05Z</time>
        <extensions>
          <gpxtpx:TrackPointExtension>
            <gpxtpx:hr>92</gpxtpx:hr>
          </gpxtpx:TrackPointExtension>
        </extensions>
      </trkpt>
      <trkpt lat="25.051704615987013" lon="102.6999743824536">
        <ele>1860.3974609375</ele>
        <time>2026-08-03T08:11:29Z</time>
        <extensions>
          <gpxtpx:TrackPointExtension>
            <gpxtpx:hr>94</gpxtpx:hr>
          </gpxtpx:TrackPointExtension>
        </extensions>
      </trkpt>
      <trkpt lat="25.05174467795713" lon="102.699932472738">
        <ele>1861.07080078125</ele>
        <time>2026-08-03T08:11:56Z</time>
        <extensions>
          <gpxtpx:TrackPointExtension>
            <gpxtpx:hr>89</gpxtpx:hr>
          </gpxtpx:TrackPointExtension>
        </extensions>
      </trkpt>
      <trkpt lat="25.0517966785028" lon="102.69992847993831">
        <ele>1862.4580078125</ele>
        <time>2026-08-03T08:12:02Z</time>
        <extensions>
          <gpxtpx:TrackPointExtension>
            <gpxtpx:hr>88</gpxtpx:hr>
          </gpxtpx:TrackPointExtension>
        </extensions>
      </trkpt>
      <trkpt lat="25.05177277770868" lon="102.69986761352655">
        <ele>1857.3447265625</ele>
        <time>2026-08-03T08:12:14Z</time>
        <extensions>
          <gpxtpx:TrackPointExtension>
            <gpxtpx:hr>89</gpxtpx:hr>
          </gpxtpx:TrackPointExtension>
        </extensions>
      </trkpt>
      <trkpt lat="25.051778868905245" lon="102.69980973978426">
        <ele>1858.109130859375</ele>
        <time>2026-08-03T08:12:26Z</time>
        <extensions>
          <gpxtpx:TrackPointExtension>
            <gpxtpx:hr>95</gpxtpx:hr>
          </gpxtpx:TrackPointExtension>
        </extensions>
      </trkpt>
      <trkpt lat="25.0517288380277" lon="102.6998326910912">
        <ele>1859.7255859375</ele>
        <time>2026-08-03T08:12:53Z</time>
        <extensions>
          <gpxtpx:TrackPointExtension>
            <gpxtpx:hr>86</gpxtpx:hr>
          </gpxtpx:TrackPointExtension>
        </extensions>
      </trkpt>
      <trkpt lat="25.05167635666287" lon="102.6995103979243">
        <ele>1860.73291015625</ele>
        <time>2026-08-03T08:13:38Z</time>
        <extensions>
          <gpxtpx:TrackPointExtension>
            <gpxtpx:hr>91</gpxtpx:hr>
          </gpxtpx:TrackPointExtension>
        </extensions>
      </trkpt>
      <trkpt lat="25.051661447453196" lon="102.69945452087399">
        <ele>1860.739013671875</ele>
        <time>2026-08-03T08:13:47Z</time>
        <extensions>
          <gpxtpx:TrackPointExtension>
            <gpxtpx:hr>91</gpxtpx:hr>
          </gpxtpx:TrackPointExtension>
        </extensions>
      </trkpt>
      <trkpt lat="25.051710489774685" lon="102.69942458511149">
        <ele>1861.97900390625</ele>
        <time>2026-08-03T08:13:56Z</time>
        <extensions>
          <gpxtpx:TrackPointExtension>
            <gpxtpx:hr>93</gpxtpx:hr>
          </gpxtpx:TrackPointExtension>
        </extensions>
      </trkpt>
      <trkpt lat="25.051739389434918" lon="102.69948545077948">
        <ele>1860.33203125</ele>
        <time>2026-08-03T08:14:02Z</time>
        <extensions>
          <gpxtpx:TrackPointExtension>
            <gpxtpx:hr>97</gpxtpx:hr>
          </gpxtpx:TrackPointExtension>
        </extensions>
      </trkpt>
      <trkpt lat="25.051711454629377" lon="102.69944653692922">
        <ele>1862.25341796875</ele>
        <time>2026-08-03T08:14:56Z</time>
        <extensions>
          <gpxtpx:TrackPointExtension>
            <gpxtpx:hr>89</gpxtpx:hr>
          </gpxtpx:TrackPointExtension>
        </extensions>
      </trkpt>
      <trkpt lat="25.05168452452434" lon="102.69940462965155">
        <ele>1868.98828125</ele>
        <time>2026-08-03T08:15:14Z</time>
        <extensions>
          <gpxtpx:TrackPointExtension>
            <gpxtpx:hr>88</gpxtpx:hr>
          </gpxtpx:TrackPointExtension>
        </extensions>
      </trkpt>
      <trkpt lat="25.05166552026529" lon="102.69940862144578">
        <ele>1874.4755859375</ele>
        <time>2026-08-03T08:20:47Z</time>
        <extensions>
          <gpxtpx:TrackPointExtension>
            <gpxtpx:hr>86</gpxtpx:hr>
          </gpxtpx:TrackPointExtension>
        </extensions>
      </trkpt>
    </trkseg>
  </trk>
</gpx>