<?xml version="1.0" encoding="UTF-8"?>
<gpx xmlns="http://www.topografix.com/GPX/1/1" xmlns:gpxtpx="http://www.garmin.com/xmlschemas/TrackPointExtension/v1" xmlns:xsi="http://www.w3.org/2001/XMLSchema-instance" xsi:schemaLocation="http://www.topografix.com/GPX/1/1 http://www.topografix.com/GPX/1/1/gpx.xsd" version="1.1" creator="gpx.py -- https://github.com/tkrajina/gpxpy">
  <trk>
    <name>gpx from keep</name>
    <type>Walk</type>
    <trkseg>
      <trkpt lat="29.601919472546097" lon="106.31767690106409">
        <ele>252.6058349609375</ele>
        <time>2026-09-25T23:34:43Z</time>
      </trkpt>
      <trkpt lat="29.601896346782635" lon="106.31774673059378">
        <ele>253.87493896484375</ele>
        <time>2026-09-25T23:34:49Z</time>
      </trkpt>
      <trkpt lat="29.6019021115055" lon="106.31786942817773">
        <ele>252.391845703125</ele>
        <time>2026-09-25T23:35:01Z</time>
      </trkpt>
      <trkpt lat="29.601869595336677" lon="106.31814574951021">
        <ele>252.43096923828125</ele>
        <time>2026-09-25T23:35:25Z</time>
      </trkpt>
      <trkpt lat="29.601900910897637" lon="106.31849987463467">
        <ele>257.0806884765625</ele>
        <time>2026-09-25T23:35:55Z</time>
      </trkpt>
      <trkpt lat="29.60190578007461" lon="106.31856770703374">
        <ele>258.0654296875</ele>
        <time>2026-09-25T23:36:01Z</time>
      </trkpt>
      <trkpt lat="29.601875656160548" lon="106.31863753659344">
        <ele>258.42822265625</ele>
        <time>2026-09-25T23:36:07Z</time>
      </trkpt>
      <trkpt lat="29.601872040677478" lon="106.31896073914038">
        <ele>253.4677734375</ele>
        <time>2026-09-25T23:36:37Z</time>
      </trkpt>
      <trkpt lat="29.60187943471776" lon="106.31927695769126">
        <ele>250.6651611328125</ele>
        <time>2026-09-25T23:37:01Z</time>
      </trkpt>
      <trkpt lat="29.601923040261482" lon="106.31947646203946">
        <ele>252.0062255859375</ele>
        <time>2026-09-25T23:37:19Z</time>
      </trkpt>
      <trkpt lat="29.60189561787209" lon="106.31970190633362">
        <ele>256.7860107421875</ele>
        <time>2026-09-25T23:37:37Z</time>
      </trkpt>
      <trkpt lat="29.601913478922302" lon="106.31977173257121">
        <ele>255.74359130859375</ele>
        <time>2026-09-25T23:37:43Z</time>
      </trkpt>
      <trkpt lat="29.601901341528492" lon="106.31984555072496">
        <ele>253.7982177734375</ele>
        <time>2026-09-25T23:37:49Z</time>
      </trkpt>
      <trkpt lat="29.601917203157047" lon="106.31991537703459">
        <ele>254.25201416015625</ele>
        <time>2026-09-25T23:37:55Z</time>
      </trkpt>
      <trkpt lat="29.60190107267434" lon="106.3199862027831">
        <ele>250.712158203125</ele>
        <time>2026-09-25T23:38:01Z</time>
      </trkpt>
      <trkpt lat="29.60193697009579" lon="106.32003408214223">
        <ele>248.55230712890625</ele>
        <time>2026-09-25T23:38:07Z</time>
      </trkpt>
      <trkpt lat="29.602040146383217" lon="106.31992534493924">
        <ele>252.53387451171875</ele>
        <time>2026-09-25T23:38:19Z</time>
      </trkpt>
      <trkpt lat="29.602327075634488" lon="106.31991634983883">
        <ele>249.3463134765625</ele>
        <time>2026-09-25T23:38:43Z</time>
      </trkpt>
      <trkpt lat="29.602390098298606" lon="106.31989440032714">
        <ele>249.1810302734375</ele>
        <time>2026-09-25T23:38:49Z</time>
      </trkpt>
      <trkpt lat="29.602436177645195" lon="106.31984551845875">
        <ele>247.77691650390625</ele>
        <time>2026-09-25T23:38:55Z</time>
      </trkpt>
      <trkpt lat="29.60246429490085" lon="106.31977967960489">
        <ele>248.33184814453125</ele>
        <time>2026-09-25T23:39:01Z</time>
      </trkpt>
      <trkpt lat="29.6024395922668" lon="106.31962805604559">
        <ele>247.3287353515625</ele>
        <time>2026-09-25T23:39:13Z</time>
      </trkpt>
      <trkpt lat="29.602445721919405" lon="106.31955922584588">
        <ele>246.199951171875</ele>
        <time>2026-09-25T23:39:19Z</time>
      </trkpt>
      <trkpt lat="29.602503774675153" lon="106.31952231358478">
        <ele>246.043212890625</ele>
        <time>2026-09-25T23:39:25Z</time>
      </trkpt>
      <trkpt lat="29.60278470209644" lon="106.31951531389971">
        <ele>245.75750732421875</ele>
        <time>2026-09-25T23:39:49Z</time>
      </trkpt>
      <trkpt lat="29.602847694279127" lon="106.31950932489488">
        <ele>248.756591796875</ele>
        <time>2026-09-25T23:39:55Z</time>
      </trkpt>
      <trkpt lat="29.60290075429884" lon="106.31946942032285">
        <ele>247.99969482421875</ele>
        <time>2026-09-25T23:40:01Z</time>
      </trkpt>
      <trkpt lat="29.602934848693277" lon="106.31941455386732">
        <ele>247.3236083984375</ele>
        <time>2026-09-25T23:40:07Z</time>
      </trkpt>
      <trkpt lat="29.602940500341575" lon="106.31907239882594">
        <ele>247.78985595703125</ele>
        <time>2026-09-25T23:40:37Z</time>
      </trkpt>
      <trkpt lat="29.602941760794018" lon="106.31893573619911">
        <ele>245.930908203125</ele>
        <time>2026-09-25T23:40:49Z</time>
      </trkpt>
      <trkpt lat="29.602908033760414" lon="106.31879807803924">
        <ele>247.0767822265625</ele>
        <time>2026-09-25T23:41:01Z</time>
      </trkpt>
      <trkpt lat="29.60292643719582" lon="106.31858360612009">
        <ele>245.26751708984375</ele>
        <time>2026-09-25T23:41:19Z</time>
      </trkpt>
      <trkpt lat="29.602910858413075" lon="106.31836514581492">
        <ele>248.04852294921875</ele>
        <time>2026-09-25T23:41:37Z</time>
      </trkpt>
      <trkpt lat="29.602933520398537" lon="106.31801400977713">
        <ele>250.84259033203125</ele>
        <time>2026-09-25T23:42:07Z</time>
      </trkpt>
      <trkpt lat="29.602937644492847" lon="106.31794817169042">
        <ele>250.5419921875</ele>
        <time>2026-09-25T23:42:13Z</time>
      </trkpt>
      <trkpt lat="29.603001866027338" lon="106.31782147977853">
        <ele>246.06689453125</ele>
        <time>2026-09-25T23:42:25Z</time>
      </trkpt>
      <trkpt lat="29.60296857829379" lon="106.31745239003214">
        <ele>246.2041015625</ele>
        <time>2026-09-25T23:42:55Z</time>
      </trkpt>
      <trkpt lat="29.602995841125797" lon="106.31730973916353">
        <ele>242.8111572265625</ele>
        <time>2026-09-25T23:43:10Z</time>
      </trkpt>
      <trkpt lat="29.602965104506794" lon="106.31717606958324">
        <ele>245.3115234375</ele>
        <time>2026-09-25T23:43:25Z</time>
      </trkpt>
      <trkpt lat="29.60295476303444" lon="106.31683091799795">
        <ele>247.19989013671875</ele>
        <time>2026-09-25T23:43:55Z</time>
      </trkpt>
      <trkpt lat="29.60295225960151" lon="106.3165695595265">
        <ele>249.573974609375</ele>
        <time>2026-09-25T23:44:19Z</time>
      </trkpt>
      <trkpt lat="29.602929385748126" lon="106.31650671505093">
        <ele>250.61700439453125</ele>
        <time>2026-09-25T23:44:25Z</time>
      </trkpt>
      <trkpt lat="29.60288449779817" lon="106.31645484496397">
        <ele>250.95721435546875</ele>
        <time>2026-09-25T23:44:31Z</time>
      </trkpt>
      <trkpt lat="29.60282856783301" lon="106.31642691682171">
        <ele>252.02117919921875</ele>
        <time>2026-09-25T23:44:37Z</time>
      </trkpt>
      <trkpt lat="29.602699614817595" lon="106.31642293437386">
        <ele>252.55377197265625</ele>
        <time>2026-09-25T23:44:49Z</time>
      </trkpt>
      <trkpt lat="29.602639582125377" lon="106.31644987194927">
        <ele>251.2000732421875</ele>
        <time>2026-09-25T23:44:55Z</time>
      </trkpt>
      <trkpt lat="29.602541436272066" lon="106.31654265034375">
        <ele>253.8216552734375</ele>
        <time>2026-09-25T23:45:07Z</time>
      </trkpt>
      <trkpt lat="29.602501333154688" lon="106.31660350349124">
        <ele>252.2044677734375</ele>
        <time>2026-09-25T23:45:13Z</time>
      </trkpt>
      <trkpt lat="29.602485211324314" lon="106.31667034047905">
        <ele>253.749755859375</ele>
        <time>2026-09-25T23:45:19Z</time>
      </trkpt>
      <trkpt lat="29.602508958021332" lon="106.31680002077431">
        <ele>251.3963623046875</ele>
        <time>2026-09-25T23:45:31Z</time>
      </trkpt>
      <trkpt lat="29.602561714681546" lon="106.31691972369181">
        <ele>250.9537353515625</ele>
        <time>2026-09-25T23:45:43Z</time>
      </trkpt>
      <trkpt lat="29.60257543584386" lon="106.31706436758974">
        <ele>250.808837890625</ele>
        <time>2026-09-25T23:45:55Z</time>
      </trkpt>
      <trkpt lat="29.602513876606228" lon="106.31736862350253">
        <ele>249.9544677734375</ele>
        <time>2026-09-25T23:46:19Z</time>
      </trkpt>
      <trkpt lat="29.6024217018984" lon="106.31747536656098">
        <ele>249.75592041015625</ele>
        <time>2026-09-25T23:46:31Z</time>
      </trkpt>
      <trkpt lat="29.602115655268875" lon="106.31754920342087">
        <ele>248.68084716796875</ele>
        <time>2026-09-25T23:47:01Z</time>
      </trkpt>
      <trkpt lat="29.601981669784223" lon="106.3175631771381">
        <ele>251.1162109375</ele>
        <time>2026-09-25T23:47:13Z</time>
      </trkpt>
      <trkpt lat="29.601875552437587" lon="106.31764198963107">
        <ele>252.8221435546875</ele>
        <time>2026-09-25T23:47:25Z</time>
      </trkpt>
      <trkpt lat="29.601843376319827" lon="106.31773975097447">
        <ele>252.1917724609375</ele>
        <time>2026-09-25T23:47:37Z</time>
      </trkpt>
      <trkpt lat="29.60187412768478" lon="106.31786543968947">
        <ele>250.6895751953125</ele>
        <time>2026-09-25T23:47:49Z</time>
      </trkpt>
      <trkpt lat="29.601852393474314" lon="106.31825448258574">
        <ele>249.2252197265625</ele>
        <time>2026-09-25T23:48:19Z</time>
      </trkpt>
      <trkpt lat="29.601859607815975" lon="106.31866546865042">
        <ele>247.68756103515625</ele>
        <time>2026-09-25T23:48:34Z</time>
      </trkpt>
      <trkpt lat="29.601870970564324" lon="106.31899764807511">
        <ele>251.3048095703125</ele>
        <time>2026-09-25T23:48:43Z</time>
      </trkpt>
      <trkpt lat="29.601876306127245" lon="106.319344790276">
        <ele>250.65484619140625</ele>
        <time>2026-09-25T23:48:55Z</time>
      </trkpt>
      <trkpt lat="29.601874822518973" lon="106.31959816410401">
        <ele>251.04180908203125</ele>
        <time>2026-09-25T23:49:04Z</time>
      </trkpt>
      <trkpt lat="29.60189266453556" lon="106.31967796571251">
        <ele>251.720703125</ele>
        <time>2026-09-25T23:49:07Z</time>
      </trkpt>
      <trkpt lat="29.601929510234832" lon="106.31975277847808">
        <ele>254.1077880859375</ele>
        <time>2026-09-25T23:49:10Z</time>
      </trkpt>
      <trkpt lat="29.601987372355623" lon="106.31981561955637">
        <ele>255.513671875</ele>
        <time>2026-09-25T23:49:13Z</time>
      </trkpt>
      <trkpt lat="29.602005021719428" lon="106.31999617183017">
        <ele>257.78515625</ele>
        <time>2026-09-25T23:49:19Z</time>
      </trkpt>
      <trkpt lat="29.602059945742813" lon="106.32002709200097">
        <ele>255.8712158203125</ele>
        <time>2026-09-25T23:49:22Z</time>
      </trkpt>
      <trkpt lat="29.60212594649778" lon="106.32001611517009">
        <ele>252.31634521484375</ele>
        <time>2026-09-25T23:49:26Z</time>
      </trkpt>
      <trkpt lat="29.60215782416946" lon="106.32007496761118">
        <ele>251.508056640625</ele>
        <time>2026-09-25T23:49:29Z</time>
      </trkpt>
      <trkpt lat="29.602153705228528" lon="106.32013781233289">
        <ele>252.01788330078125</ele>
        <time>2026-09-25T23:49:32Z</time>
      </trkpt>
      <trkpt lat="29.602118630110322" lon="106.32018270334767">
        <ele>251.79541015625</ele>
        <time>2026-09-25T23:49:41Z</time>
      </trkpt>
      <trkpt lat="29.602211118781078" lon="106.31991236670582">
        <ele>253.40716552734375</ele>
        <time>2026-09-25T23:49:50Z</time>
      </trkpt>
    </trkseg>
  </trk>
</gpx>