<?xml version="1.0" encoding="UTF-8"?>
<gpx xmlns="http://www.topografix.com/GPX/1/1" xmlns:gpxtpx="http://www.garmin.com/xmlschemas/TrackPointExtension/v1" xmlns:xsi="http://www.w3.org/2001/XMLSchema-instance" xsi:schemaLocation="http://www.topografix.com/GPX/1/1 http://www.topografix.com/GPX/1/1/gpx.xsd" version="1.1" creator="gpx.py -- https://github.com/tkrajina/gpxpy">
  <trk>
    <name>gpx from keep</name>
    <type>Walk</type>
    <trkseg>
      <trkpt lat="29.6024522604459" lon="106.31979963098694">
        <ele>262.6363525390625</ele>
        <time>2026-09-13T23:11:38Z</time>
      </trkpt>
      <trkpt lat="29.602464380680694" lon="106.3197347906166">
        <ele>261.3021240234375</ele>
        <time>2026-09-13T23:11:44Z</time>
      </trkpt>
      <trkpt lat="29.602460662068484" lon="106.31958815342679">
        <ele>257.06787109375</ele>
        <time>2026-09-13T23:11:56Z</time>
      </trkpt>
      <trkpt lat="29.602497776510702" lon="106.3195223139466">
        <ele>254.27783203125</ele>
        <time>2026-09-13T23:12:02Z</time>
      </trkpt>
      <trkpt lat="29.60255482576041" lon="106.31948739680783">
        <ele>255.0350341796875</ele>
        <time>2026-09-13T23:12:08Z</time>
      </trkpt>
      <trkpt lat="29.602818743150248" lon="106.31948837842229">
        <ele>254.77520751953125</ele>
        <time>2026-09-13T23:12:32Z</time>
      </trkpt>
      <trkpt lat="29.60287579051245" lon="106.31945445881233">
        <ele>256.5384521484375</ele>
        <time>2026-09-13T23:12:38Z</time>
      </trkpt>
      <trkpt lat="29.602909898237016" lon="106.31939260960839">
        <ele>253.51153564453125</ele>
        <time>2026-09-13T23:12:44Z</time>
      </trkpt>
      <trkpt lat="29.602933336849038" lon="106.31915918491205">
        <ele>256.8504638671875</ele>
        <time>2026-09-13T23:13:02Z</time>
      </trkpt>
      <trkpt lat="29.60297862007763" lon="106.31900356649608">
        <ele>255.72540283203125</ele>
        <time>2026-09-13T23:13:14Z</time>
      </trkpt>
      <trkpt lat="29.60293994027393" lon="106.31884196778282">
        <ele>255.73516845703125</ele>
        <time>2026-09-13T23:13:26Z</time>
      </trkpt>
      <trkpt lat="29.602927549073755" lon="106.31852475122547">
        <ele>254.53338623046875</ele>
        <time>2026-09-13T23:13:50Z</time>
      </trkpt>
      <trkpt lat="29.602919960187773" lon="106.31831028052447">
        <ele>258.78515625</ele>
        <time>2026-09-13T23:14:08Z</time>
      </trkpt>
      <trkpt lat="29.602938080100074" lon="106.31824444171748">
        <ele>258.47821044921875</ele>
        <time>2026-09-13T23:14:14Z</time>
      </trkpt>
      <trkpt lat="29.602985191136863" lon="106.31817860113568">
        <ele>251.8602294921875</ele>
        <time>2026-09-13T23:14:20Z</time>
      </trkpt>
      <trkpt lat="29.6030033243049" lon="106.3181057794785">
        <ele>248.18853759765625</ele>
        <time>2026-09-13T23:14:26Z</time>
      </trkpt>
      <trkpt lat="29.602995788141712" lon="106.31786337698884">
        <ele>249.94757080078125</ele>
        <time>2026-09-13T23:14:44Z</time>
      </trkpt>
      <trkpt lat="29.60297411557355" lon="106.31769479330474">
        <ele>249.89837646484375</ele>
        <time>2026-09-13T23:14:56Z</time>
      </trkpt>
      <trkpt lat="29.602967582391187" lon="106.31745039499907">
        <ele>250.5760498046875</ele>
        <time>2026-09-13T23:15:14Z</time>
      </trkpt>
      <trkpt lat="29.602938186634322" lon="106.31713716680916">
        <ele>253.4349365234375</ele>
        <time>2026-09-13T23:15:38Z</time>
      </trkpt>
      <trkpt lat="29.60293364263295" lon="106.31689775517138">
        <ele>252.80926513671875</ele>
        <time>2026-09-13T23:15:56Z</time>
      </trkpt>
      <trkpt lat="29.60294721763338" lon="106.316592503547">
        <ele>252.375</ele>
        <time>2026-09-13T23:16:20Z</time>
      </trkpt>
      <trkpt lat="29.60290149827635" lon="106.3164518512781">
        <ele>252.11639404296875</ele>
        <time>2026-09-13T23:16:32Z</time>
      </trkpt>
      <trkpt lat="29.60277966785653" lon="106.31638202982515">
        <ele>253.15191650390625</ele>
        <time>2026-09-13T23:16:44Z</time>
      </trkpt>
      <trkpt lat="29.602710700284543" lon="106.31637604865307">
        <ele>253.1761474609375</ele>
        <time>2026-09-13T23:16:50Z</time>
      </trkpt>
      <trkpt lat="29.602599626491" lon="106.31643291593849">
        <ele>252.8077392578125</ele>
        <time>2026-09-13T23:17:02Z</time>
      </trkpt>
      <trkpt lat="29.602515430989204" lon="106.31654963478275">
        <ele>252.48858642578125</ele>
        <time>2026-09-13T23:17:14Z</time>
      </trkpt>
      <trkpt lat="29.60251012611452" lon="106.316711238613">
        <ele>252.9696044921875</ele>
        <time>2026-09-13T23:17:26Z</time>
      </trkpt>
      <trkpt lat="29.6025417908388" lon="106.31688281552404">
        <ele>254.35406494140625</ele>
        <time>2026-09-13T23:17:38Z</time>
      </trkpt>
      <trkpt lat="29.60260050584336" lon="106.31702346655177">
        <ele>254.50067138671875</ele>
        <time>2026-09-13T23:17:50Z</time>
      </trkpt>
      <trkpt lat="29.60261335793301" lon="106.31709927952551">
        <ele>254.08612060546875</ele>
        <time>2026-09-13T23:17:56Z</time>
      </trkpt>
      <trkpt lat="29.602586074433724" lon="106.31725290363735">
        <ele>256.139892578125</ele>
        <time>2026-09-13T23:18:08Z</time>
      </trkpt>
      <trkpt lat="29.602553945875336" lon="106.31732572655466">
        <ele>257.251953125</ele>
        <time>2026-09-13T23:18:14Z</time>
      </trkpt>
      <trkpt lat="29.602383683189185" lon="106.31749132959374">
        <ele>256.90240478515625</ele>
        <time>2026-09-13T23:18:32Z</time>
      </trkpt>
      <trkpt lat="29.602107661513102" lon="106.31754720881085">
        <ele>256.86090087890625</ele>
        <time>2026-09-13T23:18:56Z</time>
      </trkpt>
      <trkpt lat="29.601970667466546" lon="106.3175661704386">
        <ele>258.1597900390625</ele>
        <time>2026-09-13T23:19:08Z</time>
      </trkpt>
      <trkpt lat="29.601919605337162" lon="106.31760707288744">
        <ele>257.82330322265625</ele>
        <time>2026-09-13T23:19:14Z</time>
      </trkpt>
      <trkpt lat="29.60188851620083" lon="106.31765894711828">
        <ele>256.07598876953125</ele>
        <time>2026-09-13T23:19:20Z</time>
      </trkpt>
      <trkpt lat="29.601904947324403" lon="106.31795521674553">
        <ele>256.2266845703125</ele>
        <time>2026-09-13T23:19:44Z</time>
      </trkpt>
      <trkpt lat="29.601878227781025" lon="106.31833727693473">
        <ele>258.3028564453125</ele>
        <time>2026-09-13T23:20:14Z</time>
      </trkpt>
      <trkpt lat="29.601862487067304" lon="106.31872831341104">
        <ele>255.457275390625</ele>
        <time>2026-09-13T23:20:44Z</time>
      </trkpt>
      <trkpt lat="29.601870742137148" lon="106.31911735248086">
        <ele>254.02081298828125</ele>
        <time>2026-09-13T23:21:14Z</time>
      </trkpt>
      <trkpt lat="29.60187359080423" lon="106.31919615765769">
        <ele>253.80535888671875</ele>
        <time>2026-09-13T23:21:20Z</time>
      </trkpt>
      <trkpt lat="29.60189544123768" lon="106.31927097151325">
        <ele>254.36798095703125</ele>
        <time>2026-09-13T23:21:26Z</time>
      </trkpt>
      <trkpt lat="29.601910763837" lon="106.31962310027833">
        <ele>254.0738525390625</ele>
        <time>2026-09-13T23:21:53Z</time>
      </trkpt>
      <trkpt lat="29.60193131135765" lon="106.31985652177464">
        <ele>255.67266845703125</ele>
        <time>2026-09-13T23:22:08Z</time>
      </trkpt>
      <trkpt lat="29.60191200827544" lon="106.32001812314114">
        <ele>257.46051025390625</ele>
        <time>2026-09-13T23:22:20Z</time>
      </trkpt>
      <trkpt lat="29.60196194526648" lon="106.32004305842013">
        <ele>258.5157470703125</ele>
        <time>2026-09-13T23:22:23Z</time>
      </trkpt>
      <trkpt lat="29.60219592124025" lon="106.32001810601173">
        <ele>257.2650146484375</ele>
        <time>2026-09-13T23:22:41Z</time>
      </trkpt>
      <trkpt lat="29.602211758038155" lon="106.32010090017354">
        <ele>258.6278076171875</ele>
        <time>2026-09-13T23:22:47Z</time>
      </trkpt>
      <trkpt lat="29.602197481905993" lon="106.32024753809382">
        <ele>256.9969482421875</ele>
        <time>2026-09-13T23:22:59Z</time>
      </trkpt>
      <trkpt lat="29.602181425753876" lon="106.32027946004233">
        <ele>256.4295654296875</ele>
        <time>2026-09-13T23:23:02Z</time>
      </trkpt>
    </trkseg>
  </trk>
</gpx>