<?xml version="1.0" encoding="UTF-8"?>
<gpx xmlns="http://www.topografix.com/GPX/1/1" xmlns:gpxtpx="http://www.garmin.com/xmlschemas/TrackPointExtension/v1" xmlns:xsi="http://www.w3.org/2001/XMLSchema-instance" xsi:schemaLocation="http://www.topografix.com/GPX/1/1 http://www.topografix.com/GPX/1/1/gpx.xsd" version="1.1" creator="gpx.py -- https://github.com/tkrajina/gpxpy">
  <trk>
    <name>gpx from keep</name>
    <type>Walk</type>
    <trkseg>
      <trkpt lat="29.60233064062695" lon="106.31752225672207">
        <ele>251.3929443359375</ele>
        <time>2026-10-05T23:12:35Z</time>
      </trkpt>
      <trkpt lat="29.602015661258715" lon="106.3175621775436">
        <ele>254.27801513671875</ele>
        <time>2026-10-05T23:13:05Z</time>
      </trkpt>
      <trkpt lat="29.601897610186434" lon="106.31760807175863">
        <ele>253.8363037109375</ele>
        <time>2026-10-05T23:13:17Z</time>
      </trkpt>
      <trkpt lat="29.60185540679377" lon="106.31772179444525">
        <ele>251.6865234375</ele>
        <time>2026-10-05T23:13:29Z</time>
      </trkpt>
      <trkpt lat="29.60186872859827" lon="106.31807592160851">
        <ele>252.42626953125</ele>
        <time>2026-10-05T23:13:59Z</time>
      </trkpt>
      <trkpt lat="29.601859455925993" lon="106.31822056575223">
        <ele>252.75958251953125</ele>
        <time>2026-10-05T23:14:11Z</time>
      </trkpt>
      <trkpt lat="29.60189122379433" lon="106.31833727615118">
        <ele>252.96942138671875</ele>
        <time>2026-10-05T23:14:23Z</time>
      </trkpt>
      <trkpt lat="29.60186556793685" lon="106.3186854190663">
        <ele>252.60101318359375</ele>
        <time>2026-10-05T23:14:53Z</time>
      </trkpt>
      <trkpt lat="29.60189204025353" lon="106.31895774532286">
        <ele>255.2044677734375</ele>
        <time>2026-10-05T23:15:17Z</time>
      </trkpt>
      <trkpt lat="29.60187651942915" lon="106.31923306630371">
        <ele>252.27685546875</ele>
        <time>2026-10-05T23:15:41Z</time>
      </trkpt>
      <trkpt lat="29.601910274749006" lon="106.31935576111246">
        <ele>256.7857666015625</ele>
        <time>2026-10-05T23:15:53Z</time>
      </trkpt>
      <trkpt lat="29.601899870114636" lon="106.31956923411198">
        <ele>258.1082763671875</ele>
        <time>2026-10-05T23:16:11Z</time>
      </trkpt>
      <trkpt lat="29.601919728679253" lon="106.3196400578086">
        <ele>255.3414306640625</ele>
        <time>2026-10-05T23:16:17Z</time>
      </trkpt>
      <trkpt lat="29.60192013549829" lon="106.31995029048225">
        <ele>255.71527099609375</ele>
        <time>2026-10-05T23:16:47Z</time>
      </trkpt>
      <trkpt lat="29.601923004902552" lon="106.32001812247768">
        <ele>255.3858642578125</ele>
        <time>2026-10-05T23:16:53Z</time>
      </trkpt>
      <trkpt lat="29.60198200588503" lon="106.32000814360043">
        <ele>255.48876953125</ele>
        <time>2026-10-05T23:16:59Z</time>
      </trkpt>
      <trkpt lat="29.60206816449715" lon="106.31991137779815">
        <ele>257.4052734375</ele>
        <time>2026-10-05T23:17:11Z</time>
      </trkpt>
      <trkpt lat="29.60226112062961" lon="106.319903385899">
        <ele>258.32867431640625</ele>
        <time>2026-10-05T23:17:29Z</time>
      </trkpt>
      <trkpt lat="29.60232605877956" lon="106.31992532768979">
        <ele>257.4515380859375</ele>
        <time>2026-10-05T23:17:35Z</time>
      </trkpt>
      <trkpt lat="29.602387064895726" lon="106.31991235609078">
        <ele>256.1865234375</ele>
        <time>2026-10-05T23:17:41Z</time>
      </trkpt>
      <trkpt lat="29.602439136689373" lon="106.31986646646236">
        <ele>255.42431640625</ele>
        <time>2026-10-05T23:17:47Z</time>
      </trkpt>
      <trkpt lat="29.60245926402314" lon="106.31979663796614">
        <ele>255.13629150390625</ele>
        <time>2026-10-05T23:17:53Z</time>
      </trkpt>
      <trkpt lat="29.60244564760191" lon="106.31959812967021">
        <ele>255.269775390625</ele>
        <time>2026-10-05T23:18:11Z</time>
      </trkpt>
      <trkpt lat="29.602482742991636" lon="106.31954226553498">
        <ele>254.99542236328125</ele>
        <time>2026-10-05T23:18:17Z</time>
      </trkpt>
      <trkpt lat="29.60254276274516" lon="106.31952231123296">
        <ele>254.57122802734375</ele>
        <time>2026-10-05T23:18:23Z</time>
      </trkpt>
      <trkpt lat="29.602851694962432" lon="106.31950832711937">
        <ele>253.298828125</ele>
        <time>2026-10-05T23:18:53Z</time>
      </trkpt>
      <trkpt lat="29.602936842367562" lon="106.31941754635105">
        <ele>248.8494873046875</ele>
        <time>2026-10-05T23:19:05Z</time>
      </trkpt>
      <trkpt lat="29.602950961907545" lon="106.31935270573607">
        <ele>247.543212890625</ele>
        <time>2026-10-05T23:19:11Z</time>
      </trkpt>
      <trkpt lat="29.602967499710786" lon="106.31906840705157">
        <ele>245.90478515625</ele>
        <time>2026-10-05T23:19:35Z</time>
      </trkpt>
      <trkpt lat="29.602934069575383" lon="106.31877513309303">
        <ele>249.98272705078125</ele>
        <time>2026-10-05T23:19:59Z</time>
      </trkpt>
      <trkpt lat="29.602921731507642" lon="106.31842998528484">
        <ele>251.345947265625</ele>
        <time>2026-10-05T23:20:29Z</time>
      </trkpt>
      <trkpt lat="29.602950237917696" lon="106.31815964994871">
        <ele>248.9990234375</ele>
        <time>2026-10-05T23:20:53Z</time>
      </trkpt>
      <trkpt lat="29.602940761278134" lon="106.3178863238108">
        <ele>249.513671875</ele>
        <time>2026-10-05T23:21:17Z</time>
      </trkpt>
      <trkpt lat="29.602946416245263" lon="106.31754117298229">
        <ele>249.532470703125</ele>
        <time>2026-10-05T23:21:47Z</time>
      </trkpt>
      <trkpt lat="29.602968044857878" lon="106.31720699340555">
        <ele>249.95025634765625</ele>
        <time>2026-10-05T23:22:17Z</time>
      </trkpt>
      <trkpt lat="29.60295871828241" lon="106.31685386143081">
        <ele>247.398681640625</ele>
        <time>2026-10-05T23:22:47Z</time>
      </trkpt>
      <trkpt lat="29.602924349461148" lon="106.31652666642233">
        <ele>251.27667236328125</ele>
        <time>2026-10-05T23:23:17Z</time>
      </trkpt>
      <trkpt lat="29.602885469137107" lon="106.31646980821279">
        <ele>252.14410400390625</ele>
        <time>2026-10-05T23:23:23Z</time>
      </trkpt>
      <trkpt lat="29.602834560329324" lon="106.31642990912296">
        <ele>252.45513916015625</ele>
        <time>2026-10-05T23:23:29Z</time>
      </trkpt>
      <trkpt lat="29.602713646449462" lon="106.31640397999858">
        <ele>251.295166015625</ele>
        <time>2026-10-05T23:23:41Z</time>
      </trkpt>
      <trkpt lat="29.60260758434915" lon="106.31645386409261">
        <ele>250.37310791015625</ele>
        <time>2026-10-05T23:23:53Z</time>
      </trkpt>
      <trkpt lat="29.602521253274073" lon="106.31664240684213">
        <ele>250.53790283203125</ele>
        <time>2026-10-05T23:24:11Z</time>
      </trkpt>
      <trkpt lat="29.602522020274378" lon="106.31676510568896">
        <ele>250.74176025390625</ele>
        <time>2026-10-05T23:24:23Z</time>
      </trkpt>
      <trkpt lat="29.60259439783607" lon="106.3170813247841">
        <ele>249.80010986328125</ele>
        <time>2026-10-05T23:24:53Z</time>
      </trkpt>
      <trkpt lat="29.60255801856606" lon="106.31728682195413">
        <ele>251.454833984375</ele>
        <time>2026-10-05T23:25:11Z</time>
      </trkpt>
      <trkpt lat="29.602492805307673" lon="106.31740952419891">
        <ele>250.71319580078125</ele>
        <time>2026-10-05T23:25:23Z</time>
      </trkpt>
      <trkpt lat="29.602378682823318" lon="106.31749232744139">
        <ele>250.67529296875</ele>
        <time>2026-10-05T23:25:35Z</time>
      </trkpt>
      <trkpt lat="29.602069618155898" lon="106.31757613993217">
        <ele>251.2994384765625</ele>
        <time>2026-10-05T23:26:05Z</time>
      </trkpt>
      <trkpt lat="29.60201066279129" lon="106.31756217784488">
        <ele>248.591064453125</ele>
        <time>2026-10-05T23:26:11Z</time>
      </trkpt>
      <trkpt lat="29.601946650167974" lon="106.3175791399807">
        <ele>250.0899658203125</ele>
        <time>2026-10-05T23:26:17Z</time>
      </trkpt>
      <trkpt lat="29.60188759049059" lon="106.317620042908">
        <ele>251.4207763671875</ele>
        <time>2026-10-05T23:26:23Z</time>
      </trkpt>
      <trkpt lat="29.601857373923387" lon="106.31773875258615">
        <ele>252.299560546875</ele>
        <time>2026-10-05T23:26:35Z</time>
      </trkpt>
      <trkpt lat="29.60188699651066" lon="106.3179322743324">
        <ele>252.84503173828125</ele>
        <time>2026-10-05T23:26:53Z</time>
      </trkpt>
      <trkpt lat="29.60185857971484" lon="106.31815572559375">
        <ele>253.63037109375</ele>
        <time>2026-10-05T23:27:12Z</time>
      </trkpt>
      <trkpt lat="29.60189184331123" lon="106.31853678414994">
        <ele>251.7293701171875</ele>
        <time>2026-10-05T23:27:42Z</time>
      </trkpt>
      <trkpt lat="29.601874549960616" lon="106.31869339883414">
        <ele>252.09600830078125</ele>
        <time>2026-10-05T23:27:54Z</time>
      </trkpt>
      <trkpt lat="29.601883865696074" lon="106.31905051674696">
        <ele>252.064453125</ele>
        <time>2026-10-05T23:28:24Z</time>
      </trkpt>
      <trkpt lat="29.601876591788308" lon="106.31919515994085">
        <ele>250.41253662109375</ele>
        <time>2026-10-05T23:28:36Z</time>
      </trkpt>
      <trkpt lat="29.601906340734505" lon="106.31932184515675">
        <ele>249.55950927734375</ele>
        <time>2026-10-05T23:28:48Z</time>
      </trkpt>
      <trkpt lat="29.60190265956311" lon="106.31967896264293">
        <ele>251.683349609375</ele>
        <time>2026-10-05T23:29:18Z</time>
      </trkpt>
      <trkpt lat="29.60191525334507" lon="106.31988944131308">
        <ele>250.87860107421875</ele>
        <time>2026-10-05T23:29:36Z</time>
      </trkpt>
      <trkpt lat="29.601907118508564" lon="106.31996126411985">
        <ele>251.051025390625</ele>
        <time>2026-10-05T23:29:42Z</time>
      </trkpt>
      <trkpt lat="29.601938006024714" lon="106.32001512897739">
        <ele>249.86920166015625</ele>
        <time>2026-10-05T23:29:48Z</time>
      </trkpt>
      <trkpt lat="29.601993076886586" lon="106.31996923918966">
        <ele>250.39208984375</ele>
        <time>2026-10-05T23:29:54Z</time>
      </trkpt>
      <trkpt lat="29.602025179582153" lon="106.3199103828592">
        <ele>250.73468017578125</ele>
        <time>2026-10-05T23:30:00Z</time>
      </trkpt>
      <trkpt lat="29.60231609425607" lon="106.31990837024362">
        <ele>253.2852783203125</ele>
        <time>2026-10-05T23:30:30Z</time>
      </trkpt>
      <trkpt lat="29.60237506856854" lon="106.31991235681454">
        <ele>252.62554931640625</ele>
        <time>2026-10-05T23:30:36Z</time>
      </trkpt>
      <trkpt lat="29.60242912068325" lon="106.31987644239071">
        <ele>253.130126953125</ele>
        <time>2026-10-05T23:30:42Z</time>
      </trkpt>
      <trkpt lat="29.60246537465629" lon="106.31973778315582">
        <ele>254.77294921875</ele>
        <time>2026-10-05T23:30:54Z</time>
      </trkpt>
      <trkpt lat="29.60243350643418" lon="106.31967394295286">
        <ele>254.0201416015625</ele>
        <time>2026-10-05T23:31:00Z</time>
      </trkpt>
      <trkpt lat="29.602434670024177" lon="106.31958815499472">
        <ele>253.4251708984375</ele>
        <time>2026-10-05T23:31:06Z</time>
      </trkpt>
      <trkpt lat="29.602472768916208" lon="106.31953029572796">
        <ele>253.9359130859375</ele>
        <time>2026-10-05T23:31:12Z</time>
      </trkpt>
      <trkpt lat="29.60279972799786" lon="106.31949935244621">
        <ele>255.52349853515625</ele>
        <time>2026-10-05T23:31:42Z</time>
      </trkpt>
      <trkpt lat="29.60286069602359" lon="106.31950633150801">
        <ele>255.5504150390625</ele>
        <time>2026-10-05T23:31:48Z</time>
      </trkpt>
      <trkpt lat="29.602908769001736" lon="106.31946044202971">
        <ele>251.954833984375</ele>
        <time>2026-10-05T23:31:54Z</time>
      </trkpt>
      <trkpt lat="29.602934858218056" lon="106.31940956619334">
        <ele>251.103759765625</ele>
        <time>2026-10-05T23:32:00Z</time>
      </trkpt>
      <trkpt lat="29.60294348229263" lon="106.31908137647429">
        <ele>250.95562744140625</ele>
        <time>2026-10-05T23:32:24Z</time>
      </trkpt>
      <trkpt lat="29.602938750291774" lon="106.31894172160405">
        <ele>250.61297607421875</ele>
        <time>2026-10-05T23:32:36Z</time>
      </trkpt>
      <trkpt lat="29.60290704357819" lon="106.31879309040875">
        <ele>249.9398193359375</ele>
        <time>2026-10-05T23:32:48Z</time>
      </trkpt>
      <trkpt lat="29.6029253024805" lon="106.31865443146226">
        <ele>250.308837890625</ele>
        <time>2026-10-05T23:33:00Z</time>
      </trkpt>
      <trkpt lat="29.60293297712042" lon="106.3182993067891">
        <ele>250.96368408203125</ele>
        <time>2026-10-05T23:33:30Z</time>
      </trkpt>
      <trkpt lat="29.602924268652867" lon="106.31814768101151">
        <ele>251.28857421875</ele>
        <time>2026-10-05T23:33:42Z</time>
      </trkpt>
      <trkpt lat="29.602951640217352" lon="106.31794817084672">
        <ele>248.107666015625</ele>
        <time>2026-10-05T23:34:00Z</time>
      </trkpt>
      <trkpt lat="29.60294521169926" lon="106.31764890797518">
        <ele>248.11334228515625</ele>
        <time>2026-10-05T23:34:24Z</time>
      </trkpt>
      <trkpt lat="29.602974900603026" lon="106.31728180909192">
        <ele>247.53912353515625</ele>
        <time>2026-10-05T23:34:54Z</time>
      </trkpt>
      <trkpt lat="29.602970508279824" lon="106.31696259371752">
        <ele>247.3646240234375</ele>
        <time>2026-10-05T23:35:18Z</time>
      </trkpt>
      <trkpt lat="29.60296808260783" lon="106.31666033586353">
        <ele>248.88470458984375</ele>
        <time>2026-10-05T23:35:42Z</time>
      </trkpt>
      <trkpt lat="29.60293236025303" lon="106.31651968306626">
        <ele>252.8236083984375</ele>
        <time>2026-10-05T23:35:54Z</time>
      </trkpt>
      <trkpt lat="29.602892493464132" lon="106.31645584203615">
        <ele>253.3895263671875</ele>
        <time>2026-10-05T23:36:00Z</time>
      </trkpt>
      <trkpt lat="29.602837587764686" lon="106.31641494562855">
        <ele>253.28106689453125</ele>
        <time>2026-10-05T23:36:06Z</time>
      </trkpt>
      <trkpt lat="29.602712612733857" lon="106.31642193603668">
        <ele>253.41094970703125</ele>
        <time>2026-10-05T23:36:18Z</time>
      </trkpt>
      <trkpt lat="29.60259851715537" lon="106.31649077412766">
        <ele>253.26025390625</ele>
        <time>2026-10-05T23:36:30Z</time>
      </trkpt>
      <trkpt lat="29.602556429793133" lon="106.31654364699365">
        <ele>253.3369140625</ele>
        <time>2026-10-05T23:36:36Z</time>
      </trkpt>
      <trkpt lat="29.602523197807535" lon="106.31667133574261">
        <ele>250.8687744140625</ele>
        <time>2026-10-05T23:36:48Z</time>
      </trkpt>
      <trkpt lat="29.602533925772242" lon="106.31681298743555">
        <ele>251.222900390625</ele>
        <time>2026-10-05T23:37:00Z</time>
      </trkpt>
      <trkpt lat="29.602594500103514" lon="106.31702745711199">
        <ele>252.270263671875</ele>
        <time>2026-10-05T23:37:18Z</time>
      </trkpt>
      <trkpt lat="29.602579212996293" lon="106.31718108058053">
        <ele>252.17816162109375</ele>
        <time>2026-10-05T23:37:30Z</time>
      </trkpt>
      <trkpt lat="29.602527967095465" lon="106.31731874528812">
        <ele>251.96673583984375</ele>
        <time>2026-10-05T23:37:39Z</time>
      </trkpt>
      <trkpt lat="29.602481839005048" lon="106.31739356410942">
        <ele>251.30401611328125</ele>
        <time>2026-10-05T23:37:45Z</time>
      </trkpt>
      <trkpt lat="29.602361703196458" lon="106.31748434809433">
        <ele>251.66015625</ele>
        <time>2026-10-05T23:37:57Z</time>
      </trkpt>
      <trkpt lat="29.602080700130053" lon="106.31753124970048">
        <ele>252.0865478515625</ele>
        <time>2026-10-05T23:38:21Z</time>
      </trkpt>
      <trkpt lat="29.602007724399375" lon="106.3175302565527">
        <ele>252.6717529296875</ele>
        <time>2026-10-05T23:38:27Z</time>
      </trkpt>
      <trkpt lat="29.601890644578564" lon="106.31759111390404">
        <ele>252.91058349609375</ele>
        <time>2026-10-05T23:38:39Z</time>
      </trkpt>
      <trkpt lat="29.601854532319432" lon="106.3176559565311">
        <ele>252.06683349609375</ele>
        <time>2026-10-05T23:38:45Z</time>
      </trkpt>
      <trkpt lat="29.60186996565207" lon="106.31795122868141">
        <ele>254.06207275390625</ele>
        <time>2026-10-05T23:39:09Z</time>
      </trkpt>
      <trkpt lat="29.6018582681217" lon="106.31831932240293">
        <ele>255.30596923828125</ele>
        <time>2026-10-05T23:39:39Z</time>
      </trkpt>
      <trkpt lat="29.601863984980575" lon="106.31846695804438">
        <ele>254.83660888671875</ele>
        <time>2026-10-05T23:39:51Z</time>
      </trkpt>
      <trkpt lat="29.601879850793893" lon="106.31853478979384">
        <ele>254.1298828125</ele>
        <time>2026-10-05T23:39:57Z</time>
      </trkpt>
      <trkpt lat="29.60185571934583" lon="106.31860761162338">
        <ele>253.73382568359375</ele>
        <time>2026-10-05T23:40:03Z</time>
      </trkpt>
      <trkpt lat="29.601866002550274" lon="106.31898168778314">
        <ele>253.50732421875</ele>
        <time>2026-10-05T23:40:33Z</time>
      </trkpt>
      <trkpt lat="29.601871467641647" lon="106.31926099760446">
        <ele>254.2838134765625</ele>
        <time>2026-10-05T23:40:57Z</time>
      </trkpt>
      <trkpt lat="29.601910364267546" lon="106.31930887695631">
        <ele>254.2574462890625</ele>
        <time>2026-10-05T23:41:03Z</time>
      </trkpt>
      <trkpt lat="29.601932102276507" lon="106.31944254532117">
        <ele>256.7950439453125</ele>
        <time>2026-10-05T23:41:15Z</time>
      </trkpt>
      <trkpt lat="29.60191366381382" lon="106.31967497184564">
        <ele>252.63531494140625</ele>
        <time>2026-10-05T23:41:33Z</time>
      </trkpt>
      <trkpt lat="29.601924229611797" lon="106.31990041362697">
        <ele>251.90814208984375</ele>
        <time>2026-10-05T23:41:51Z</time>
      </trkpt>
      <trkpt lat="29.60190909310503" lon="106.3199742319163">
        <ele>252.40264892578125</ele>
        <time>2026-10-05T23:41:57Z</time>
      </trkpt>
      <trkpt lat="29.601915963184485" lon="106.32004106613115">
        <ele>252.5186767578125</ele>
        <time>2026-10-05T23:42:03Z</time>
      </trkpt>
      <trkpt lat="29.601985964609472" lon="106.32002909152789">
        <ele>251.0390625</ele>
        <time>2026-10-05T23:42:09Z</time>
      </trkpt>
      <trkpt lat="29.60204102975567" lon="106.31998619433917">
        <ele>251.438720703125</ele>
        <time>2026-10-05T23:42:15Z</time>
      </trkpt>
      <trkpt lat="29.602177056735876" lon="106.3199502749818">
        <ele>246.82501220703125</ele>
        <time>2026-10-05T23:42:27Z</time>
      </trkpt>
      <trkpt lat="29.602194715559342" lon="106.32012583948402">
        <ele>248.49432373046875</ele>
        <time>2026-10-05T23:42:39Z</time>
      </trkpt>
    </trkseg>
  </trk>
</gpx>