<?xml version="1.0" encoding="UTF-8"?>
<gpx xmlns="http://www.topografix.com/GPX/1/1" xmlns:gpxtpx="http://www.garmin.com/xmlschemas/TrackPointExtension/v1" xmlns:xsi="http://www.w3.org/2001/XMLSchema-instance" xsi:schemaLocation="http://www.topografix.com/GPX/1/1 http://www.topografix.com/GPX/1/1/gpx.xsd" version="1.1" creator="gpx.py -- https://github.com/tkrajina/gpxpy">
  <trk>
    <name>gpx from keep</name>
    <type>Walk</type>
    <trkseg>
      <trkpt lat="29.601973420494144" lon="106.31979267714496">
        <ele>254.3526611328125</ele>
        <time>2026-07-27T22:57:24Z</time>
      </trkpt>
      <trkpt lat="29.602016104161113" lon="106.3199512822244">
        <ele>254.338623046875</ele>
        <time>2026-07-27T22:57:36Z</time>
      </trkpt>
      <trkpt lat="29.602280095744366" lon="106.31991336007658">
        <ele>258.04632568359375</ele>
        <time>2026-07-27T22:57:57Z</time>
      </trkpt>
      <trkpt lat="29.60234104274682" lon="106.31993131197862">
        <ele>258.9296875</ele>
        <time>2026-07-27T22:58:04Z</time>
      </trkpt>
      <trkpt lat="29.60240004756966" lon="106.31991933803292">
        <ele>258.628173828125</ele>
        <time>2026-07-27T22:58:10Z</time>
      </trkpt>
      <trkpt lat="29.602453113339354" lon="106.31987644094322">
        <ele>259.1412353515625</ele>
        <time>2026-07-27T22:58:15Z</time>
      </trkpt>
      <trkpt lat="29.60248026331701" lon="106.31979364410095">
        <ele>259.7213134765625</ele>
        <time>2026-07-27T22:58:21Z</time>
      </trkpt>
      <trkpt lat="29.602487554710944" lon="106.31964002355505">
        <ele>256.54302978515625</ele>
        <time>2026-07-27T22:58:33Z</time>
      </trkpt>
      <trkpt lat="29.602512699515227" lon="106.31956021933955">
        <ele>254.7861328125</ele>
        <time>2026-07-27T22:58:39Z</time>
      </trkpt>
      <trkpt lat="29.60257274975874" lon="106.31952430449233">
        <ele>252.77471923828125</ele>
        <time>2026-07-27T22:58:45Z</time>
      </trkpt>
      <trkpt lat="29.602824703211414" lon="106.31950832874757">
        <ele>257.101806640625</ele>
        <time>2026-07-27T22:59:09Z</time>
      </trkpt>
      <trkpt lat="29.60288972145984" lon="106.31948837414076">
        <ele>256.01226806640625</ele>
        <time>2026-07-27T22:59:15Z</time>
      </trkpt>
      <trkpt lat="29.60295095619334" lon="106.31935569834135">
        <ele>258.6334228515625</ele>
        <time>2026-07-27T22:59:24Z</time>
      </trkpt>
      <trkpt lat="29.602935366701264" lon="106.31914322421264">
        <ele>258.9420166015625</ele>
        <time>2026-07-27T22:59:42Z</time>
      </trkpt>
      <trkpt lat="29.6029536372284" lon="106.31899858031836">
        <ele>255.572509765625</ele>
        <time>2026-07-27T22:59:54Z</time>
      </trkpt>
      <trkpt lat="29.602922897897894" lon="106.31886690725324">
        <ele>253.2950439453125</ele>
        <time>2026-07-27T23:00:06Z</time>
      </trkpt>
      <trkpt lat="29.602927452102616" lon="106.31857562574449">
        <ele>248.15301513671875</ele>
        <time>2026-07-27T23:00:30Z</time>
      </trkpt>
      <trkpt lat="29.602946577493476" lon="106.31850679436388">
        <ele>249.04510498046875</ele>
        <time>2026-07-27T23:00:36Z</time>
      </trkpt>
      <trkpt lat="29.6029352254021" lon="106.31816862873029">
        <ele>252.138916015625</ele>
        <time>2026-07-27T23:01:06Z</time>
      </trkpt>
      <trkpt lat="29.602932359280977" lon="106.31809880096118">
        <ele>252.14617919921875</ele>
        <time>2026-07-27T23:01:12Z</time>
      </trkpt>
      <trkpt lat="29.602985867116796" lon="106.31782347583102">
        <ele>253.01898193359375</ele>
        <time>2026-07-27T23:01:36Z</time>
      </trkpt>
      <trkpt lat="29.60295954501676" lon="106.3174713439595">
        <ele>258.346923828125</ele>
        <time>2026-07-27T23:02:06Z</time>
      </trkpt>
      <trkpt lat="29.60295621712809" lon="106.31711821229486">
        <ele>257.294921875</ele>
        <time>2026-07-27T23:02:36Z</time>
      </trkpt>
      <trkpt lat="29.60295790215217" lon="106.31675709901381">
        <ele>254.833251953125</ele>
        <time>2026-07-27T23:03:06Z</time>
      </trkpt>
      <trkpt lat="29.60298201401625" lon="106.31669425179776">
        <ele>254.09521484375</ele>
        <time>2026-07-27T23:03:12Z</time>
      </trkpt>
      <trkpt lat="29.60297428313889" lon="106.31655359735082">
        <ele>255.29132080078125</ele>
        <time>2026-07-27T23:03:24Z</time>
      </trkpt>
      <trkpt lat="29.60293939970959" lon="106.31649773646603">
        <ele>255.3291015625</ele>
        <time>2026-07-27T23:03:30Z</time>
      </trkpt>
      <trkpt lat="29.602777628778856" lon="106.31640297858979">
        <ele>251.2144775390625</ele>
        <time>2026-07-27T23:03:49Z</time>
      </trkpt>
      <trkpt lat="29.60270467188033" lon="106.31639200988728">
        <ele>251.348388671875</ele>
        <time>2026-07-27T23:03:55Z</time>
      </trkpt>
      <trkpt lat="29.60258862985499" lon="106.31643291660097">
        <ele>250.5718994140625</ele>
        <time>2026-07-27T23:04:07Z</time>
      </trkpt>
      <trkpt lat="29.602544408881812" lon="106.31655661590881">
        <ele>249.27728271484375</ele>
        <time>2026-07-27T23:04:19Z</time>
      </trkpt>
      <trkpt lat="29.602556861960707" lon="106.31684291258476">
        <ele>251.642333984375</ele>
        <time>2026-07-27T23:04:43Z</time>
      </trkpt>
      <trkpt lat="29.602587598815084" lon="106.31697658249053">
        <ele>253.90045166015625</ele>
        <time>2026-07-27T23:04:55Z</time>
      </trkpt>
      <trkpt lat="29.60257918268281" lon="106.31719704135672">
        <ele>253.1927490234375</ele>
        <time>2026-07-27T23:05:13Z</time>
      </trkpt>
      <trkpt lat="29.60250183667767" lon="106.31739156781028">
        <ele>252.590087890625</ele>
        <time>2026-07-27T23:05:31Z</time>
      </trkpt>
      <trkpt lat="29.602452753086123" lon="106.31744344320154">
        <ele>253.51611328125</ele>
        <time>2026-07-27T23:05:37Z</time>
      </trkpt>
      <trkpt lat="29.60232966937835" lon="106.31750729358878">
        <ele>253.8607177734375</ele>
        <time>2026-07-27T23:05:49Z</time>
      </trkpt>
      <trkpt lat="29.602001748995338" lon="106.31751828636006">
        <ele>253.999755859375</ele>
        <time>2026-07-27T23:06:19Z</time>
      </trkpt>
      <trkpt lat="29.601943730744082" lon="106.31753724323161">
        <ele>252.61212158203125</ele>
        <time>2026-07-27T23:06:25Z</time>
      </trkpt>
      <trkpt lat="29.601891657549032" lon="106.31758413102354">
        <ele>253.1494140625</ele>
        <time>2026-07-27T23:06:31Z</time>
      </trkpt>
      <trkpt lat="29.601868545099244" lon="106.31764697777967">
        <ele>254.006103515625</ele>
        <time>2026-07-27T23:06:37Z</time>
      </trkpt>
      <trkpt lat="29.601885856316" lon="106.31800609259093">
        <ele>254.5313720703125</ele>
        <time>2026-07-27T23:07:07Z</time>
      </trkpt>
      <trkpt lat="29.60187915335426" lon="106.31837618096496">
        <ele>254.009033203125</ele>
        <time>2026-07-27T23:07:37Z</time>
      </trkpt>
      <trkpt lat="29.601896870297455" lon="106.31852182075247">
        <ele>254.2275390625</ele>
        <time>2026-07-27T23:07:49Z</time>
      </trkpt>
      <trkpt lat="29.60186160720258" lon="106.31866546852986">
        <ele>254.8270263671875</ele>
        <time>2026-07-27T23:08:01Z</time>
      </trkpt>
      <trkpt lat="29.601868220783118" lon="106.31886697085534">
        <ele>252.97271728515625</ele>
        <time>2026-07-27T23:08:19Z</time>
      </trkpt>
      <trkpt lat="29.601850797768584" lon="106.31909141773878">
        <ele>253.03485107421875</ele>
        <time>2026-07-27T23:08:37Z</time>
      </trkpt>
      <trkpt lat="29.60188839577278" lon="106.31929591032271">
        <ele>252.08599853515625</ele>
        <time>2026-07-27T23:08:55Z</time>
      </trkpt>
      <trkpt lat="29.601924239979887" lon="106.31937172082944">
        <ele>252.654541015625</ele>
        <time>2026-07-27T23:09:01Z</time>
      </trkpt>
      <trkpt lat="29.601914943639173" lon="106.31952833430843">
        <ele>256.181396484375</ele>
        <time>2026-07-27T23:09:13Z</time>
      </trkpt>
      <trkpt lat="29.601922319836866" lon="106.31985352971958">
        <ele>257.2587890625</ele>
        <time>2026-07-27T23:09:37Z</time>
      </trkpt>
      <trkpt lat="29.601924065621798" lon="106.31998620139588">
        <ele>255.70660400390625</ele>
        <time>2026-07-27T23:09:49Z</time>
      </trkpt>
      <trkpt lat="29.60195393818309" lon="106.32004804656124">
        <ele>255.2642822265625</ele>
        <time>2026-07-27T23:09:55Z</time>
      </trkpt>
      <trkpt lat="29.602131933216864" lon="106.32002209999922">
        <ele>251.4891357421875</ele>
        <time>2026-07-27T23:10:13Z</time>
      </trkpt>
      <trkpt lat="29.602183905844548" lon="106.32002808205368">
        <ele>252.1826171875</ele>
        <time>2026-07-27T23:10:19Z</time>
      </trkpt>
      <trkpt lat="29.602224645330605" lon="106.32015775867521">
        <ele>251.66265869140625</ele>
        <time>2026-07-27T23:10:31Z</time>
      </trkpt>
      <trkpt lat="29.602262580280595" lon="106.32018568725492">
        <ele>251.7848557613402</ele>
        <time>2026-07-27T23:11:01Z</time>
      </trkpt>
      <trkpt lat="29.601844878150498" lon="106.32009693218393">
        <ele>253.2337646484375</ele>
        <time>2026-07-27T23:11:13Z</time>
      </trkpt>
      <trkpt lat="29.602204681976637" lon="106.32014179938179">
        <ele>252.20131453366596</ele>
        <time>2026-07-27T23:11:22Z</time>
      </trkpt>
      <trkpt lat="29.601812832650847" lon="106.32012586252527">
        <ele>258.394775390625</ele>
        <time>2026-07-27T23:11:34Z</time>
      </trkpt>
      <trkpt lat="29.601768933889055" lon="106.320079978732">
        <ele>259.84368896484375</ele>
        <time>2026-07-27T23:11:40Z</time>
      </trkpt>
      <trkpt lat="29.601991884574407" lon="106.3200699899657">
        <ele>260.1531382056748</ele>
        <time>2026-07-27T23:12:01Z</time>
      </trkpt>
      <trkpt lat="29.602003974348957" lon="106.32002111018771">
        <ele>260.86978363486287</ele>
        <time>2026-07-27T23:12:10Z</time>
      </trkpt>
    </trkseg>
  </trk>
</gpx>