<?xml version="1.0" encoding="UTF-8"?>
<gpx xmlns="http://www.topografix.com/GPX/1/1" xmlns:gpxtpx="http://www.garmin.com/xmlschemas/TrackPointExtension/v1" xmlns:xsi="http://www.w3.org/2001/XMLSchema-instance" xsi:schemaLocation="http://www.topografix.com/GPX/1/1 http://www.topografix.com/GPX/1/1/gpx.xsd" version="1.1" creator="gpx.py -- https://github.com/tkrajina/gpxpy">
  <trk>
    <name>gpx from keep</name>
    <type>Walk</type>
    <trkseg>
      <trkpt lat="29.601897358390445" lon="106.31879015868147">
        <ele>259.943115234375</ele>
        <time>2026-09-14T23:17:33Z</time>
      </trkpt>
      <trkpt lat="29.601885655669804" lon="106.31916024563611">
        <ele>256.33697509765625</ele>
        <time>2026-09-14T23:18:09Z</time>
      </trkpt>
      <trkpt lat="29.601910398548984" lon="106.31929092131898">
        <ele>253.8055419921875</ele>
        <time>2026-09-14T23:18:21Z</time>
      </trkpt>
      <trkpt lat="29.6019170935402" lon="106.31944952896818">
        <ele>254.419677734375</ele>
        <time>2026-09-14T23:18:33Z</time>
      </trkpt>
      <trkpt lat="29.601876269937293" lon="106.31936374344333">
        <ele>254.6197509765625</ele>
        <time>2026-09-14T23:18:42Z</time>
      </trkpt>
      <trkpt lat="29.601857439560433" lon="106.3192779565533">
        <ele>254.101318359375</ele>
        <time>2026-09-14T23:18:48Z</time>
      </trkpt>
      <trkpt lat="29.601814576529925" lon="106.31921311932558">
        <ele>255.82696533203125</ele>
        <time>2026-09-14T23:18:54Z</time>
      </trkpt>
      <trkpt lat="29.60180872878867" lon="106.31913431433675">
        <ele>256.138671875</ele>
        <time>2026-09-14T23:19:00Z</time>
      </trkpt>
      <trkpt lat="29.601864423679714" lon="106.31876123206018">
        <ele>258.2261962890625</ele>
        <time>2026-09-14T23:19:30Z</time>
      </trkpt>
      <trkpt lat="29.60185308530037" lon="106.31841608415375">
        <ele>253.7645263671875</ele>
        <time>2026-09-14T23:20:00Z</time>
      </trkpt>
      <trkpt lat="29.60184174447601" lon="106.31807193306547">
        <ele>252.40460205078125</ele>
        <time>2026-09-14T23:20:30Z</time>
      </trkpt>
      <trkpt lat="29.601893015553713" lon="106.31792130099241">
        <ele>254.04266357421875</ele>
        <time>2026-09-14T23:20:42Z</time>
      </trkpt>
      <trkpt lat="29.601897562763828" lon="106.31763301039679">
        <ele>253.523193359375</ele>
        <time>2026-09-14T23:21:06Z</time>
      </trkpt>
      <trkpt lat="29.60191269852564" lon="106.3175591911118">
        <ele>253.13531494140625</ele>
        <time>2026-09-14T23:21:12Z</time>
      </trkpt>
      <trkpt lat="29.60195978273037" lon="106.31750731588176">
        <ele>252.31976318359375</ele>
        <time>2026-09-14T23:21:18Z</time>
      </trkpt>
      <trkpt lat="29.602080825283483" lon="106.31746541164101">
        <ele>252.096435546875</ele>
        <time>2026-09-14T23:21:30Z</time>
      </trkpt>
      <trkpt lat="29.602349748584597" lon="106.31746240279388">
        <ele>253.901123046875</ele>
        <time>2026-09-14T23:21:54Z</time>
      </trkpt>
      <trkpt lat="29.602468850565295" lon="106.31738957470431">
        <ele>253.437255859375</ele>
        <time>2026-09-14T23:22:06Z</time>
      </trkpt>
      <trkpt lat="29.602512937567703" lon="106.31733670204738">
        <ele>252.796630859375</ele>
        <time>2026-09-14T23:22:12Z</time>
      </trkpt>
      <trkpt lat="29.602573305763283" lon="106.3171331986024">
        <ele>254.83660888671875</ele>
        <time>2026-09-14T23:22:30Z</time>
      </trkpt>
      <trkpt lat="29.602571582880667" lon="106.31698755650449">
        <ele>252.59527587890625</ele>
        <time>2026-09-14T23:22:42Z</time>
      </trkpt>
      <trkpt lat="29.60250997853129" lon="106.31678904764863">
        <ele>251.708740234375</ele>
        <time>2026-09-14T23:23:01Z</time>
      </trkpt>
      <trkpt lat="29.602514249741038" lon="106.3166453999214">
        <ele>253.6954345703125</ele>
        <time>2026-09-14T23:23:13Z</time>
      </trkpt>
      <trkpt lat="29.60256750962096" lon="106.31649975397788">
        <ele>253.1103515625</ele>
        <time>2026-09-14T23:23:25Z</time>
      </trkpt>
      <trkpt lat="29.602670670934515" lon="106.31639799726172">
        <ele>253.85272216796875</ele>
        <time>2026-09-14T23:23:37Z</time>
      </trkpt>
      <trkpt lat="29.60272969825658" lon="106.31637405239957">
        <ele>254.33935546875</ele>
        <time>2026-09-14T23:23:43Z</time>
      </trkpt>
      <trkpt lat="29.602853596106897" lon="106.3164079617846">
        <ele>255.097412109375</ele>
        <time>2026-09-14T23:23:55Z</time>
      </trkpt>
      <trkpt lat="29.603001250312097" lon="106.31656656391591">
        <ele>255.4676513671875</ele>
        <time>2026-09-14T23:24:13Z</time>
      </trkpt>
      <trkpt lat="29.602970602938797" lon="106.31691271620109">
        <ele>252.2894287109375</ele>
        <time>2026-09-14T23:24:43Z</time>
      </trkpt>
      <trkpt lat="29.602970328388686" lon="106.31705736094833">
        <ele>252.4119873046875</ele>
        <time>2026-09-14T23:24:55Z</time>
      </trkpt>
      <trkpt lat="29.602986192813454" lon="106.3171261908794">
        <ele>251.9781494140625</ele>
        <time>2026-09-14T23:25:01Z</time>
      </trkpt>
      <trkpt lat="29.603069951189024" lon="106.31723990635288">
        <ele>248.227783203125</ele>
        <time>2026-09-14T23:25:13Z</time>
      </trkpt>
      <trkpt lat="29.603049365831204" lon="106.31755114223614">
        <ele>249.4229736328125</ele>
        <time>2026-09-14T23:25:37Z</time>
      </trkpt>
      <trkpt lat="29.603013663053076" lon="106.31792622115556">
        <ele>247.81829833984375</ele>
        <time>2026-09-14T23:26:07Z</time>
      </trkpt>
      <trkpt lat="29.602954253792287" lon="106.31815067182957">
        <ele>249.9632568359375</ele>
        <time>2026-09-14T23:26:25Z</time>
      </trkpt>
      <trkpt lat="29.602964562490605" lon="106.31851178097803">
        <ele>250.32708740234375</ele>
        <time>2026-09-14T23:26:55Z</time>
      </trkpt>
      <trkpt lat="29.602948886151907" lon="106.31886890076123">
        <ele>252.034423828125</ele>
        <time>2026-09-14T23:27:25Z</time>
      </trkpt>
      <trkpt lat="29.602963462859325" lon="106.31908835802417">
        <ele>254.2708740234375</ele>
        <time>2026-09-14T23:27:43Z</time>
      </trkpt>
      <trkpt lat="29.60298131457511" lon="106.31916317216236">
        <ele>252.7637939453125</ele>
        <time>2026-09-14T23:27:49Z</time>
      </trkpt>
      <trkpt lat="29.60301518994767" lon="106.31922302226921">
        <ele>252.10467529296875</ele>
        <time>2026-09-14T23:27:55Z</time>
      </trkpt>
      <trkpt lat="29.603017930021178" lon="106.31935868690648">
        <ele>254.0904541015625</ele>
        <time>2026-09-14T23:28:07Z</time>
      </trkpt>
      <trkpt lat="29.6029736615108" lon="106.31950632469368">
        <ele>255.173095703125</ele>
        <time>2026-09-14T23:28:19Z</time>
      </trkpt>
      <trkpt lat="29.602923579604425" lon="106.31955720195216">
        <ele>252.49114990234375</ele>
        <time>2026-09-14T23:28:25Z</time>
      </trkpt>
      <trkpt lat="29.602843564025214" lon="106.31957815499062">
        <ele>248.13604736328125</ele>
        <time>2026-09-14T23:28:31Z</time>
      </trkpt>
      <trkpt lat="29.60261565657976" lon="106.31956619833238">
        <ele>252.20843505859375</ele>
        <time>2026-09-14T23:28:49Z</time>
      </trkpt>
      <trkpt lat="29.6025466452873" lon="106.31958316057097">
        <ele>252.04583740234375</ele>
        <time>2026-09-14T23:28:55Z</time>
      </trkpt>
      <trkpt lat="29.602493556686916" lon="106.31963802812592">
        <ele>253.16009521484375</ele>
        <time>2026-09-14T23:29:01Z</time>
      </trkpt>
      <trkpt lat="29.602478431673816" lon="106.31970586130794">
        <ele>251.90142822265625</ele>
        <time>2026-09-14T23:29:07Z</time>
      </trkpt>
      <trkpt lat="29.602471165029346" lon="106.31984651388049">
        <ele>252.24053955078125</ele>
        <time>2026-09-14T23:29:19Z</time>
      </trkpt>
      <trkpt lat="29.602431064777427" lon="106.31990537071059">
        <ele>250.1859130859375</ele>
        <time>2026-09-14T23:29:25Z</time>
      </trkpt>
      <trkpt lat="29.602298042563103" lon="106.31993829729768">
        <ele>247.87738037109375</ele>
        <time>2026-09-14T23:29:37Z</time>
      </trkpt>
      <trkpt lat="29.60208914280794" lon="106.31991935679018">
        <ele>252.45880126953125</ele>
        <time>2026-09-14T23:29:55Z</time>
      </trkpt>
      <trkpt lat="29.602042077123276" lon="106.31996125597757">
        <ele>252.08349609375</ele>
        <time>2026-09-14T23:30:01Z</time>
      </trkpt>
      <trkpt lat="29.60208496096728" lon="106.32001512011115">
        <ele>254.165771484375</ele>
        <time>2026-09-14T23:30:07Z</time>
      </trkpt>
      <trkpt lat="29.602163972997822" lon="106.31999616224019">
        <ele>255.97222900390625</ele>
        <time>2026-09-14T23:30:13Z</time>
      </trkpt>
      <trkpt lat="29.602201858373263" lon="106.32005002666635">
        <ele>254.38751220703125</ele>
        <time>2026-09-14T23:30:19Z</time>
      </trkpt>
      <trkpt lat="29.602194717466805" lon="106.32012484195268">
        <ele>255.9256591796875</ele>
        <time>2026-09-14T23:30:25Z</time>
      </trkpt>
      <trkpt lat="29.602213562855717" lon="106.32020264823821">
        <ele>256.727294921875</ele>
        <time>2026-09-14T23:30:31Z</time>
      </trkpt>
      <trkpt lat="29.602305383965042" lon="106.32028144762371">
        <ele>255.55474853515625</ele>
        <time>2026-09-14T23:30:43Z</time>
      </trkpt>
    </trkseg>
  </trk>
</gpx>