<?xml version="1.0" encoding="UTF-8"?>
<gpx xmlns="http://www.topografix.com/GPX/1/1" xmlns:gpxtpx="http://www.garmin.com/xmlschemas/TrackPointExtension/v1" xmlns:xsi="http://www.w3.org/2001/XMLSchema-instance" xsi:schemaLocation="http://www.topografix.com/GPX/1/1 http://www.topografix.com/GPX/1/1/gpx.xsd" version="1.1" creator="gpx.py -- https://github.com/tkrajina/gpxpy">
  <trk>
    <name>gpx from keep</name>
    <type>Walk</type>
    <trkseg>
      <trkpt lat="29.60246020271196" lon="106.31982855895559">
        <ele>262.9664306640625</ele>
        <time>2026-09-08T22:55:22Z</time>
      </trkpt>
      <trkpt lat="29.60248031478709" lon="106.319766710711">
        <ele>262.5245361328125</ele>
        <time>2026-09-08T22:55:28Z</time>
      </trkpt>
      <trkpt lat="29.602453578454117" lon="106.3196330428698">
        <ele>261.171142578125</ele>
        <time>2026-09-08T22:55:40Z</time>
      </trkpt>
      <trkpt lat="29.60245870269747" lon="106.3195672053342">
        <ele>263.02294921875</ele>
        <time>2026-09-08T22:55:46Z</time>
      </trkpt>
      <trkpt lat="29.602492797093863" lon="106.31951233890545">
        <ele>260.3111572265625</ele>
        <time>2026-09-08T22:55:52Z</time>
      </trkpt>
      <trkpt lat="29.602802738512807" lon="106.31949336705911">
        <ele>254.9193115234375</ele>
        <time>2026-09-08T22:56:13Z</time>
      </trkpt>
      <trkpt lat="29.602916907528243" lon="106.3193866239768">
        <ele>253.7320556640625</ele>
        <time>2026-09-08T22:56:25Z</time>
      </trkpt>
      <trkpt lat="29.60294633668682" lon="106.31915718905593">
        <ele>256.3056640625</ele>
        <time>2026-09-08T22:56:43Z</time>
      </trkpt>
      <trkpt lat="29.602937946592707" lon="106.31883897528971">
        <ele>252.69512939453125</ele>
        <time>2026-09-08T22:57:07Z</time>
      </trkpt>
      <trkpt lat="29.602945222196727" lon="106.31869333427214">
        <ele>249.23876953125</ele>
        <time>2026-09-08T22:57:19Z</time>
      </trkpt>
      <trkpt lat="29.602968363517853" lon="106.31861552484575">
        <ele>248.83770751953125</ele>
        <time>2026-09-08T22:57:25Z</time>
      </trkpt>
      <trkpt lat="29.602971547044394" lon="106.31851876333465">
        <ele>249.136962890625</ele>
        <time>2026-09-08T22:57:31Z</time>
      </trkpt>
      <trkpt lat="29.60292322336811" lon="106.31817162207928">
        <ele>248.409423828125</ele>
        <time>2026-09-08T22:58:01Z</time>
      </trkpt>
      <trkpt lat="29.602919807554052" lon="106.31786537665651">
        <ele>251.225830078125</ele>
        <time>2026-09-08T22:58:25Z</time>
      </trkpt>
      <trkpt lat="29.602962443598752" lon="106.31752421373459">
        <ele>249.79656982421875</ele>
        <time>2026-09-08T22:58:49Z</time>
      </trkpt>
      <trkpt lat="29.60297216109674" lon="106.31714514515164">
        <ele>248.273681640625</ele>
        <time>2026-09-08T22:59:19Z</time>
      </trkpt>
      <trkpt lat="29.602966782080298" lon="106.31681894666112">
        <ele>247.27667236328125</ele>
        <time>2026-09-08T22:59:43Z</time>
      </trkpt>
      <trkpt lat="29.60296392870128" lon="106.31674213537643">
        <ele>248.117919921875</ele>
        <time>2026-09-08T22:59:49Z</time>
      </trkpt>
      <trkpt lat="29.60291306724737" lon="106.31667729756614">
        <ele>251.370849609375</ele>
        <time>2026-09-08T22:59:55Z</time>
      </trkpt>
      <trkpt lat="29.602920375262247" lon="106.31651369846792">
        <ele>254.87548828125</ele>
        <time>2026-09-08T23:00:07Z</time>
      </trkpt>
      <trkpt lat="29.60289147297556" lon="106.31646681518976">
        <ele>256.272216796875</ele>
        <time>2026-09-08T23:00:13Z</time>
      </trkpt>
      <trkpt lat="29.602841561970997" lon="106.31642791359299">
        <ele>254.5205078125</ele>
        <time>2026-09-08T23:00:19Z</time>
      </trkpt>
      <trkpt lat="29.602706631578812" lon="106.3164129584094">
        <ele>252.5960693359375</ele>
        <time>2026-09-08T23:00:31Z</time>
      </trkpt>
      <trkpt lat="29.602646596997495" lon="106.31644089354103">
        <ele>253.1322021484375</ele>
        <time>2026-09-08T23:00:37Z</time>
      </trkpt>
      <trkpt lat="29.60259852282698" lon="106.31648778146646">
        <ele>253.38421630859375</ele>
        <time>2026-09-08T23:00:43Z</time>
      </trkpt>
      <trkpt lat="29.6025462607583" lon="106.3166344249157">
        <ele>254.43927001953125</ele>
        <time>2026-09-08T23:00:55Z</time>
      </trkpt>
      <trkpt lat="29.60255695658515" lon="106.31679303502335">
        <ele>254.0325927734375</ele>
        <time>2026-09-08T23:01:07Z</time>
      </trkpt>
      <trkpt lat="29.602618540104764" lon="106.31700251692197">
        <ele>251.736083984375</ele>
        <time>2026-09-08T23:01:25Z</time>
      </trkpt>
      <trkpt lat="29.6025831265127" lon="106.31722597001796">
        <ele>250.30792236328125</ele>
        <time>2026-09-08T23:01:43Z</time>
      </trkpt>
      <trkpt lat="29.602462793632302" lon="106.31742049902255">
        <ele>248.43963623046875</ele>
        <time>2026-09-08T23:02:01Z</time>
      </trkpt>
      <trkpt lat="29.602401738356715" lon="106.31745940702103">
        <ele>246.858154296875</ele>
        <time>2026-09-08T23:02:07Z</time>
      </trkpt>
      <trkpt lat="29.60212473026481" lon="106.31750830348663">
        <ele>247.8975830078125</ele>
        <time>2026-09-08T23:02:31Z</time>
      </trkpt>
      <trkpt lat="29.601973744303912" lon="106.31752527087049">
        <ele>251.37933349609375</ele>
        <time>2026-09-08T23:02:43Z</time>
      </trkpt>
      <trkpt lat="29.60188458571987" lon="106.31762303572532">
        <ele>253.01910400390625</ele>
        <time>2026-09-08T23:02:55Z</time>
      </trkpt>
      <trkpt lat="29.60188306607958" lon="106.31789636300475">
        <ele>251.28106689453125</ele>
        <time>2026-09-08T23:03:19Z</time>
      </trkpt>
      <trkpt lat="29.601900925767463" lon="106.31796718750583">
        <ele>250.266845703125</ele>
        <time>2026-09-08T23:03:25Z</time>
      </trkpt>
      <trkpt lat="29.601896243165438" lon="106.31832630289955">
        <ele>251.6563720703125</ele>
        <time>2026-09-08T23:03:55Z</time>
      </trkpt>
      <trkpt lat="29.60189610442583" lon="106.31839912337396">
        <ele>251.7840576171875</ele>
        <time>2026-09-08T23:04:01Z</time>
      </trkpt>
      <trkpt lat="29.601864978970802" lon="106.31846995060442">
        <ele>252.00836181640625</ele>
        <time>2026-09-08T23:04:07Z</time>
      </trkpt>
      <trkpt lat="29.601867561617482" lon="106.31868841156216">
        <ele>252.13861083984375</ele>
        <time>2026-09-08T23:04:43Z</time>
      </trkpt>
      <trkpt lat="29.601890882584538" lon="106.31904054095712">
        <ele>249.85009765625</ele>
        <time>2026-09-08T23:05:13Z</time>
      </trkpt>
      <trkpt lat="29.601884503645834" lon="106.31924004857156">
        <ele>252.513427734375</ele>
        <time>2026-09-08T23:05:31Z</time>
      </trkpt>
      <trkpt lat="29.6019123769861" lon="106.31930189408807">
        <ele>253.876220703125</ele>
        <time>2026-09-08T23:05:37Z</time>
      </trkpt>
      <trkpt lat="29.601922845912014" lon="106.31957821053096">
        <ele>252.9697265625</ele>
        <time>2026-09-08T23:06:01Z</time>
      </trkpt>
      <trkpt lat="29.601938154768476" lon="106.31993732147811">
        <ele>256.62744140625</ele>
        <time>2026-09-08T23:06:31Z</time>
      </trkpt>
      <trkpt lat="29.601935020294153" lon="106.3200081464352">
        <ele>258.2108154296875</ele>
        <time>2026-09-08T23:06:37Z</time>
      </trkpt>
      <trkpt lat="29.60212400432218" lon="106.3199861893331">
        <ele>260.8603515625</ele>
        <time>2026-09-08T23:06:58Z</time>
      </trkpt>
      <trkpt lat="29.60219194535052" lon="106.32000613587057">
        <ele>260.1881103515625</ele>
        <time>2026-09-08T23:07:04Z</time>
      </trkpt>
      <trkpt lat="29.602185802241333" lon="106.32008194864325">
        <ele>258.8050537109375</ele>
        <time>2026-09-08T23:07:10Z</time>
      </trkpt>
      <trkpt lat="29.60222056452728" lon="106.32020065275397">
        <ele>258.057861328125</ele>
        <time>2026-09-08T23:07:22Z</time>
      </trkpt>
      <trkpt lat="29.6022445209304" lon="106.32021960439464">
        <ele>258.0487060546875</ele>
        <time>2026-09-08T23:07:25Z</time>
      </trkpt>
    </trkseg>
  </trk>
</gpx>