<?xml version="1.0" encoding="UTF-8"?>
<gpx xmlns="http://www.topografix.com/GPX/1/1" xmlns:gpxtpx="http://www.garmin.com/xmlschemas/TrackPointExtension/v1" xmlns:xsi="http://www.w3.org/2001/XMLSchema-instance" xsi:schemaLocation="http://www.topografix.com/GPX/1/1 http://www.topografix.com/GPX/1/1/gpx.xsd" version="1.1" creator="gpx.py -- https://github.com/tkrajina/gpxpy">
  <trk>
    <name>gpx from keep</name>
    <type>Walk</type>
    <trkseg>
      <trkpt lat="29.602580557406153" lon="106.31699952656146">
        <ele>254.6513671875</ele>
        <time>2026-10-04T23:23:47Z</time>
      </trkpt>
      <trkpt lat="29.60259231700084" lon="106.31712421951728">
        <ele>252.562255859375</ele>
        <time>2026-10-04T23:23:56Z</time>
      </trkpt>
      <trkpt lat="29.602548945509326" lon="106.31732672440344">
        <ele>254.828369140625</ele>
        <time>2026-10-04T23:24:14Z</time>
      </trkpt>
      <trkpt lat="29.60245973767231" lon="106.31745042560668">
        <ele>252.1112060546875</ele>
        <time>2026-10-04T23:24:26Z</time>
      </trkpt>
      <trkpt lat="29.60234363285453" lon="106.31752425103114">
        <ele>250.73699951171875</ele>
        <time>2026-10-04T23:24:38Z</time>
      </trkpt>
      <trkpt lat="29.602025637330737" lon="106.31757314994579">
        <ele>254.0054931640625</ele>
        <time>2026-10-04T23:25:08Z</time>
      </trkpt>
      <trkpt lat="29.60195866545554" lon="106.31756916379926">
        <ele>255.4678955078125</ele>
        <time>2026-10-04T23:25:14Z</time>
      </trkpt>
      <trkpt lat="29.601897587423988" lon="106.31762004230546">
        <ele>256.09912109375</ele>
        <time>2026-10-04T23:25:20Z</time>
      </trkpt>
      <trkpt lat="29.601872492650507" lon="106.3176739112606">
        <ele>253.423828125</ele>
        <time>2026-10-04T23:25:26Z</time>
      </trkpt>
      <trkpt lat="29.601879213461096" lon="106.31781955236208">
        <ele>251.520751953125</ele>
        <time>2026-10-04T23:25:38Z</time>
      </trkpt>
      <trkpt lat="29.601852940488044" lon="106.31796719039842">
        <ele>251.43365478515625</ele>
        <time>2026-10-04T23:25:50Z</time>
      </trkpt>
      <trkpt lat="29.601868494961945" lon="106.31819861929257">
        <ele>251.9464111328125</ele>
        <time>2026-10-04T23:26:08Z</time>
      </trkpt>
      <trkpt lat="29.60189334289859" lon="106.3182744309417">
        <ele>252.4630126953125</ele>
        <time>2026-10-04T23:26:14Z</time>
      </trkpt>
      <trkpt lat="29.6019018972827" lon="106.31850685735364">
        <ele>251.33648681640625</ele>
        <time>2026-10-04T23:26:32Z</time>
      </trkpt>
      <trkpt lat="29.601868460498487" lon="106.31874128105028">
        <ele>254.60919189453125</ele>
        <time>2026-10-04T23:26:50Z</time>
      </trkpt>
      <trkpt lat="29.601879746992214" lon="106.31911336179265">
        <ele>251.17486572265625</ele>
        <time>2026-10-04T23:27:20Z</time>
      </trkpt>
      <trkpt lat="29.601878480729752" lon="106.3192530168973">
        <ele>249.93756103515625</ele>
        <time>2026-10-04T23:27:32Z</time>
      </trkpt>
      <trkpt lat="29.601920201204706" lon="106.31939266930513">
        <ele>253.3671875</ele>
        <time>2026-10-04T23:27:44Z</time>
      </trkpt>
      <trkpt lat="29.601914804535838" lon="106.31960115429345">
        <ele>257.4017333984375</ele>
        <time>2026-10-04T23:28:02Z</time>
      </trkpt>
      <trkpt lat="29.601893664228903" lon="106.31967796565222">
        <ele>256.288330078125</ele>
        <time>2026-10-04T23:28:08Z</time>
      </trkpt>
      <trkpt lat="29.601891508543467" lon="106.31975976350142">
        <ele>257.3936767578125</ele>
        <time>2026-10-04T23:28:14Z</time>
      </trkpt>
      <trkpt lat="29.60191635218104" lon="106.31983756955887">
        <ele>255.657958984375</ele>
        <time>2026-10-04T23:28:20Z</time>
      </trkpt>
      <trkpt lat="29.601903056804904" lon="106.31999418291828">
        <ele>255.9881591796875</ele>
        <time>2026-10-04T23:28:32Z</time>
      </trkpt>
      <trkpt lat="29.601970003842453" lon="106.32001113691985">
        <ele>256.1607666015625</ele>
        <time>2026-10-04T23:28:41Z</time>
      </trkpt>
      <trkpt lat="29.602062193030044" lon="106.31989741270674">
        <ele>254.0543212890625</ele>
        <time>2026-10-04T23:28:53Z</time>
      </trkpt>
      <trkpt lat="29.60212020767133" lon="106.31988045115703">
        <ele>254.127197265625</ele>
        <time>2026-10-04T23:28:59Z</time>
      </trkpt>
      <trkpt lat="29.602244101047678" lon="106.31991635484479">
        <ele>253.8155517578125</ele>
        <time>2026-10-04T23:29:11Z</time>
      </trkpt>
      <trkpt lat="29.6023790730645" lon="106.31990936397627">
        <ele>256.34271240234375</ele>
        <time>2026-10-04T23:29:23Z</time>
      </trkpt>
      <trkpt lat="29.60243213883139" lon="106.31986646688455">
        <ele>255.2379150390625</ele>
        <time>2026-10-04T23:29:29Z</time>
      </trkpt>
      <trkpt lat="29.60245625350286" lon="106.31980262334427">
        <ele>254.698974609375</ele>
        <time>2026-10-04T23:29:35Z</time>
      </trkpt>
      <trkpt lat="29.60243952937486" lon="106.31966097465533">
        <ele>253.826171875</ele>
        <time>2026-10-04T23:29:47Z</time>
      </trkpt>
      <trkpt lat="29.602447683196583" lon="106.31957917640536">
        <ele>254.17120361328125</ele>
        <time>2026-10-04T23:29:53Z</time>
      </trkpt>
      <trkpt lat="29.60249477933386" lon="106.31952131659327">
        <ele>255.3056640625</ele>
        <time>2026-10-04T23:29:59Z</time>
      </trkpt>
      <trkpt lat="29.602557798169123" lon="106.31950136210827">
        <ele>255.22149658203125</ele>
        <time>2026-10-04T23:30:05Z</time>
      </trkpt>
      <trkpt lat="29.602767707291516" lon="106.31951531492489">
        <ele>256.929443359375</ele>
        <time>2026-10-04T23:30:23Z</time>
      </trkpt>
      <trkpt lat="29.602883755681187" lon="106.31947141641699">
        <ele>256.8927001953125</ele>
        <time>2026-10-04T23:30:35Z</time>
      </trkpt>
      <trkpt lat="29.602909877283086" lon="106.31940358249193">
        <ele>255.63909912109375</ele>
        <time>2026-10-04T23:30:41Z</time>
      </trkpt>
      <trkpt lat="29.602840129134027" lon="106.31928288495908">
        <ele>254.3343505859375</ele>
        <time>2026-10-04T23:30:47Z</time>
      </trkpt>
      <trkpt lat="29.60292246586194" lon="106.31909334817873">
        <ele>250.28955078125</ele>
        <time>2026-10-04T23:30:53Z</time>
      </trkpt>
      <trkpt lat="29.602936731871516" lon="106.31895169709763">
        <ele>249.920654296875</ele>
        <time>2026-10-04T23:31:05Z</time>
      </trkpt>
      <trkpt lat="29.602887042077292" lon="106.3187970817671">
        <ele>249.356689453125</ele>
        <time>2026-10-04T23:31:17Z</time>
      </trkpt>
      <trkpt lat="29.602904312698175" lon="106.31865243765023">
        <ele>251.37774658203125</ele>
        <time>2026-10-04T23:31:29Z</time>
      </trkpt>
      <trkpt lat="29.602890469108196" lon="106.31857263535652">
        <ele>250.5760498046875</ele>
        <time>2026-10-04T23:31:35Z</time>
      </trkpt>
      <trkpt lat="29.60291806530811" lon="106.31825541587847">
        <ele>254.548095703125</ele>
        <time>2026-10-04T23:31:59Z</time>
      </trkpt>
      <trkpt lat="29.602947751547315" lon="106.31789031356384">
        <ele>251.48809814453125</ele>
        <time>2026-10-04T23:32:29Z</time>
      </trkpt>
      <trkpt lat="29.602954897460076" lon="106.31781250471315">
        <ele>251.34246826171875</ele>
        <time>2026-10-04T23:32:35Z</time>
      </trkpt>
      <trkpt lat="29.60292216180972" lon="106.3176788357173">
        <ele>255.30230712890625</ele>
        <time>2026-10-04T23:32:47Z</time>
      </trkpt>
      <trkpt lat="29.60295043967765" lon="106.3175282046422">
        <ele>252.85693359375</ele>
        <time>2026-10-04T23:32:59Z</time>
      </trkpt>
      <trkpt lat="29.602957070952883" lon="106.31719502348724">
        <ele>254.44091796875</ele>
        <time>2026-10-04T23:33:23Z</time>
      </trkpt>
      <trkpt lat="29.60293878306104" lon="106.3168229385525">
        <ele>252.258056640625</ele>
        <time>2026-10-04T23:33:53Z</time>
      </trkpt>
      <trkpt lat="29.602949222696044" lon="106.31658951076773">
        <ele>252.74462890625</ele>
        <time>2026-10-04T23:34:12Z</time>
      </trkpt>
      <trkpt lat="29.60292736367081" lon="106.3165186858139">
        <ele>254.5797119140625</ele>
        <time>2026-10-04T23:34:18Z</time>
      </trkpt>
      <trkpt lat="29.60288248517666" lon="106.31646182796219">
        <ele>256.58587646484375</ele>
        <time>2026-10-04T23:34:24Z</time>
      </trkpt>
      <trkpt lat="29.60275761221046" lon="106.31641495044657">
        <ele>255.779541015625</ele>
        <time>2026-10-04T23:34:36Z</time>
      </trkpt>
      <trkpt lat="29.602689636775576" lon="106.31641295943322">
        <ele>255.4788818359375</ele>
        <time>2026-10-04T23:34:42Z</time>
      </trkpt>
      <trkpt lat="29.602630607560407" lon="106.31643790184228">
        <ele>254.07940673828125</ele>
        <time>2026-10-04T23:34:48Z</time>
      </trkpt>
      <trkpt lat="29.60253844853476" lon="106.31653666520435">
        <ele>252.91546630859375</ele>
        <time>2026-10-04T23:35:00Z</time>
      </trkpt>
      <trkpt lat="29.60251533832785" lon="106.31659851488368">
        <ele>253.16094970703125</ele>
        <time>2026-10-04T23:35:06Z</time>
      </trkpt>
      <trkpt lat="29.602515041337245" lon="106.31675513059396">
        <ele>254.26336669921875</ele>
        <time>2026-10-04T23:35:18Z</time>
      </trkpt>
      <trkpt lat="29.60257745606472" lon="106.3170533944253">
        <ele>255.83258056640625</ele>
        <time>2026-10-04T23:35:42Z</time>
      </trkpt>
      <trkpt lat="29.6025611938719" lon="106.31719404979573">
        <ele>254.8883056640625</ele>
        <time>2026-10-04T23:35:54Z</time>
      </trkpt>
      <trkpt lat="29.602452819441925" lon="106.31740852906194">
        <ele>255.97735595703125</ele>
        <time>2026-10-04T23:36:12Z</time>
      </trkpt>
      <trkpt lat="29.602350666742417" lon="106.31750529723091">
        <ele>256.415771484375</ele>
        <time>2026-10-04T23:36:24Z</time>
      </trkpt>
      <trkpt lat="29.602289630422337" lon="106.31753422974614">
        <ele>255.77362060546875</ele>
        <time>2026-10-04T23:36:30Z</time>
      </trkpt>
      <trkpt lat="29.602095615878675" lon="106.31757314572809">
        <ele>255.27838134765625</ele>
        <time>2026-10-04T23:36:48Z</time>
      </trkpt>
      <trkpt lat="29.601965627272467" lon="106.31758811674787">
        <ele>256.30584716796875</ele>
        <time>2026-10-04T23:37:00Z</time>
      </trkpt>
      <trkpt lat="29.601908595432178" lon="106.31761405636938">
        <ele>256.924072265625</ele>
        <time>2026-10-04T23:37:06Z</time>
      </trkpt>
      <trkpt lat="29.60187551449625" lon="106.31766194053736">
        <ele>256.33502197265625</ele>
        <time>2026-10-04T23:37:12Z</time>
      </trkpt>
      <trkpt lat="29.60186040336283" lon="106.31772279168881">
        <ele>254.41412353515625</ele>
        <time>2026-10-04T23:37:18Z</time>
      </trkpt>
      <trkpt lat="29.601854715799142" lon="106.31808490033477">
        <ele>255.59979248046875</ele>
        <time>2026-10-04T23:37:48Z</time>
      </trkpt>
      <trkpt lat="29.60186000331635" lon="106.31845798042421">
        <ele>256.333251953125</ele>
        <time>2026-10-04T23:38:18Z</time>
      </trkpt>
      <trkpt lat="29.601867727075298" lon="106.31860162566427">
        <ele>256.9300537109375</ele>
        <time>2026-10-04T23:38:30Z</time>
      </trkpt>
      <trkpt lat="29.601842599716587" lon="106.31867245244759">
        <ele>257.2275390625</ele>
        <time>2026-10-04T23:38:36Z</time>
      </trkpt>
      <trkpt lat="29.60187531567212" lon="106.31881609599934">
        <ele>258.14404296875</ele>
        <time>2026-10-04T23:38:48Z</time>
      </trkpt>
      <trkpt lat="29.601884615992134" lon="106.31918119395445">
        <ele>255.0545654296875</ele>
        <time>2026-10-04T23:39:18Z</time>
      </trkpt>
      <trkpt lat="29.60189148055176" lon="106.31925102104215">
        <ele>254.62322998046875</ele>
        <time>2026-10-04T23:39:24Z</time>
      </trkpt>
      <trkpt lat="29.60193136354211" lon="106.319305883084">
        <ele>255.701416015625</ele>
        <time>2026-10-04T23:39:30Z</time>
      </trkpt>
      <trkpt lat="29.60194209349524" lon="106.31944553732214">
        <ele>255.3975830078125</ele>
        <time>2026-10-04T23:39:42Z</time>
      </trkpt>
      <trkpt lat="29.601926383431238" lon="106.31981961336642">
        <ele>251.196533203125</ele>
        <time>2026-10-04T23:40:12Z</time>
      </trkpt>
      <trkpt lat="29.601927106655246" lon="106.31996425550992">
        <ele>249.660400390625</ele>
        <time>2026-10-04T23:40:24Z</time>
      </trkpt>
      <trkpt lat="29.60194898548812" lon="106.3200241061005">
        <ele>249.9906005859375</ele>
        <time>2026-10-04T23:40:30Z</time>
      </trkpt>
      <trkpt lat="29.60200201691787" lon="106.31999916460693">
        <ele>250.05377197265625</ele>
        <time>2026-10-04T23:40:36Z</time>
      </trkpt>
      <trkpt lat="29.602031137700713" lon="106.31993133067563">
        <ele>251.96429443359375</ele>
        <time>2026-10-04T23:40:42Z</time>
      </trkpt>
      <trkpt lat="29.602154157214688" lon="106.31990139728764">
        <ele>251.67706298828125</ele>
        <time>2026-10-04T23:40:54Z</time>
      </trkpt>
      <trkpt lat="29.602365071629354" lon="106.31991235741768">
        <ele>254.01123046875</ele>
        <time>2026-10-04T23:41:12Z</time>
      </trkpt>
      <trkpt lat="29.60242010055754" lon="106.31988841332317">
        <ele>253.42401123046875</ele>
        <time>2026-10-04T23:41:18Z</time>
      </trkpt>
      <trkpt lat="29.6024492079842" lon="106.31982756208627">
        <ele>251.7174072265625</ele>
        <time>2026-10-04T23:41:24Z</time>
      </trkpt>
      <trkpt lat="29.6024286261245" lon="106.31961209616894">
        <ele>254.0140380859375</ele>
        <time>2026-10-04T23:41:42Z</time>
      </trkpt>
      <trkpt lat="29.602470729513943" lon="106.31955124406566">
        <ele>253.36798095703125</ele>
        <time>2026-10-04T23:41:48Z</time>
      </trkpt>
      <trkpt lat="29.60275666111304" lon="106.31954125147753">
        <ele>255.70062255859375</ele>
        <time>2026-10-04T23:42:12Z</time>
      </trkpt>
      <trkpt lat="29.60282364826119" lon="106.31953725730054">
        <ele>254.01220703125</ele>
        <time>2026-10-04T23:42:18Z</time>
      </trkpt>
      <trkpt lat="29.60287570477844" lon="106.31949934786314">
        <ele>251.5797119140625</ele>
        <time>2026-10-04T23:42:24Z</time>
      </trkpt>
      <trkpt lat="29.602907828364657" lon="106.31942951851663">
        <ele>252.349609375</ele>
        <time>2026-10-04T23:42:30Z</time>
      </trkpt>
      <trkpt lat="29.60294052699188" lon="106.31905843331295">
        <ele>255.4241943359375</ele>
        <time>2026-10-04T23:42:57Z</time>
      </trkpt>
      <trkpt lat="29.60292310527474" lon="106.31875817560469">
        <ele>251.6551513671875</ele>
        <time>2026-10-04T23:43:21Z</time>
      </trkpt>
      <trkpt lat="29.602939235441173" lon="106.31868734940126">
        <ele>251.5029296875</ele>
        <time>2026-10-04T23:43:27Z</time>
      </trkpt>
      <trkpt lat="29.60291791328965" lon="106.31833521916913">
        <ele>254.5689697265625</ele>
        <time>2026-10-04T23:43:57Z</time>
      </trkpt>
      <trkpt lat="29.602938594823115" lon="106.31797410775451">
        <ele>250.818603515625</ele>
        <time>2026-10-04T23:44:27Z</time>
      </trkpt>
      <trkpt lat="29.602968855226116" lon="106.31783245475246">
        <ele>249.1793212890625</ele>
        <time>2026-10-04T23:44:39Z</time>
      </trkpt>
      <trkpt lat="29.602955404014278" lon="106.31754616017012">
        <ele>249.86676025390625</ele>
        <time>2026-10-04T23:45:03Z</time>
      </trkpt>
      <trkpt lat="29.602908655391932" lon="106.31742146969773">
        <ele>253.957275390625</ele>
        <time>2026-10-04T23:45:15Z</time>
      </trkpt>
      <trkpt lat="29.602943374509977" lon="106.31703741158435">
        <ele>250.72003173828125</ele>
        <time>2026-10-04T23:45:45Z</time>
      </trkpt>
      <trkpt lat="29.602949094084675" lon="106.31665734435067">
        <ele>252.516845703125</ele>
        <time>2026-10-04T23:46:15Z</time>
      </trkpt>
      <trkpt lat="29.602914352515402" lon="106.31652666702462">
        <ele>257.106689453125</ele>
        <time>2026-10-04T23:46:27Z</time>
      </trkpt>
      <trkpt lat="29.60286648061241" lon="106.31646681669542">
        <ele>258.660400390625</ele>
        <time>2026-10-04T23:46:33Z</time>
      </trkpt>
      <trkpt lat="29.60273861234718" lon="106.31641794425374">
        <ele>255.71270751953125</ele>
        <time>2026-10-04T23:46:45Z</time>
      </trkpt>
      <trkpt lat="29.60266964666999" lon="106.31641096552906">
        <ele>255.2578125</ele>
        <time>2026-10-04T23:46:51Z</time>
      </trkpt>
      <trkpt lat="29.602570523828025" lon="106.31649177336774">
        <ele>254.305419921875</ele>
        <time>2026-10-04T23:47:03Z</time>
      </trkpt>
      <trkpt lat="29.602505299779303" lon="106.31662046164774">
        <ele>254.77117919921875</ele>
        <time>2026-10-04T23:47:15Z</time>
      </trkpt>
      <trkpt lat="29.602532871194356" lon="106.31684191647938">
        <ele>255.5074462890625</ele>
        <time>2026-10-04T23:47:33Z</time>
      </trkpt>
      <trkpt lat="29.60258443877303" lon="106.3170613743993">
        <ele>254.90380859375</ele>
        <time>2026-10-04T23:47:51Z</time>
      </trkpt>
      <trkpt lat="29.60258628473868" lon="106.31714217575917">
        <ele>255.17559814453125</ele>
        <time>2026-10-04T23:47:57Z</time>
      </trkpt>
      <trkpt lat="29.602530877092583" lon="106.31736562983653">
        <ele>255.59075927734375</ele>
        <time>2026-10-04T23:48:15Z</time>
      </trkpt>
      <trkpt lat="29.602442684095227" lon="106.31748135057461">
        <ele>254.64862060546875</ele>
        <time>2026-10-04T23:48:27Z</time>
      </trkpt>
      <trkpt lat="29.60232160355683" lon="106.31754320573272">
        <ele>254.5452880859375</ele>
        <time>2026-10-04T23:48:39Z</time>
      </trkpt>
      <trkpt lat="29.601990608228025" lon="106.31759410051589">
        <ele>257.34320068359375</ele>
        <time>2026-10-04T23:49:09Z</time>
      </trkpt>
      <trkpt lat="29.60192759150308" lon="106.317613057679">
        <ele>258.2646484375</ele>
        <time>2026-10-04T23:49:15Z</time>
      </trkpt>
      <trkpt lat="29.601871523311416" lon="106.31765795059732">
        <ele>259.323974609375</ele>
        <time>2026-10-04T23:49:21Z</time>
      </trkpt>
      <trkpt lat="29.601840248197085" lon="106.31780758418132">
        <ele>256.950439453125</ele>
        <time>2026-10-04T23:49:33Z</time>
      </trkpt>
      <trkpt lat="29.601879979672265" lon="106.31794225018851">
        <ele>255.45086669921875</ele>
        <time>2026-10-04T23:49:45Z</time>
      </trkpt>
      <trkpt lat="29.601875325616714" lon="106.31828640252158">
        <ele>255.54193115234375</ele>
        <time>2026-10-04T23:50:15Z</time>
      </trkpt>
      <trkpt lat="29.601871636467415" lon="106.3186485097643">
        <ele>256.9544677734375</ele>
        <time>2026-10-04T23:50:45Z</time>
      </trkpt>
      <trkpt lat="29.60187896620757" lon="106.31899864512985">
        <ele>255.2066650390625</ele>
        <time>2026-10-04T23:51:15Z</time>
      </trkpt>
      <trkpt lat="29.601889431651085" lon="106.3192769570883">
        <ele>254.5201416015625</ele>
        <time>2026-10-04T23:51:36Z</time>
      </trkpt>
      <trkpt lat="29.601924310454912" lon="106.31933481202975">
        <ele>255.85186767578125</ele>
        <time>2026-10-04T23:51:42Z</time>
      </trkpt>
      <trkpt lat="29.60191960860673" lon="106.31970290241962">
        <ele>254.38201904296875</ele>
        <time>2026-10-04T23:52:12Z</time>
      </trkpt>
      <trkpt lat="29.60193900571811" lon="106.32001512891708">
        <ele>256.9495849609375</ele>
        <time>2026-10-04T23:52:36Z</time>
      </trkpt>
      <trkpt lat="29.601981954392713" lon="106.32003507695983">
        <ele>255.38751220703125</ele>
        <time>2026-10-04T23:52:42Z</time>
      </trkpt>
      <trkpt lat="29.602045972918756" lon="106.32001512246342">
        <ele>256.55126953125</ele>
        <time>2026-10-04T23:52:48Z</time>
      </trkpt>
      <trkpt lat="29.60218691255419" lon="106.32002409174554">
        <ele>256.452392578125</ele>
        <time>2026-10-04T23:53:00Z</time>
      </trkpt>
      <trkpt lat="29.602214804802927" lon="106.3200759617047">
        <ele>254.448486328125</ele>
        <time>2026-10-04T23:53:06Z</time>
      </trkpt>
      <trkpt lat="29.60222154705155" lon="106.32020963047255">
        <ele>254.3319091796875</ele>
        <time>2026-10-04T23:53:18Z</time>
      </trkpt>
      <trkpt lat="29.60227041948453" lon="106.32026848183618">
        <ele>255.76092529296875</ele>
        <time>2026-10-04T23:53:24Z</time>
      </trkpt>
      <trkpt lat="29.602327386769602" lon="106.32027645864335">
        <ele>256.65789794921875</ele>
        <time>2026-10-04T23:53:30Z</time>
      </trkpt>
      <trkpt lat="29.602343433384977" lon="106.32024952434853">
        <ele>257.58831787109375</ele>
        <time>2026-10-04T23:53:33Z</time>
      </trkpt>
    </trkseg>
  </trk>
</gpx>