<?xml version="1.0" encoding="UTF-8"?>
<gpx xmlns="http://www.topografix.com/GPX/1/1" xmlns:gpxtpx="http://www.garmin.com/xmlschemas/TrackPointExtension/v1" xmlns:xsi="http://www.w3.org/2001/XMLSchema-instance" xsi:schemaLocation="http://www.topografix.com/GPX/1/1 http://www.topografix.com/GPX/1/1/gpx.xsd" version="1.1" creator="gpx.py -- https://github.com/tkrajina/gpxpy">
  <trk>
    <name>gpx from keep</name>
    <type>Walk</type>
    <trkseg>
      <trkpt lat="29.60186018132872" lon="106.31783950438962">
        <ele>261.3428955078125</ele>
        <time>2026-08-19T23:02:06Z</time>
        <extensions>
          <gpxtpx:TrackPointExtension>
            <gpxtpx:hr>150</gpxtpx:hr>
          </gpxtpx:TrackPointExtension>
        </extensions>
      </trkpt>
      <trkpt lat="29.601886057566304" lon="106.31790035299866">
        <ele>260.0008544921875</ele>
        <time>2026-08-19T23:02:12Z</time>
        <extensions>
          <gpxtpx:TrackPointExtension>
            <gpxtpx:hr>150</gpxtpx:hr>
          </gpxtpx:TrackPointExtension>
        </extensions>
      </trkpt>
      <trkpt lat="29.601876914140593" lon="106.31797716438413">
        <ele>259.54254150390625</ele>
        <time>2026-08-19T23:02:18Z</time>
        <extensions>
          <gpxtpx:TrackPointExtension>
            <gpxtpx:hr>150</gpxtpx:hr>
          </gpxtpx:TrackPointExtension>
        </extensions>
      </trkpt>
      <trkpt lat="29.601887211717894" lon="106.31834425917843">
        <ele>258.7685546875</ele>
        <time>2026-08-19T23:02:48Z</time>
      </trkpt>
      <trkpt lat="29.601909932852653" lon="106.31848690607278">
        <ele>257.4259033203125</ele>
        <time>2026-08-19T23:03:00Z</time>
      </trkpt>
      <trkpt lat="29.601868268351055" lon="106.31884203240914">
        <ele>258.30224609375</ele>
        <time>2026-08-19T23:03:30Z</time>
      </trkpt>
      <trkpt lat="29.601870123123003" lon="106.31891784515406">
        <ele>257.9652099609375</ele>
        <time>2026-08-19T23:03:36Z</time>
      </trkpt>
      <trkpt lat="29.60184286113855" lon="106.3190594970494">
        <ele>258.9691162109375</ele>
        <time>2026-08-19T23:03:48Z</time>
      </trkpt>
      <trkpt lat="29.601925127283376" lon="106.31943057532693">
        <ele>256.7081298828125</ele>
        <time>2026-08-19T23:04:18Z</time>
      </trkpt>
      <trkpt lat="29.601905990221905" lon="106.31950539156263">
        <ele>256.0279541015625</ele>
        <time>2026-08-19T23:04:24Z</time>
      </trkpt>
      <trkpt lat="29.601919871604046" lon="106.3195652427698">
        <ele>254.142822265625</ele>
        <time>2026-08-19T23:04:30Z</time>
      </trkpt>
      <trkpt lat="29.601919574297696" lon="106.31972085801918">
        <ele>255.416748046875</ele>
        <time>2026-08-19T23:04:42Z</time>
      </trkpt>
      <trkpt lat="29.60190344576893" lon="106.31979068630073">
        <ele>256.338134765625</ele>
        <time>2026-08-19T23:04:48Z</time>
      </trkpt>
      <trkpt lat="29.60190614932551" lon="106.31994530366578">
        <ele>257.952880859375</ele>
        <time>2026-08-19T23:05:00Z</time>
      </trkpt>
      <trkpt lat="29.60192101505131" lon="106.32001313493902">
        <ele>257.37152099609375</ele>
        <time>2026-08-19T23:05:06Z</time>
      </trkpt>
      <trkpt lat="29.60198799832451" lon="106.32001113583419">
        <ele>258.8233642578125</ele>
        <time>2026-08-19T23:05:12Z</time>
      </trkpt>
      <trkpt lat="29.60202611635109" lon="106.31994330136385">
        <ele>258.0938720703125</ele>
        <time>2026-08-19T23:05:18Z</time>
      </trkpt>
      <trkpt lat="29.602077180806553" lon="106.31990140193166">
        <ele>257.1632080078125</ele>
        <time>2026-08-19T23:05:24Z</time>
      </trkpt>
      <trkpt lat="29.60237015780611" lon="106.31986647062388">
        <ele>256.9947509765625</ele>
        <time>2026-08-19T23:05:54Z</time>
      </trkpt>
      <trkpt lat="29.602422193368437" lon="106.31983953410713">
        <ele>256.26318359375</ele>
        <time>2026-08-19T23:06:00Z</time>
      </trkpt>
      <trkpt lat="29.602448299796492" lon="106.31977968056984">
        <ele>256.20751953125</ele>
        <time>2026-08-19T23:06:06Z</time>
      </trkpt>
      <trkpt lat="29.602454559090205" lon="106.3196430181461">
        <ele>258.57159423828125</ele>
        <time>2026-08-19T23:06:18Z</time>
      </trkpt>
      <trkpt lat="29.602481684227087" lon="106.31957318915119">
        <ele>258.1085205078125</ele>
        <time>2026-08-19T23:06:24Z</time>
      </trkpt>
      <trkpt lat="29.60253474613831" lon="106.31953228705753">
        <ele>257.48486328125</ele>
        <time>2026-08-19T23:06:30Z</time>
      </trkpt>
      <trkpt lat="29.60276567551135" lon="106.31953227312734">
        <ele>259.351318359375</ele>
        <time>2026-08-19T23:06:54Z</time>
      </trkpt>
      <trkpt lat="29.60283468300813" lon="106.31951730595306">
        <ele>260.7205810546875</ele>
        <time>2026-08-19T23:07:00Z</time>
      </trkpt>
      <trkpt lat="29.602890740206625" lon="106.31947839873617">
        <ele>262.32763671875</ele>
        <time>2026-08-19T23:07:06Z</time>
      </trkpt>
      <trkpt lat="29.602909846803822" lon="106.31941954304871">
        <ele>262.5872802734375</ele>
        <time>2026-08-19T23:07:12Z</time>
      </trkpt>
      <trkpt lat="29.602927578549977" lon="106.31903349567797">
        <ele>259.8128662109375</ele>
        <time>2026-08-19T23:07:42Z</time>
      </trkpt>
      <trkpt lat="29.602910023637097" lon="106.31880306560932">
        <ele>258.36151123046875</ele>
        <time>2026-08-19T23:08:00Z</time>
      </trkpt>
      <trkpt lat="29.602940297899416" lon="106.31865443055803">
        <ele>257.533203125</ele>
        <time>2026-08-19T23:08:12Z</time>
      </trkpt>
      <trkpt lat="29.602924996665763" lon="106.31829032940107">
        <ele>257.88262939453125</ele>
        <time>2026-08-19T23:08:42Z</time>
      </trkpt>
      <trkpt lat="29.602910550209483" lon="106.31800204064793">
        <ele>255.61212158203125</ele>
        <time>2026-08-19T23:09:06Z</time>
      </trkpt>
      <trkpt lat="29.602868705437135" lon="106.31792722743728">
        <ele>256.475830078125</ele>
        <time>2026-08-19T23:09:12Z</time>
      </trkpt>
      <trkpt lat="29.60280811125595" lon="106.31772373210978">
        <ele>265.31256103515625</ele>
        <time>2026-08-19T23:09:30Z</time>
      </trkpt>
      <trkpt lat="29.6028717102972" lon="106.31739852834725">
        <ele>271.1580810546875</ele>
        <time>2026-08-19T23:10:00Z</time>
      </trkpt>
      <trkpt lat="29.602917397600457" lon="106.3170294327536">
        <ele>262.928955078125</ele>
        <time>2026-08-19T23:10:31Z</time>
      </trkpt>
      <trkpt lat="29.60295679838136" lon="106.31681196440482">
        <ele>259.2779541015625</ele>
        <time>2026-08-19T23:10:49Z</time>
      </trkpt>
      <trkpt lat="29.602950940239342" lon="106.31673814595226">
        <ele>260.13092041015625</ele>
        <time>2026-08-19T23:10:55Z</time>
      </trkpt>
      <trkpt lat="29.602888343439915" lon="106.31653564657115">
        <ele>260.2650146484375</ele>
        <time>2026-08-19T23:11:13Z</time>
      </trkpt>
      <trkpt lat="29.602806525408926" lon="106.31645285455363">
        <ele>261.1641845703125</ele>
        <time>2026-08-19T23:11:25Z</time>
      </trkpt>
      <trkpt lat="29.602755586359933" lon="106.31642891632659">
        <ele>259.80615234375</ele>
        <time>2026-08-19T23:11:31Z</time>
      </trkpt>
      <trkpt lat="29.60269360909118" lon="106.31642692495215">
        <ele>259.22705078125</ele>
        <time>2026-08-19T23:11:37Z</time>
      </trkpt>
      <trkpt lat="29.602589548265225" lon="106.316475811363">
        <ele>258.147705078125</ele>
        <time>2026-08-19T23:11:49Z</time>
      </trkpt>
      <trkpt lat="29.60252537309149" lon="106.31657856322201">
        <ele>258.50262451171875</ele>
        <time>2026-08-19T23:12:01Z</time>
      </trkpt>
      <trkpt lat="29.602509118852932" lon="106.31671522888128">
        <ele>259.81890869140625</ele>
        <time>2026-08-19T23:12:13Z</time>
      </trkpt>
      <trkpt lat="29.60257555514826" lon="106.31700152196241">
        <ele>259.8604736328125</ele>
        <time>2026-08-19T23:12:37Z</time>
      </trkpt>
      <trkpt lat="29.602582132502892" lon="106.31722297743343">
        <ele>259.2659912109375</ele>
        <time>2026-08-19T23:12:55Z</time>
      </trkpt>
      <trkpt lat="29.602518884554474" lon="106.31736363546497">
        <ele>259.066650390625</ele>
        <time>2026-08-19T23:13:07Z</time>
      </trkpt>
      <trkpt lat="29.60240271719371" lon="106.31747037997314">
        <ele>260.3648681640625</ele>
        <time>2026-08-19T23:13:19Z</time>
      </trkpt>
      <trkpt lat="29.602089680304044" lon="106.31754022707308">
        <ele>260.62493896484375</ele>
        <time>2026-08-19T23:13:49Z</time>
      </trkpt>
      <trkpt lat="29.601968734458207" lon="106.31753125644866">
        <ele>259.039306640625</ele>
        <time>2026-08-19T23:14:01Z</time>
      </trkpt>
      <trkpt lat="29.601908694062423" lon="106.3175621839906">
        <ele>259.67413330078125</ele>
        <time>2026-08-19T23:14:07Z</time>
      </trkpt>
      <trkpt lat="29.601866621590137" lon="106.31760707608086">
        <ele>259.3865966796875</ele>
        <time>2026-08-19T23:14:13Z</time>
      </trkpt>
      <trkpt lat="29.60187511029453" lon="106.31787441752401">
        <ele>257.5418701171875</ele>
        <time>2026-08-19T23:14:37Z</time>
      </trkpt>
      <trkpt lat="29.6018480008776" lon="106.31793626685639">
        <ele>258.63970947265625</ele>
        <time>2026-08-19T23:14:43Z</time>
      </trkpt>
      <trkpt lat="29.601861869372897" lon="106.31800310140828">
        <ele>259.0675048828125</ele>
        <time>2026-08-19T23:14:49Z</time>
      </trkpt>
      <trkpt lat="29.601896148140955" lon="106.31837617994033">
        <ele>256.2335205078125</ele>
        <time>2026-08-19T23:15:19Z</time>
      </trkpt>
      <trkpt lat="29.601890468969376" lon="106.31873329941594">
        <ele>255.9622802734375</ele>
        <time>2026-08-19T23:15:49Z</time>
      </trkpt>
      <trkpt lat="29.601888786114536" lon="106.31909141544773">
        <ele>256.10955810546875</ele>
        <time>2026-08-19T23:16:19Z</time>
      </trkpt>
      <trkpt lat="29.601885528094613" lon="106.31922708054638">
        <ele>255.50079345703125</ele>
        <time>2026-08-19T23:16:31Z</time>
      </trkpt>
      <trkpt lat="29.601917245935844" lon="106.31936972618146">
        <ele>257.9366455078125</ele>
        <time>2026-08-19T23:16:43Z</time>
      </trkpt>
      <trkpt lat="29.601883756870567" lon="106.3196310821764">
        <ele>262.48394775390625</ele>
        <time>2026-08-19T23:17:07Z</time>
      </trkpt>
      <trkpt lat="29.60190708990437" lon="106.31997622710102">
        <ele>262.40380859375</ele>
        <time>2026-08-19T23:17:37Z</time>
      </trkpt>
      <trkpt lat="29.60193098147121" lon="106.3200290948452">
        <ele>262.15863037109375</ele>
        <time>2026-08-19T23:17:43Z</time>
      </trkpt>
      <trkpt lat="29.602108970777213" lon="106.32000614087669">
        <ele>260.580322265625</ele>
        <time>2026-08-19T23:18:01Z</time>
      </trkpt>
      <trkpt lat="29.602178932168687" lon="106.32001511444155">
        <ele>257.8287353515625</ele>
        <time>2026-08-19T23:18:07Z</time>
      </trkpt>
      <trkpt lat="29.602203791006094" lon="106.32008494015216">
        <ele>259.10369873046875</ele>
        <time>2026-08-19T23:18:16Z</time>
      </trkpt>
      <trkpt lat="29.602206540199123" lon="106.32021561656309">
        <ele>259.7391357421875</ele>
        <time>2026-08-19T23:18:28Z</time>
      </trkpt>
      <trkpt lat="29.602315415246274" lon="106.32026349146813">
        <ele>260.682373046875</ele>
        <time>2026-08-19T23:18:46Z</time>
      </trkpt>
    </trkseg>
  </trk>
</gpx>